"_ID","LIEU_DISTRIBUTION","TYPE_LIEU","NUMERO","ADRESSE","QUARTIER","QUARTIER_CIBLE","TYPE_DISTRIBUTION","RDV1","HDEBUT1","HFIN1","RDV2","HDEBUT2","HFIN2","RDV3","HDEBUT3","HFIN3","RDV4","HDEBUT4","HFIN4","OBSERVATIONS","CODE_POSTAL","COMMUNE","location"
"81","BUSWAY Ile de Nantes","","15","Boulevard Général de Gaulle","Ile de Nantes","Ile de Nantes","RDV","12/03/2015","14:30","19:00","02/07/2015","14:30","19:00","26/11/2015","14:30","19:00","","","","","44200","Nantes","[ 47.2060894902992 , -1.53854590781718]"
"82","Place de la Galarne","","","Place de la Galarne","Ile de Nantes","Ile de Nantes","RDV","14/03/2015","09:00","13:00","04/07/2015","09:00","13:00","28/11/2015","09:00","13:00","","","","","44200","Nantes","[ 47.2085362258834 , -1.52935429124361]"
"78","Mairie Annexe Ile de Nantes","Mairie annexe","2","Rue René Viviani","Ile de Nantes","Ile de Nantes","PDIS","","","","","","","","","","","","","","44200","Nantes","[ 47.2064887575653 , -1.53805695280743]"
"75","Magasin Spar","Commerce","1","Boulevard de la Prairie au Duc","Ile de Nantes","Ile de Nantes","PDIS","","","","","","","","","","","","","","44200","Nantes","[ 47.2050820696464 , -1.55787114812441]"
"76","Boulangerie Pain de Sophie","Commerce","10","Boulevard Babin Chevaye","Ile de Nantes","Ile de Nantes","PDIS","","","","","","","","","","","","","","44200","Nantes","[ 47.2060001238051 , -1.54910705816115]"
"77","Boulangerie Le Fournil de Mangin","Commerce","1","Place Mangin","Ile de Nantes","Ile de Nantes","PDIS","","","","","","","","","","","","","","44200","Nantes","[ 47.2015607835123 , -1.54396702195568]"
"109","Ecole Jonelière","","76","Route de la Jonelière","Nantes Nord","Nantes Nord/Barberie","RDV","23/02/2015","14:30","19:00","15/06/2015","14:30","19:00","09/11/2015","14:30","19:00","","","","","44300","Nantes","[ 47.2523238818019 , -1.54648492508947]"
"106","Rue de la Fantaisie/Rue Clément Marot","","","Rue de la Fantaisie","Nantes Nord","Nantes Nord/Barberie","RDV","25/02/2015","14:30","19:00","17/06/2015","14:30","19:00","10/11/2015","14:30","19:00","","","","","44300","Nantes","[ 47.2530157668934 , -1.5698775521509]"
"107","Rue du Chêne Vert (Parking Beauséjour)","","","Rue du Chêne Vert","Breil - Barberie","Nantes Nord/Barberie","RDV","26/02/2015","14:30","19:00","18/06/2015","14:30","19:00","12/11/2015","14:30","19:00","","","","","44100","Nantes","[ 47.238619992713 , -1.58747180633725]"
"108","Rue Pierre Yvernogeau (skatepark)","","","Rue Pierre Yvernogeau","Breil - Barberie","Nantes Nord/Barberie","RDV","28/02/2015","09:00","13:00","20/06/2015","09:00","13:00","14/11/2015","09:00","13:00","","","","","44300","Nantes","[ 47.2416819425104 , -1.57269702373803]"
"105","Café tabac Le Sulky","Commerce","39","Boulevard des Tribunes","Nantes Nord","Nantes Nord/Barberie","PDIS","","","","","","","","","","","","","","44300","Nantes","[ 47.2486249344171 , -1.56854151413132]"
"102","Carrefour City","Commerce","14","Rue Guillaume Grootaers","Breil - Barberie","Nantes Nord/Barberie","PDIS","","","","","","","","","","","","","","44300","Nantes","[ 47.2388742571698 , -1.58500254760103]"
"103","Mairie Annexe Barberie","Mairie annexe","103","Rue Pierre Yvernogeau","Breil - Barberie","Nantes Nord/Barberie","PDIS","","","","","","","","","","","","","","44300","Nantes","[ 47.2408839755244 , -1.57215838506204]"
"104","Velo Campus","Autre","3","Chem de la Censive du Tertre","Nantes Nord","Nantes Nord/Barberie","PDIS","","","","","","","","","","","","","","44300","Nantes","[ 47.2431824722891 , -1.55410976861141]"
"101","Rue de Questembert (Ecole Françoise Dolto)","","3","Rue de Questembert","Nantes Nord","Nantes Nord","RDV","30/03/2015","14:30","19:00","14/09/2015","14:30","19:00","14/12/2015","14:30","19:00","","","","","44300","Nantes","[ 47.2649104117402 , -1.58006934317071]"
"97","84, route de la Chapelle","","84","Route de la Chapelle sur Erdre","Nantes Nord","Nantes Nord","RDV","01/04/2015","14:30","19:00","16/09/2015","14:30","19:00","16/12/2015","14:30","19:00","","","","","44300","Nantes","[ 47.2592431633445 , -1.57520707985812]"
"98","TRAM Santos Dumont","","","Rue des Renards","Nantes Nord","Nantes Nord","RDV","02/04/2015","14:30","19:00","17/09/2015","14:30","19:00","17/12/2015","14:30","19:00","","","","","44300","Nantes","[ 47.2596471391834 , -1.5679125622189]"
"99","Face au 19 rue du Paraguay","","19","Rue du Paraguay","Nantes Nord","Nantes Nord","RDV","03/04/2015","14:30","19:00","18/09/2015","14:30","19:00","18/12/2015","14:30","19:00","","","","","44300","Nantes","[ 47.2618224406621 , -1.56626305344391]"
"100","TRAM Bourgeonnière","","","Rue de la Bourgeonnière","Nantes Nord","Nantes Nord","RDV","04/04/2015","09:00","13:00","19/09/2015","09:00","13:00","19/12/2015","09:00","13:00","","","","","44300","Nantes","[ 47.2535014483975 , -1.55972844633941]"
"96","Pôle de proximité Erdre et Cens","Pôle de proximité","37","Boulevard Albert Einstein","Nantes Nord","Nantes Nord","PDIS","","","","","","","","","","","","","","44300","Nantes","[ 47.2640133773154 , -1.57244247186719]"
"94","Mairie Annexe Nantes Nord","Mairie annexe","41","Route de la Chapelle sur Erdre","Nantes Nord","Nantes Nord","PDIS","","","","","","","","","","","","","","44300","Nantes","[ 47.2567767936233 , -1.57597244158787]"
"95","Boulangerie La p'tite cantine","Commerce","4","Rue du Moulin des Rochettes","Nantes Nord","Nantes Nord","PDIS","","","","","","","","","","","","","","44300","Nantes","[ 47.2614647518517 , -1.58198910560769]"
"57","Rue de Koufra (Parking du gymnase Marsauderies)","","1","Rue de Koufra","Nantes Erdre","Erdre/Bottière/Ranzay/Perray","RDV","02/03/2015","14:30","19:00","22/06/2015","14:30","19:00","16/11/2015","14:30","19:00","","","","","44300","Nantes","[ 47.245637014142 , -1.5283399998071]"
"52","Place de la Bottière","","","Place de la Bottière","Doulon - Bottière","Erdre/Bottière/Ranzay/Perray","RDV","03/03/2015","14:30","19:00","23/06/2015","14:30","19:00","17/11/2015","14:30","19:00","","","","","44300","Nantes","[ 47.2404395996232 , -1.51834930812782]"
"53","Face au 22 Boulevard Professeur René Auvigné","","22","Boulevard Professeur René Auvigné","Nantes Erdre","Erdre/Bottière/Ranzay/Perray","RDV","04/03/2015","14:30","19:00","24/06/2015","14:30","19:00","18/11/2015","14:30","19:00","","","","","44300","Nantes","[ 47.2545247830002 , -1.51799911755854]"
"54","Place du Commandant Cousteau","","","Place du Commandant Cousteau","Doulon - Bottière","Erdre/Bottière/Ranzay/Perray","RDV","05/03/2015","14:30","19:00","25/06/2015","14:30","19:00","19/11/2015","14:30","19:00","","","","","44300","Nantes","[ 47.2401034784519 , -1.51309028430617]"
"55","3 Rue de la Planche au Gué","","3","Rue de la Planche au Gué","Nantes Erdre","Erdre/Bottière/Ranzay/Perray","RDV","06/03/2015","14:30","19:00","26/06/2015","14:30","19:00","20/11/2015","14:30","19:00","","","","","44300","Nantes","[ 47.2689928765624 , -1.52190435780587]"
"56","9 Rue Frédéric Mistral","","9","Rue Frédéric Mistral","Doulon - Bottière","Erdre/Bottière/Ranzay/Perray","RDV","07/03/2015","09:00","13:00","27/06/2015","09:00","13:00","21/11/2015","09:00","13:00","","","","","44300","Nantes","[ 47.2461633226959 , -1.51319004085688]"
"51","Mairie Annexe Bottière","Mairie annexe","69","Rue de la Bottière","Doulon - Bottière","Erdre/Bottière/Ranzay/Perray","PDIS","","","","","","","","","","","","","","44300","Nantes","[ 47.2399228283493 , -1.51902266594607]"
"46","Pôle de Proximité Erdre et Loire","Pôle de proximité","2","Rue Edouard Nignon","Nantes Erdre","Erdre/Bottière/Ranzay/Perray","PDIS","","","","","","","","","","","","","","44300","Nantes","[ 47.2754117135983 , -1.51029315941679]"
"47","Mairie Annexe Ranzay","Mairie annexe","249","Route de Saint Joseph","Nantes Erdre","Erdre/Bottière/Ranzay/Perray","PDIS","","","","","","","","","","","","","","44300","Nantes","[ 47.2537942509792 , -1.53042232617088]"
"48","Intermarché Eraudière","Commerce","173","Route de Saint Joseph","Nantes Erdre","Erdre/Bottière/Ranzay/Perray","PDIS","","","","","","","","","","","","","","44300","Nantes","[ 47.2448582942442 , -1.53349934743558]"
"49","Mairie Annexe Doulon","Mairie annexe","37","Boulevard Louis Millet","Doulon - Bottière","Erdre/Bottière/Ranzay/Perray","PDIS","","","","","","","","","","","","","","44300","Nantes","[ 47.2271572218589 , -1.51875867919863]"
"50","Boulangerie Gergaud","Commerce","26","Boulevard Professeur René Auvigné","Nantes Erdre","Erdre/Bottière/Ranzay/Perray","PDIS","","","","","","","","","","","","","","44300","Nantes","[ 47.2550070477686 , -1.51770954842734]"
"92","Pôle commercial Boulevard de Sarrebruck","","","Boulevard de Sarrebruck","Malakoff - Saint-Donatien","Malakoff/Nantes Sud","RDV","05/01/2015","14:30","19:00","07/04/2015","14:30","19:00","21/09/2015","14:30","19:00","","","","","44000","Nantes","[ 47.2140541748747 , -1.52755394590332]"
"89","Gare routière Pirmil","","","Rue Esnoult des Châtelets","Nantes Sud","Malakoff/Nantes Sud","RDV","07/01/2015","14:30","19:00","08/04/2015","14:30","19:00","23/09/2015","14:30","19:00","","","","","44200","Nantes","[ 47.1965881376402 , -1.54172925456256]"
"90","Piscine Petite Amazonie","","15","Rue du Pont de l'Arche de Mauves","Malakoff - Saint-Donatien","Malakoff/Nantes Sud","RDV","09/01/2015","14:30","19:00","10/04/2015","14:30","19:00","25/09/2015","14:30","19:00","","","","","44000","Nantes","[ 47.2162745514945 , -1.53235917330598]"
"91","Place du Muguet Nantais","","","Place du Muguet Nantais","Nantes Sud","Malakoff/Nantes Sud","RDV","10/01/2015","09:00","13:00","11/04/2015","09:00","13:00","26/09/2015","09:00","13:00","","","","","44200","Nantes","[ 47.1943572452049 , -1.52879967553758]"
"88","Mairie Annexe Malakoff","Mairie annexe","5","Boulevard de Berlin","Malakoff - Saint-Donatien","Malakoff/Nantes Sud","PDIS","","","","","","","","","","","","","","44000","Nantes","[ 47.214797092378 , -1.53044715448205]"
"84","Nantes Habitat Agence Angleterre","Organisme HLM","3","Boulevard de Berlin","Malakoff - Saint-Donatien","Malakoff/Nantes Sud","PDIS","","","","","","","","","","","","","","44000","Nantes","[ 47.2148979290296 , -1.53067100557785]"
"85","Nantes Habitat Agence Goudy","Organisme HLM","8","Rue Gabriel Goudy","Nantes Sud","Malakoff/Nantes Sud","PDIS","","","","","","","","","","","","","","44200","Nantes","[ 47.1954039867101 , -1.54125589789751]"
"86","Mairie Annexe Nantes Sud","Mairie annexe","69","Boulevard Joliot Curie","Nantes Sud","Malakoff/Nantes Sud","PDIS","","","","","","","","","","","","","","44200","Nantes","[ 47.1940947349268 , -1.53161011139837]"
"87","Super U Saint Jacques","Commerce","75","Boulevard Joliot Curie","Nantes Sud","Malakoff/Nantes Sud","PDIS","","","","","","","","","","","","","","44200","Nantes","[ 47.1938030862539 , -1.53073825436247]"
"121","Rue Gaston Turpin/ Rue Gambetta","","","Place Sophie Trébuchet","Malakoff - Saint-Donatien","Saint-Donatien","RDV","02/02/2015","14:30","19:00","08/06/2015","14:30","19:00","02/11/2015","14:30","19:00","","","","","44000","Nantes","[ 47.2205801969752 , -1.54550678204049]"
"117","Rue Pitre Chevalier/Allée de la Reine Margot","","","Rue Pitre Chevalier","Malakoff - Saint-Donatien","Saint-Donatien","RDV","04/02/2015","14:30","19:00","10/06/2015","14:30","19:00","04/11/2015","14:30","19:00","","","","","44000","Nantes","[ 47.2237506960654 , -1.55069595102173]"
"118","Boulevard Ernest Dalby -  parking Super U","","66","Boulevard Ernest Dalby","Malakoff - Saint-Donatien","Saint-Donatien","RDV","05/02/2015","14:30","19:00","11/06/2015","14:30","19:00","05/11/2015","14:30","19:00","","","","","44000","Nantes","[ 47.2241475694462 , -1.5304882397471]"
"119","Rue des Roches Grises (Eglise Saint-Augustin)","","","Rue des Roches Grises","Nantes Erdre","Saint-Donatien","RDV","06/02/2015","14:30","19:00","12/06/2015","14:30","19:00","06/11/2015","14:30","19:00","","","","","44300","Nantes","[ 47.238645194009 , -1.54504959881403]"
"120","Place des enfants nantais","","","Place des Enfants Nantais","Malakoff - Saint-Donatien","Saint-Donatien","RDV","07/02/2015","09:00","13:00","13/06/2015","09:00","13:00","07/11/2015","09:00","13:00","","","","","44000","Nantes","[ 47.2287750306491 , -1.54288080522534]"
"116","Pôle Municipal Strasbourg, Manufacture des tabacs","Service municipal","11","Boulevard de Stalingrad","Malakoff - Saint-Donatien","Saint-Donatien","PDIS","","","","","","","","","","","","","","44000","Nantes","[ 47.219327316701 , -1.53597100189593]"
"110","Casino","Commerce","103","Rue Général Buat","Malakoff - Saint-Donatien","Saint-Donatien","PDIS","","","","","","","","","","","","","","44000","Nantes","[ 47.2269310946374 , -1.54266531264632]"
"111","Carrefour Contact","Commerce","1","Boulevard des Professeurs Sourdille","Malakoff - Saint-Donatien","Saint-Donatien","PDIS","","","","","","","","","","","","","","44000","Nantes","[ 47.2350815675807 , -1.54727264614668]"
"112","Super U","Commerce","66","Boulevard Ernest Dalby","Malakoff - Saint-Donatien","Saint-Donatien","PDIS","","","","","","","","","","","","","","44000","Nantes","[ 47.2237968372807 , -1.53051590692239]"
"113","Intermarché","Commerce","20","Rue Pitre Chevalier","Malakoff - Saint-Donatien","Saint-Donatien","PDIS","","","","","","","","","","","","","","44000","Nantes","[ 47.2240146408693 , -1.5507635966278]"
"114","Boulangerie Le blé d'or","Commerce","30","Rue de Coulmiers","Malakoff - Saint-Donatien","Saint-Donatien","PDIS","","","","","","","","","","","","","","44000","Nantes","[ 47.2214550600641 , -1.53597049016502]"
"115","Boulangerie Rainard","Commerce","3","Route de Saint Joseph","Nantes Erdre","Saint-Donatien","PDIS","","","","","","","","","","","","","","44300","Nantes","[ 47.2349123885969 , -1.54129270631707]"
"45","Rue Emile Masson/Rue Fouré","","","Rue Emile Masson","Centre Ville","Centre-Ville","RDV","19/01/2015","14:30","19:00","26/05/2015","14:30","19:00","05/10/2015","14:30","19:00","","","","","44000","Nantes","[ 47.2139678600975 , -1.54651886318017]"
"36","Carrefour City","Commerce","6","Avenue Carnot","Centre Ville","Centre Ville","PDIS","","","","","","","","","","","","","","44000","Nantes","[ 47.2141080267953 , -1.54563551728059]"
"37","Devant la Piscine Léo Lagrange","","","Boulevard des Nations Unies","Centre Ville","Centre-Ville","RDV","21/01/2015","14:30","19:00","27/05/2015","14:30","19:00","07/10/2015","14:30","19:00","","","","","44000","Nantes","[ 47.209924940714 , -1.56107045739242]"
"38","Place du Bouffay","","","Place du Bouffay","Centre Ville","Centre-Ville","RDV","22/01/2015","14:30","19:00","28/05/2015","14:30","19:00","08/10/2015","14:30","19:00","","","","","44000","Nantes","[ 47.2147674483194 , -1.55328591629599]"
"39","Place de Bretagne","","","Place de Bretagne","Centre Ville","Centre-Ville","RDV","23/01/2015","14:30","19:00","29/05/2015","14:30","19:00","09/10/2015","14:30","19:00","","","","","44000","Nantes","[ 47.2175064328734 , -1.55911151379809]"
"40","Place Dulcie September","","","Place Dulcie September","Centre Ville","Centre-Ville","RDV","24/01/2015","09:00","13:00","30/05/2015","09:00","13:00","10/10/2015","09:00","13:00","","","","","44000","Nantes","[ 47.2169571645123 , -1.55444617450992]"
"41","Quai Turenne/Square Jean-Baptiste Daviais","","","Quai Turenne","Centre Ville","Centre-Ville","RDV","26/01/2015","14:30","19:00","01/06/2015","14:30","19:00","12/12/2015","14:30","19:00","","","","","44000","Nantes","[ 47.2128189777156 , -1.55414986696141]"
"42","Rue Huchette/Rue Gigant","","2","Rue Huchette","Centre Ville","Centre-Ville","RDV","28/01/2015","14:30","19:00","03/06/2015","14:30","19:00","14/10/2015","14:30","19:00","","","","","44100","Nantes","[ 47.214293051504 , -1.56914562067294]"
"43","Cours Saint Pierre","","","Cours Saint Pierre","Centre Ville","Centre-Ville","RDV","29/01/2015","14:30","19:00","04/06/2015","14:30","19:00","15/10/2015","14:30","19:00","","","","","44000","Nantes","[ 47.2191674356457 , -1.54955272355555]"
"44","Cours Cambronne","","","Rue des Cadeniers","Centre Ville","Centre-Ville","RDV","31/01/2015","09:00","13:00","06/06/2015","09:00","13:00","17/10/2015","09:00","13:00","","","","","44000","Nantes","[ 47.2124318278172 , -1.56246151143316]"
"22","Nantes Métropole, bâtiment Valmy","Service communautaire","11","Avenue Carnot","Centre Ville","Centre Ville","PDIS","","","","","","","","","","","","","","44000","Nantes","[ 47.213772438875 , -1.54478429944349]"
"23","Casino","Commerce","21","Chaussée de la Madeleine","Centre Ville","Centre Ville","PDIS","","","","","","","","","","","","","","44000","Nantes","[ 47.2107539109625 , -1.55128301666213]"
"24","Le Fournil d'Aristide","Commerce","26","Rue Jean Jaurès","Hauts Pavés - Saint Félix","Centre Ville","PDIS","","","","","","","","","","","","","","44000","Nantes","[ 47.2183146463099 , -1.56182083830304]"
"25","Mairie Centrale","Mairie","29","Rue de Strasbourg","Centre Ville","Centre Ville","PDIS","","","","","","","","","","","","","","44000","Nantes","[ 47.2187408227225 , -1.5536958967268]"
"26","Tabac Presse","Commerce","17","Allée Duguay Trouin","Centre Ville","Centre Ville","PDIS","","","","","","","","","","","","","","44000","Nantes","[ 47.2126326351651 , -1.55713180563729]"
"27","Tabac Presse Le Voltaire","Commerce","25","Rue Voltaire","Centre Ville","Centre Ville","PDIS","","","","","","","","","","","","","","44000","Nantes","[ 47.2115072896156 , -1.5669418362997]"
"28","Glup's","Commerce","10","Rue de la Fosse","Centre Ville","Centre Ville","PDIS","","","","","","","","","","","","","","44000","Nantes","[ 47.2137455319448 , -1.55888773622567]"
"29","Du Vert en Ville","Commerce","23","Rue Racine","Centre Ville","Centre Ville","PDIS","","","","","","","","","","","","","","44000","Nantes","[ 47.2142601633664 , -1.56527226639288]"
"30","Carrefour City","Commerce","3","Rue Cassini","Centre Ville","Centre Ville","PDIS","","","","","","","","","","","","","","44000","Nantes","[ 47.2149613500515 , -1.56504320917249]"
"31","Boulangerie","Commerce","4","Allée Duquesne","Centre Ville","Centre Ville","PDIS","","","","","","","","","","","","","","44000","Nantes","[ 47.217194173303 , -1.55668673593576]"
"32","Papeterie Pouteau","Commerce","4","Rue de l'Evêché","Centre Ville","Centre Ville","PDIS","","","","","","","","","","","","","","44000","Nantes","[ 47.218779776076 , -1.55070593629293]"
"33","Tabac Presse","Commerce","9","Rue de Budapest","Centre Ville","Centre Ville","PDIS","","","","","","","","","","","","","","44000","Nantes","[ 47.2166599968739 , -1.56003585012774]"
"34","Tabac Presse du Pilori","Commerce","2","Place du Pilori","Centre Ville","Centre Ville","PDIS","","","","","","","","","","","","","","44000","Nantes","[ 47.2162788431412 , -1.55302017441761]"
"35","Boulangerie La Mie Câline","Commerce","1","Allée Cassard","Centre Ville","Centre Ville","PDIS","","","","","","","","","","","","","","44000","Nantes","[ 47.2141405199086 , -1.55574826679528]"
"58","Leclerc Paridis","Commerce","","Rue du Perray","Doulon - Bottière","Erdre/Bottière/Ranzay/Perray","Vente","","","","","","","","","","","","","","44300","Nantes","[ 47.2494038393733 , -1.5158327811377]"
"59","Piscine Jules Verne","Autre","41","Rue Jules Grandjouan","Doulon - Bottière","Erdre/Bottière/Ranzay/Perray","vente_distrib_auto","","","","","","","","","","","","","","44300","Nantes","[ 47.2482207763996 , -1.51760995390533]"
"123","Intermarché","Commerce","20","Rue Pitre Chevalier","Malakoff - Saint-Donatien","Saint-Donatien","Vente","","","","","","","","","","","","","","44000","Nantes","[ 47.2241361571251 , -1.55092389659956]"
"122","Super U Dalby","Commerce","66","Boulevard Dalby","Malakoff - Saint-Donatien","Saint-Donatien","Vente","","","","","","","","","","","","","","44000","Nantes","[ 47.2237968372807 , -1.53051590692239]"
"74","Marché de Talensac","Marché","","Rue de Talensac","Hauts Pavés - Saint Félix","Hauts pavés/Saint Félix","vente_distrib_auto","","","","","","","","","","","","","","44000","Nantes","[ 47.2209513930215 , -1.55717213803952]"
"2","Mairie annexe Chantenay","Mairie annexe","1","Place de la Liberté","Bellevue - Chantenay - Sainte Anne","Bellevue - Chantenay","vente_distrib_auto","","","","","","","","","","","","","","44100","Nantes","[ 47.2067921189674 , -1.58852593613262]"
"93","Piscine Petite Amazonie","Autre","15","Rue du Pont de l'Arche de Mauves","Malakoff - Saint-Donatien","Malakoff/Nantes Sud","vente_distrib_auto","","","","","","","","","","","","","","44000","Nantes","[ 47.2165885207839 , -1.53188966213418]"
"1","Comptoir du tri","Service communautaire","6","Allée Brancas","Centre Ville","","PDIS","","","","","","","","","","","","","","44000","Nantes","[ 47.2138099928016 , -1.55624670850238]"
"14","Place de la Liberté (Face à la mairie annexe Chantenay)","","","Place de la Liberté","Bellevue - Chantenay - Sainte Anne","Bellevue /Chantenay","RDV","12/01/2015","14:30","19:00","18/05/2015","14:30","19:00","28/09/2015","14:30","19:00","","","","","44100","Nantes","[ 47.2067589115724 , -1.5878950804801]"
"10","Place des Garennes","","","Place des Garennes","Bellevue - Chantenay - Sainte Anne","Bellevue /Chantenay","RDV","14/01/2015","14:30","19:00","20/05/2015","14:30","19:00","30/09/2015","14:30","19:00","","","","","44100","Nantes","[ 47.2017006961536 , -1.57775516968493]"
"11","Rue Lucien Aubert (Groupe scolaire Jean Zay)","","","Rue Lucien Aubert","Bellevue - Chantenay - Sainte Anne","Bellevue /Chantenay","RDV","15/01/2015","14:30","19:00","21/05/2015","14:30","19:00","01/10/2015","14:30","19:00","","","","","44100","Nantes","[ 47.2085657577645 , -1.60694146844681]"
"12","Rue des Bourderies (Centre Socioculturel Bourderies)","","12","Rue des Bourderies","Bellevue - Chantenay - Sainte Anne","Bellevue /Chantenay","RDV","16/01/2015","14:30","19:00","22/05/2015","14:30","19:00","02/10/2015","14:30","19:00","","","","","44100","Nantes","[ 47.2067125842139 , -1.59582342337165]"
"13","Quai de la Fosse (Musée bateau Maille-Brézé)","","","Quai de la Fosse","Dervallières - Zola","Bellevue /Chantenay","RDV","17/01/2015","09:00","13:00","23/05/2015","09:00","13:00","03/10/2015","09:00","13:00","","","","","44100","Nantes","[ 47.2070549676964 , -1.57198669874414]"
"9","Pôle de proximité Nantes Ouest","Pôle de proximité","","Place de la Liberté","Bellevue - Chantenay - Sainte Anne","Bellevue /Chantenay","PDIS","","","","","","","","","","","","","","44100","Nantes","[ 47.2063988575343 , -1.58837747268542]"
"3","Café la butte","Commerce","2","Rue des Garennes","Bellevue - Chantenay - Sainte Anne","Bellevue /Chantenay","PDIS","","","","","","","","","","","","","","44100","Nantes","[ 47.2021494514881 , -1.57888269715684]"
"4","Bar Tabac l'Hebdo","Commerce","91","Quai de la Fosse","Dervallières - Zola","Bellevue /Chantenay","PDIS","","","","","","","","","","","","","","44100","Nantes","[ 47.2081780689394 , -1.57036210485663]"
"5","Mairie Annexe Bellevue","Mairie annexe","4","Place des Lauriers","Bellevue - Chantenay - Sainte Anne","Bellevue /Chantenay","PDIS","","","","","","","","","","","","","","44100","Nantes","[ 47.2042621533403 , -1.60538731999842]"
"6","Nantes Habitat Agence Jamet","Organisme HLM","52","Rue du Plessis Gautron","Bellevue - Chantenay - Sainte Anne","Bellevue /Chantenay","PDIS","","","","","","","","","","","","","","44100","Nantes","[ 47.2058151486922 , -1.60553954159112]"
"7","Epicerie Aux 4 saisons","Commerce","36","Boulevard Winston Churchill","Bellevue - Chantenay - Sainte Anne","Bellevue /Chantenay","PDIS","","","","","","","","","","","","","","44100","Nantes","[ 47.2083771057784 , -1.61118585622081]"
"8","Boulangerie Tijou","Commerce","25","Rue des Bourderies","Bellevue - Chantenay - Sainte Anne","Bellevue /Chantenay","PDIS","","","","","","","","","","","","","","44100","Nantes","[ 47.2063482878462 , -1.59703381329224]"
"21","Face au 47 Rue Georges Mélies","","47","Rue Georges Mélies","Breil - Barberie","Breil/Dervallières","RDV","16/03/2015","14:30","19:00","31/08/2015","14:30","19:00","30/11/2015","14:30","19:00","","","","","44100","Nantes","[ 47.2332091642992 , -1.58579021535481]"
"19","Pôle commercial Coubertin","","52","Boulevard Pierre de Coubertin","Breil - Barberie","Breil/Dervallières","RDV","18/03/2015","14:30","19:00","02/09/2015","14:30","19:00","02/12/2015","14:30","19:00","","","","","44100","Nantes","[ 47.2285238429887 , -1.58713886334568]"
"20","Place des Dervallières","","","Place des Dervallières","Dervallières - Zola","Breil/Dervallières","RDV","21/03/2015","09:00","13:00","05/09/2015","09:00","13:00","05/12/2015","09:00","13:00","","","","","44100","Nantes","[ 47.2242121712555 , -1.59771687336643]"
"18","Carrefour City","Commerce","52","Boulevard Pierre de Coubertin","Breil - Barberie","Breil/Dervallières","PDIS","","","","","","","","","","","","","","44100","Nantes","[ 47.2282171425353 , -1.58675128841355]"
"15","Nantes Habitat Agence Feyder","Organisme HLM","6","Rue Jacques Feyder","Breil - Barberie","Breil/Dervallières","PDIS","","","","","","","","","","","","","","44100","Nantes","[ 47.2300901812523 , -1.58565548755988]"
"16","Mairie Annexe Dervallières","Mairie annexe","1","Place des Dervallières","Dervallières - Zola","Breil/Dervallières","PDIS","","","","","","","","","","","","","","44100","Nantes","[ 47.2233810693424 , -1.59718468248522]"
"17","Nantes Habitat Agence Watteau","Organisme HLM","20","Rue Antoine Watteau","Dervallières - Zola","Breil/Dervallières","PDIS","","","","","","","","","","","","","","44100","Nantes","[ 47.222574134576 , -1.60102274099936]"
"73","Place Emile Fritsch (Devant l'église Saint-Pasquier)","","","Place Emile Fritsch","Hauts Pavés - Saint Félix","Hauts pavés/Saint Félix","RDV","23/03/2015","14:30","19:00","07/09/2015","14:30","19:00","07/12/2015","14:30","19:00","","","","","44000","Nantes","[ 47.2288980938558 , -1.56577469386022]"
"68","Angle Rue des Dervallières/Rue Octave Feuillet","","","Rue Octave Feuillet","Hauts Pavés - Saint Félix","Hauts pavés/Saint Félix","RDV","24/03/2015","14:30","19:00","08/09/2015","14:30","19:00","08/12/2015","14:30","19:00","","","","","44000","Nantes","[ 47.2205952970888 , -1.57339371320505]"
"69","Place de Talensac","","","Rue de Talensac","Hauts Pavés - Saint Félix","Hauts pavés/Saint Félix","RDV","25/03/2015","14:30","19:00","09/09/2015","14:30","19:00","09/12/2015","14:30","19:00","","","","","44000","Nantes","[ 47.2210157384752 , -1.55685571664186]"
"70","TRAM Saint-Mihiel","","","Quai de Versailles","Hauts Pavés - Saint Félix","Hauts pavés/Saint Félix","RDV","26/06/2015","14:30","19:00","10/09/2015","14:30","19:00","10/12/2015","14:30","19:00","","","","","44000","Nantes","[ 47.2245848205917 , -1.55383600362569]"
"71","Angle Boulevard Gaston Serpette/Boulevard des Anglais","","","Boulevard Gaston Serpette","Hauts Pavés - Saint Félix","Hauts pavés/Saint Félix","RDV","27/03/2015","14:30","19:00","11/09/2015","14:30","19:00","11/12/2015","14:30","19:00","","","","","44100","Nantes","[ 47.2288414804835 , -1.57551422401674]"
"72","Place Saint-Félix","","","Place Saint-Félix","Hauts Pavés - Saint Félix","Hauts pavés/Saint Félix","RDV","28/03/2015","09:00","13:00","12/09/2015","09:00","13:00","12/12/2015","09:00","13:00","","","","","44000","Nantes","[ 47.2310649019152 , -1.55588877771744]"
"67","Association ADDA","Autre","5","B Rue de la Carterie","Hauts Pavés - Saint Félix","Hauts pavés/Saint Félix","PDIS","","","","","","","","","","","","","","44000","Nantes","[ 47.2292134745759 , -1.55464217210438]"
"60","Café tabac le Bel Air","Commerce","71","Rue de Bel Air","Hauts Pavés - Saint Félix","Hauts pavés/Saint Félix","PDIS","","","","","","","","","","","","","","44000","Nantes","[ 47.2249905129991 , -1.55923983400867]"
"61","Carrefour City","Commerce","24","Rue des Hauts Pavés","Hauts Pavés - Saint Félix","Hauts pavés/Saint Félix","PDIS","","","","","","","","","","","","","","44000","Nantes","[ 47.2232676975986 , -1.56349947899436]"
"62","Carrefour Market","Commerce","","Rond Point de Vannes","Breil - Barberie","Hauts pavés/Saint Félix","PDIS","","","","","","","","","","","","","","44100","Nantes","[ 47.229628182866 , -1.57279493776477]"
"63","Aux Délices de Procé","Commerce","3","Boulevard Gaston Serpette","Hauts Pavés - Saint Félix","Hauts pavés/Saint Félix","PDIS","","","","","","","","","","","","","","44000","Nantes","[ 47.2245128751455 , -1.57678522108171]"
"64","Maison de l'Environnement Ecopole","Autre","17","Rue de Bouillé","Hauts Pavés - Saint Félix","Hauts pavés/Saint Félix","PDIS","","","","","","","","","","","","","","44000","Nantes","[ 47.2260056758354 , -1.55606908795771]"
"65","Intermarché","Commerce","15","Rue Félix Thomas","Hauts Pavés - Saint Félix","Hauts pavés/Saint Félix","PDIS","","","","","","","","","","","","","","44000","Nantes","[ 47.2302350847296 , -1.55396811379212]"
"66","Le Monselet","Commerce","3","Place Emile Sarradin","Hauts Pavés - Saint Félix","Hauts pavés/Saint Félix","PDIS","","","","","","","","","","","","","","44000","Nantes","[ 47.2209463152634 , -1.57025374047389]"
"83","Rue La Noue Bras de Fer (Ecole d'Architecture)","","","Rue La Noue Bras de Fer","Ile de Nantes","Ile de Nantes","RDV","09/03/2015","14:30","19:00","29/06/2015","14:30","19:00","23/11/2015","14:30","19:00","","","","","44200","Nantes","[ 47.2074615533588 , -1.55735377242907]"
"79","Place Victor Mangin","","","Place Victor Mangin","Ile de Nantes","Ile de Nantes","RDV","10/03/2015","14:30","19:00","11/03/2015","14:30","19:00","30/06/2015","14:30","19:00","01/07/2015","14:30","19:00","","44200","Nantes","[ 47.2009484198633 , -1.54459336106402]"
"80","Place Victor Mangin","","","Place Victor Mangin","Ile de Nantes","Ile de Nantes","RDV","24/11/2015","14:30","19:00","25/11/2015","14:30","19:00","","","","","","","","44200","Nantes","[ 47.2009484198633 , -1.54459336106402]"
