"MATRICULE","TYPE_DECHETS","QUARTIER","NUM_VOIE","ADRESSE","CLE_VOIE","CAPACITE_CUVE","CAPACITE_FOSSE","PREHENSION","COULEUR","FINITION_PLATEFORME","TRAPPE_COMMERCANT","TYP_AVALOIR","ISOLATION_PHONIQUE","NUMERO_POLE_NANTESMETROPOLE","NOM_POLE_NANTESMETROPOLE","COD_COM","COMMUNE","location"
"","","Contrie","53","Rue de la Contrie","Contrie","0.0","0.0","","","","0","","0","8","Nantes-Ouest","440109","Nantes","[ 47.2201101596193 , -1.59708661853519]"
"","","Contrie","53","Rue de la Contrie","Contrie","0.0","0.0","","","","0","","0","8","Nantes-Ouest","440109","Nantes","[ 47.2201224084689 , -1.59709054821659]"
"","","Contrie","53","Rue de la Contrie","Contrie","0.0","0.0","","","","0","","0","8","Nantes-Ouest","440109","Nantes","[ 47.220133679545 , -1.59709289137413]"
"","","Contrie","53","Rue de la Contrie","Contrie","0.0","0.0","","","","0","","0","8","Nantes-Ouest","440109","Nantes","[ 47.220098888543 , -1.59708427537999]"
"DS4001","carton_ent","Waldeck - Sully","0","place waldeck rousseau","rousseau","4.0","4.0","kinshofer","gris RAL 9007","avec réservation","0","opercule","0","9","Nantes-Loire","440109","Nantes","[ 47.2277755165204 , -1.55166094244668]"
"DS4005","carton_ent","Talensac - Pont Morand","7","rue basse porte","porte","4.0","4.0","kinshofer","vert_nantais","polyester","0","opercule","0","8","Nantes-Ouest","440109","Nantes","[ 47.2209132658601 , -1.55793425507587]"
"DS4006","carton_ent","Malakoff","0","rue de chypre","chypre","4.0","5.0","kinshofer","gris RAL 9007","avec réservation","0","opercule","0","9","Nantes-Loire","440109","Nantes","[ 47.2164502367032 , -1.52169932453553]"
"DS4007","carton_ent","Malakoff","11","rue de norvège","norvege","4.0","4.0","kinshofer","gris fonte","polyester","0","opercule","0","9","Nantes-Loire","440109","Nantes","[ 47.2162610715246 , -1.52476006562795]"
"DS4008","carton_ent","Lauriers","0","Rue du Rhône","Rhône","4.0","5.0","kinshofer","gris RAL 9007","avec réservation","0","opercule","0","8","Nantes-Ouest","440109","Nantes","[ 47.2030821425474 , -1.60051261580461]"
"DS4009","carton_ent","Mairie de Chantenay","0","rue de la marseillaise (mairie chantenay)","marseillaise","4.0","4.0","kinshofer","gris fonte","polyester","0","opercule","0","8","Nantes-Ouest","440109","Nantes","[ 47.2067719359397 , -1.58805806191802]"
"DS4010","carton_ent","Rd pt de Vannes","0","rue chanoine larose","larose","4.0","4.0","kinshofer","gris moyen RAL 083820","avec réservation","0","capot","0","8","Nantes-Ouest","440109","Nantes","[ 47.2322319380939 , -1.57810883300066]"
"DS4011","carton_ent","Gde Grèneraie - Clos toreau","0","Rue Louis Loucheur","Loucheur","4.0","4.0","kinshofer","gris fonte","polyester","0","opercule","0","2","Loire, Sèvre et Vignoble","440109","Nantes","[ 47.1934248349908 , -1.52712616986133]"
"DS4012","carton_ent","Breil-Malville","0","Rue Pierre de Coubertin","coubertin","4.0","5.0","kinshofer","gris RAL 9007","tôle larmée","0","clapet","0","8","Nantes-Ouest","440109","Nantes","[ 47.229005945633 , -1.58776957076579]"
"DS4013","ds_ent","Chateau de Rezé","0","Allée de Boulogne","Boulogne","4.0","5.0","kinshofer","","tôle larmée","0","clapet","0","2","Loire, Sèvre et Vignoble","440143","Rezé","[ 47.1840396639536 , -1.56092221660993]"
"DS4014","ds_ent","Chateau de Rezé","10","Allée Paul Eluard","Eluard","4.0","5.0","kinshofer","","tôle larmée","0","clapet","0","2","Loire, Sèvre et Vignoble","440143","Rezé","[ 47.1839776592908 , -1.55790413510501]"
"DS4015","ds_ent","Chateau de Rezé","4","Allée de la Moine","Moine","4.0","5.0","kinshofer","","tôle larmée","0","clapet","0","2","Loire, Sèvre et Vignoble","440143","Rezé","[ 47.1837242871882 , -1.55959908494623]"
"DS4016","ds_ent","Chateau de Rezé","20","Allée Paul Eluard","Eluard","4.0","5.0","kinshofer","","tôle larmée","0","clapet","0","2","Loire, Sèvre et Vignoble","440143","Rezé","[ 47.1838033770531 , -1.55896913286374]"
"DS4017","ds_ent","Chateau de Rezé","12","Allée de la Moine","Moine","4.0","5.0","kinshofer","","tôle larmée","0","clapet","0","2","Loire, Sèvre et Vignoble","440143","Rezé","[ 47.183581640556 , -1.56046052861055]"
"DS4018","ds_ent","Chateau de Rezé","8","Allée Paul Eluard","Eluard","4.0","5.0","kinshofer","","tôle larmée","0","clapet","0","2","Loire, Sèvre et Vignoble","440143","Rezé","[ 47.184255611907 , -1.55639713108979]"
"DS4019","ds_ent","Chateau de Rezé","8","Allée Théophile Gautier","Gautier","4.0","5.0","kinshofer","","tôle larmée","0","clapet","0","2","Loire, Sèvre et Vignoble","440143","Rezé","[ 47.1841445259988 , -1.55739408213494]"
"DS4020","ds_ent","Chateau de Rezé","1","Allée Gustave Flaubert","Flaubert","4.0","5.0","kinshofer","","tôle larmée","0","clapet","0","2","Loire, Sèvre et Vignoble","440143","Rezé","[ 47.1847010729208 , -1.55732255462095]"
"DS4021","carton_ent","Malakoff","0","rue de suisse","suisse","4.0","5.0","kinshofer","gris RAL 9007","avec réservation","0","tambour","0","9","Nantes-Loire","440109","Nantes","[ 47.2170272769211 , -1.52326450683736]"
"DS4022","ds_ent","Chateau de Rezé","0","Allée de Boulogne","Boulogne","0.0","5.0","kinshofer","","tôle larmée","0","","0","2","Loire, Sèvre et Vignoble","440143","Rezé","[ 47.1843305810338 , -1.5610160483658]"
"DS5001","ds_ent","Trentemoult","0","Place Levoyer","levoyer","5.0","5.0","kinshofer","gris RAL 7022","avec réservation","0","tambour","0","2","Loire, Sèvre et Vignoble","440143","Rezé","[ 47.1942091795357 , -1.58139481253537]"
"DS5002","ds_ent","Trentemoult","0","Place Jean Bart","Bart","5.0","5.0","kinshofer","gris RAL 9007","tôle larmée","0","tambour","0","2","Loire, Sèvre et Vignoble","440143","Rezé","[ 47.193469553562 , -1.582965073934]"
"DS5003","ds_ent","Indre","0","Place Louis Le Loir","Loir","5.0","5.0","kinshofer","gris RAL 9007","tôle larmée","0","opercule","0","7","Loire-Chézine","440074","Indre","[ 47.1992873234129 , -1.6760020600148]"
"DS5004","ds_ent","Indre","0","Place Louis Le Loir","Loir","5.0","5.0","kinshofer","gris RAL 9007","tôle larmée","0","opercule","0","7","Loire-Chézine","440074","Indre","[ 47.1993045281776 , -1.6759821520318]"
"DS5005","ds_ent","Indre","0","Place Jean Ligondais","Ligondais","5.0","5.0","kinshofer","gris RAL 9007","tôle larmée","0","opercule","0","7","Loire-Chézine","440074","Indre","[ 47.1971950612554 , -1.67141955924336]"
"DS5006","ds_ent","Cremetterie","0","Avenue de la Branchoire","Branchoise","5.0","5.0","kinshofer","","tôle larmée","0","opercule","0","7","Loire-Chézine","440162","St-Herblain","[ 47.2184409833801 , -1.60709966371578]"
"DS5007","ds_ent","Cremetterie","0","Avenue de la Branchoire","Branchoise","5.0","5.0","kinshofer","","tôle larmée","0","opercule","0","7","Loire-Chézine","440162","St-Herblain","[ 47.2184221454177 , -1.60710736316898]"
"DS5008","ds_ent","Cremetterie","0","Avenue de la Branchoire","Branchoise","5.0","5.0","kinshofer","","tôle larmée","0","opercule","0","7","Loire-Chézine","440162","St-Herblain","[ 47.2184033074547 , -1.6071150626168]"
"DS5009","carton_ent","Gde Grèneraie - Clos toreau","8","Rue Emilienne Leroux","Leroux","0.0","0.0","","","","0","","0","2","Loire, Sèvre et Vignoble","440109","Nantes","[ 47.1967400848183 , -1.53229785313306]"
"DS5010","carton_ent","Gde Grèneraie - Clos toreau","8","Rue Emilienne Leroux","Leroux","0.0","0.0","","","","0","","0","2","Loire, Sèvre et Vignoble","440109","Nantes","[ 47.1967380615282 , -1.53226591435471]"
"DS5011","carton_ent","Gde Grèneraie - Clos toreau","8","Rue Emilienne Leroux","Leroux","0.0","0.0","","","","0","","0","2","Loire, Sèvre et Vignoble","440109","Nantes","[ 47.1967359875226 , -1.53223548584385]"
"DS5012","ds_ent","Trentemoult","0","Place des Filets","Filets","5.0","5.0","","","","0","","0","2","Loire, Sèvre et Vignoble","440143","Rezé","[ 47.194530285083 , -1.58372552420924]"
"DS5013","ds_ent","Beautour","136","Route de la Fontenelle","Fontenelle","5.0","5.0","Kinshofer","","","0","","0","2","Loire, Sèvre et Vignoble","440215","Vertou","[ 47.1881692360963 , -1.50123092167098]"
"DS5014","ds_ent","Beautour","308","308 Route de Clisson","Clisson","5.0","5.0","","","","0","","0","2","Loire, Sèvre et Vignoble","440215","Vertou","[ 47.1879929777088 , -1.4997999954089]"
"DS5015","ds_ent","ZAC de la Minais","0","Rue de la Gare","Gare","4.0","5.0","Kinshofer","RAL 7016","Alu strie arasante","0","","1","4","Erdre et Loire","440172","Ste-Luce-sur-Loire","[ 47.2536791539591 , -1.47129118235985]"
"DS5015","carton_ent","Dobree-Bon Port","11","Rue de Gigant","Gigant","0.0","0.0","","","","0","","0","9","Nantes-Loire","440109","Nantes","[ 47.2142357645098 , -1.56998347943752]"
"DS5018","ds_ent","","0","Rue du Général Zimmer","Zimmer","5.0","5.0","kinshofer","vert","inox","0","orifice","1","7","Loire-Chézine","440162","St-Herblain","[ 47.209239530216 , -1.65028391789348]"
"DS5019","ds_ent","","0","Boulevard Marcel Paul","Paul","5.0","5.0","kinshofer","vert","inox","0","orifice","1","7","Loire-Chézine","440162","St-Herblain","[ 47.2453509453983 , -1.61744552391106]"
"DS5020","ds_ent","","0","Rue de Flore","Flore","5.0","5.0","Kinshofer","","","0","","0","6","Erdre et Cens","440194","Sautron","[ 47.2608634535654 , -1.66595647126364]"
"DS5021","ds_ent","","0","Boulevard Winston Churchill","Churchill","5.0","5.0","kinshofer","vert","inox","0","","1","7","Loire-Chézine","440162","St-Herblain","[ 47.2067891066469 , -1.61353096680716]"
"OM5001","om_ent","Trentemoult","0","Place Levoyer","levoyer","5.0","5.0","kinshofer","gris RAL 7022","avec réservation","0","tambour","0","2","Loire, Sèvre et Vignoble","440143","Rezé","[ 47.1941716631921 , -1.58143596968802]"
"OM5002","om_ent","Trentemoult","0","Place Jean Bart","Bart","5.0","5.0","kinshofer","gris RAL 9007","tôle larmée","0","tambour","0","2","Loire, Sèvre et Vignoble","440143","Rezé","[ 47.1934716103218 , -1.5829349468177]"
"OM5003","om_ent","Indre","0","Place Louis Le Loir","Loir","5.0","5.0","kinshofer","gris RAL 9007","tôle larmée","0","tambour","0","7","Loire-Chézine","440074","Indre","[ 47.199321627759 , -1.67596526442401]"
"OM5004","om_ent","Indre","0","Place Jean Ligondais","Ligondais","5.0","5.0","kinshofer","gris RAL 9007","tôle larmée","0","opercule","0","7","Loire-Chézine","440074","Indre","[ 47.1971836028459 , -1.67139296194339]"
"OM5189","om_ent","Chateau de Rezé","0","Allée de Boulogne","Boulogne","5.0","5.0","kinshofer","","tôle larmée","0","tambour","0","2","Loire, Sèvre et Vignoble","440143","Rezé","[ 47.184020361425 , -1.56091324341373]"
"OM5190","om_ent","Chateau de Rezé","12","Allée de la Moine","Moine","5.0","5.0","kinshofer","","tôle larmée","0","tambour","0","2","Loire, Sèvre et Vignoble","440143","Rezé","[ 47.1835866773788 , -1.56043365071194]"
"OM5191","om_ent","Chateau de Rezé","2","Allée de la Moine","Moine","5.0","5.0","kinshofer","","tôle larmée","0","tambour","0","2","Loire, Sèvre et Vignoble","440143","Rezé","[ 47.1837512144781 , -1.55944363132939]"
"OM5192","om_ent","Chateau de Rezé","20","Allée Paul Eluard","Eluard","5.0","5.0","kinshofer","","tôle larmée","0","tambour","0","2","Loire, Sèvre et Vignoble","440143","Rezé","[ 47.1837982895149 , -1.55899752088352]"
"OM5193","om_ent","Chateau de Rezé","10","Allée Paul Eluard","Eluard","5.0","5.0","kinshofer","","tôle larmée","0","tambour","0","2","Loire, Sèvre et Vignoble","440143","Rezé","[ 47.1839714405623 , -1.55793546819992]"
"OM5194","om_ent","Chateau de Rezé","8","Allée Paul Eluard","Eluard","5.0","5.0","kinshofer","","tôle larmée","0","tambour","0","2","Loire, Sèvre et Vignoble","440143","Rezé","[ 47.1842504229561 , -1.55642853937338]"
"OM5195","om_ent","Chateau de Rezé","8","Allée Théophile Gautier","Gautier","5.0","5.0","kinshofer","","tôle larmée","0","tambour","0","2","Loire, Sèvre et Vignoble","440143","Rezé","[ 47.1841610469145 , -1.55739377015678]"
"OM5196","om_ent","Chateau de Rezé","1","Allée Gustave Flaubert","Flaubert","5.0","5.0","kinshofer","","tôle larmée","0","tambour","0","2","Loire, Sèvre et Vignoble","440143","Rezé","[ 47.1847144036621 , -1.55732503781541]"
"OM5219","om_ent","Chateau de Rezé","0","Allée de Boulogne","Boulogne","0.0","5.0","kinshofer","","tôle larmée","0","","0","2","Loire, Sèvre et Vignoble","440143","Rezé","[ 47.18436537511 , -1.5610246358533]"
"OM5220","om_ent","Chateau de Rezé","0","Allée de Boulogne","Boulogne","0.0","5.0","kinshofer","","tôle larmée","0","","0","2","Loire, Sèvre et Vignoble","440143","Rezé","[ 47.1843510661669 , -1.56102056692599]"
"OM5278","om_ent","Zola","51","Rue de la Convention","Convention","5.0","5.0","kinshofer","gris RAL 9007","tôle","0","Trappe","0","8","Nantes-Ouest","440109","Nantes","[ 47.2103610546487 , -1.58993252256371]"
"OM5279","om_ent","Zola","51","Rue de la Convention","Convention","5.0","5.0","kinshofer","gris RAL 9007","tôle","0","Trappe","0","8","Nantes-Ouest","440109","Nantes","[ 47.2103441734494 , -1.58991311172845]"
"OM5309","om_ent","Trentemoult","0","Place des filets","filets","5.0","5.0","kinshofer","non_definie","avec réservation","0","tambour","0","2","Loire, Sèvre et Vignoble","440143","Rezé","[ 47.1945336282901 , -1.58368792114568]"
"OM5310","om_ent","Trentemoult","0","Place des filets","filets","5.0","5.0","kinshofer","non_definie","avec réservation","0","tambour","0","2","Loire, Sèvre et Vignoble","440143","Rezé","[ 47.1945253952558 , -1.58371759648981]"
"OM5311","om_ent","Beautour","308","308 Route de Clisson","Clisson","5.0","5.0","","","","0","","0","2","Loire, Sèvre et Vignoble","440215","Vertou","[ 47.1879994796131 , -1.49982165229848]"
"OM5343","om_ent","Beautour","136","Route de la Fontenelle","Fontenelle","5.0","5.0","Kinshofer","","","0","","0","2","Loire, Sèvre et Vignoble","440215","Vertou","[ 47.1881830710572 , -1.50121829052273]"
"OM5344","om_ent","ZAC de la Minais","0","Rue de la Gare","Gare","5.0","5.0","Kinshofer","RAL 7016","Alu strie arasante","0","","0","4","Erdre et Loire","440172","Ste-Luce-sur-Loire","[ 47.2536640622387 , -1.47127949949543]"
"OM5345","om_ent","","0","Rue de Flore","Flore","5.0","5.0","Kinshofer","","","0","","0","6","Erdre et Cens","440194","Sautron","[ 47.2608632636707 , -1.66593220325862]"
"OM5346","om_ent","","0","Rue de Flore","Flore","5.0","5.0","Kinshofer","","","0","","0","6","Erdre et Cens","440194","Sautron","[ 47.2606306089365 , -1.66597542365868]"
"OM5347","om_ent","","0","Rue de Flore","Flore","5.0","5.0","Kinshofer","","","0","","0","6","Erdre et Cens","440194","Sautron","[ 47.2606120296298 , -1.66597554886922]"
"OM5348","om_ent","","3","Rue de Mayenne","Mayenne","5.0","5.0","kinshofer","vert","inox","0","tambour","1","7","Loire-Chézine","440162","St-Herblain","[ 47.2126110896207 , -1.61055313659077]"
"OM5349","om_ent","","0","Rue d'Arras","Arras","5.0","5.0","kinshofer","vert","inox","0","tambour","1","7","Loire-Chézine","440162","St-Herblain","[ 47.213959743211 , -1.60829454694259]"
"OM5350","om_ent","","1","Rue de la Chicotière","Chicotière","5.0","5.0","kinshofer","vert","inox","0","tambour","1","7","Loire-Chézine","440162","St-Herblain","[ 47.2139763808777 , -1.60853203272898]"
"OM5351","om_ent","","11","Rue d'Arras","Arras","5.0","5.0","kinshofer","vert","inox","0","tambour","1","7","Loire-Chézine","440162","St-Herblain","[ 47.2133746898273 , -1.6088057195878]"
"OM5352","om_ent","","11","Rue d'Arras","Arras","5.0","5.0","kinshofer","vert","inox","0","tambour","1","7","Loire-Chézine","440162","St-Herblain","[ 47.2133651205367 , -1.60878381164078]"
"OM5353","om_ent","","0","Rue d'Arras","Arras","5.0","5.0","kinshofer","vert","inox","0","tambour","1","7","Loire-Chézine","440162","St-Herblain","[ 47.2127027632544 , -1.60959367852981]"
"OM5354","om_ent","","0","Rue d'Arras","Arras","5.0","5.0","kinshofer","vert","inox","0","tambour","1","7","Loire-Chézine","440162","St-Herblain","[ 47.2123420029847 , -1.60946106920907]"
"OM5355","om_ent","","0","Rue d'Issoire","Issoire","5.0","5.0","kinshofer","vert","inox","0","tambour","1","7","Loire-Chézine","440162","St-Herblain","[ 47.2131467871594 , -1.61066988097119]"
"OM5356","om_ent","","0","Rue d'Issoire","Issoire","5.0","5.0","kinshofer","vert","inox","0","tambour","1","7","Loire-Chézine","440162","St-Herblain","[ 47.2133049237139 , -1.61135548163709]"
"OM5357","om_ent","","0","Rue d'Issoire","Issoire","5.0","5.0","kinshofer","vert","inox","0","tambour","1","7","Loire-Chézine","440162","St-Herblain","[ 47.2131927773031 , -1.61107460575008]"
"OM5358","om_ent","","0","Rue de Montargis","Montargis","5.0","5.0","kinshofer","vert","inox","0","tambour","1","7","Loire-Chézine","440162","St-Herblain","[ 47.2139816523317 , -1.61112067664963]"
"OM5359","om_ent","","0","Rue de Montargis","Montargis","5.0","5.0","kinshofer","vert","inox","0","tambour","1","7","Loire-Chézine","440162","St-Herblain","[ 47.2140560332451 , -1.61105801101124]"
"OM5360","om_ent","","0","Rue de Montargis","Montargis","5.0","5.0","kinshofer","vert","inox","0","tambour","1","7","Loire-Chézine","440162","St-Herblain","[ 47.2140730715492 , -1.61104260836045]"
"OM5361","om_ent","","0","Rue de l'Orne","Orne","5.0","5.0","kinshofer","vert","inox","0","tambour","1","7","Loire-Chézine","440162","St-Herblain","[ 47.2147931524968 , -1.61041570677955]"
"OM5362","om_ent","","15","Rue de la Chicotière","Chicotière","5.0","5.0","kinshofer","vert","inox","0","tambour","1","7","Loire-Chézine","440162","St-Herblain","[ 47.214454604826 , -1.60981523013365]"
"OM5363","om_ent","","0","Rue de Sancerre","Issoire","5.0","5.0","kinshofer","vert","inox","0","tambour","1","7","Loire-Chézine","440162","St-Herblain","[ 47.2136309028791 , -1.61141890354946]"
"OM5364","om_ent","","0","Rue du Général Zimmer","Zimmer","5.0","5.0","kinshofer","vert","inox","0","tambour","1","7","Loire-Chézine","440162","St-Herblain","[ 47.2092620179796 , -1.65029013604252]"
"OM5365","om_ent","","0","Rue du Général Zimmer","Zimmer","5.0","5.0","kinshofer","vert","inox","0","tambour","1","7","Loire-Chézine","440162","St-Herblain","[ 47.2092834764461 , -1.65029627753057]"
"OM5366","om_ent","","0","Avenue de l'Angevinière","Angevinière","5.0","5.0","kinshofer","vert","inox","0","tambour/pédale","1","7","Loire-Chézine","440162","St-Herblain","[ 47.2444749136435 , -1.61358936056543]"
"OM5367","om_ent","","0","Avenue de l'Angevinière","Angevinière","5.0","5.0","kinshofer","vert","inox","0","tambour/pédale","1","7","Loire-Chézine","440162","St-Herblain","[ 47.2444726544444 , -1.61305276047859]"
"OM5368","om_ent","","0","Avenue de l'Angevinière","Angevinière","5.0","5.0","kinshofer","vert","inox","0","tambour/pédale","1","7","Loire-Chézine","440162","St-Herblain","[ 47.2444709103566 , -1.61250104517788]"
"OM5369","om_ent","","0","Avenue de l'Angevinière","Angevinière","5.0","5.0","kinshofer","vert","inox","0","tambour/pédale","1","7","Loire-Chézine","440162","St-Herblain","[ 47.2446242329164 , -1.61221232516886]"
"OM5370","om_ent","","0","Avenue de l'Angevinière","Angevinière","5.0","5.0","kinshofer","vert","inox","0","tambour/pédale","1","7","Loire-Chézine","440162","St-Herblain","[ 47.2447879890718 , -1.61116669608819]"
"OM5371","om_ent","","0","Avenue de l'Angevinière","Angevinière","5.0","5.0","kinshofer","vert","inox","0","tambour/pédale","1","7","Loire-Chézine","440162","St-Herblain","[ 47.2447875675459 , -1.61093784639699]"
"OM5372","om_ent","","0","Avenue de l'Angevinière","Angevinière","5.0","5.0","kinshofer","vert","inox","0","tambour/pédale","1","7","Loire-Chézine","440162","St-Herblain","[ 47.2448803455236 , -1.60925204014397]"
"OM5373","om_ent","","0","Avenue de l'Angevinière","Angevinière","5.0","5.0","kinshofer","vert","inox","0","tambour/pédale","1","7","Loire-Chézine","440162","St-Herblain","[ 47.2448807355092 , -1.60875806302448]"
"OM5374","om_ent","","0","Avenue de l'Angevinière","Angevinière","5.0","5.0","kinshofer","vert","inox","0","tambour/pédale","1","7","Loire-Chézine","440162","St-Herblain","[ 47.2448621044293 , -1.60875971952254]"
"OM5375","om_ent","","0","Allée du Parc","Parc","5.0","5.0","kinshofer","vert","inox","0","tambour/pédale","1","7","Loire-Chézine","440162","St-Herblain","[ 47.2443769238061 , -1.60942856708115]"
"OM5376","om_ent","","0","Allée du Parc","Parc","5.0","5.0","kinshofer","vert","inox","0","tambour/pédale","1","7","Loire-Chézine","440162","St-Herblain","[ 47.2443676567952 , -1.60882477767513]"
"OM5377","om_ent","","0","Allée du Parc","Parc","5.0","5.0","kinshofer","vert","inox","0","tambour/pédale","1","7","Loire-Chézine","440162","St-Herblain","[ 47.2436841808577 , -1.6078697187032]"
"OM5378","om_ent","","0","Avenue de l'Angevinière","Angevinière","5.0","5.0","kinshofer","vert","inox","0","tambour/pédale","1","7","Loire-Chézine","440162","St-Herblain","[ 47.243224179505 , -1.6075009151493]"
"OM5379","om_ent","","0","Boulevard Marcel Paul","Paul","5.0","5.0","kinshofer","vert","inox","0","orifice","1","7","Loire-Chézine","440162","St-Herblain","[ 47.2453221693963 , -1.61747218888274]"
"OM5380","om_ent","","0","Boulevard Marcel Paul","Paul","5.0","5.0","kinshofer","vert","inox","0","orifice","1","7","Loire-Chézine","440162","St-Herblain","[ 47.245206702535 , -1.61758942927593]"
"OM5381","om_ent","","0","Boulevard Marcel Paul","Paul","5.0","5.0","kinshofer","vert","inox","0","orifice","1","7","Loire-Chézine","440162","St-Herblain","[ 47.2451798814597 , -1.61761926936366]"
"OM5382","om_ent","","0","Avenue de l'Angevinière","Angevinière","5.0","5.0","kinshofer","vert","inox","0","tambour/pédale","1","7","Loire-Chézine","440162","St-Herblain","[ 47.2447890264079 , -1.61167896271914]"
"OM5383","om_ent","","0","Allée du Parc","Parc","5.0","5.0","kinshofer","vert","inox","0","tambour/pédale","1","7","Loire-Chézine","440162","St-Herblain","[ 47.2442706964637 , -1.60849182827222]"
"OM5384","om_ent","","0","Rue de la Mayenne","Mayenne","5.0","5.0","kinshofer","vert","inox","0","tambour","1","7","Loire-Chézine","440162","St-Herblain","[ 47.212611321044 , -1.61126948743468]"
"OM5385","om_ent","","0","Rue de la Mayenne","Mayenne","5.0","5.0","kinshofer","vert","inox","0","tambour","1","7","Loire-Chézine","440162","St-Herblain","[ 47.2126028332851 , -1.61124614465236]"
"OM5386","om_ent","","0","Rue de la Mayenne","Mayenne","5.0","5.0","kinshofer","vert","inox","0","tambour","1","7","Loire-Chézine","440162","St-Herblain","[ 47.2123536909759 , -1.61062653500656]"
"OM5387","om_ent","","0","Rue de la Mayenne","Mayenne","5.0","5.0","kinshofer","vert","inox","0","tambour","1","7","Loire-Chézine","440162","St-Herblain","[ 47.2121558713692 , -1.61022576536692]"
"OM5388","om_ent","","0","Rue de la Mayenne","Mayenne","5.0","5.0","kinshofer","vert","inox","0","tambour","1","7","Loire-Chézine","440162","St-Herblain","[ 47.2120071941125 , -1.60986648294266]"
"OM5389","om_ent","","0","Rue de la Mayenne","Mayenne","5.0","5.0","kinshofer","vert","inox","0","tambour","1","7","Loire-Chézine","440162","St-Herblain","[ 47.2118722539021 , -1.60952790291269]"
"TS1001","ts_ent","Salorges - Ste Anne","13","rue des Salorges","salorges","1.32","4.0","Ascenseur","gris fonte plaqué inox brossé","polyester","0","tambour_60l","0","8","Nantes-Ouest","440109","Nantes","[ 47.2054988955882 , -1.57669888838002]"
"TS1002","ts_ent","Salorges - Ste Anne","13","rue des Salorges","salorges","1.32","4.0","Ascenseur","gris fonte plaqué inox brossé","polyester","0","tambour_60l","0","8","Nantes-Ouest","440109","Nantes","[ 47.2054704841282 , -1.57668469757197]"
"TS4002","ts_ent","Malakoff","9","rue de norvège","norvège","4.0","4.0","kinshofer","gris fonte","polyester","0","tambour","0","9","Nantes-Loire","440109","Nantes","[ 47.2163914487076 , -1.52478007392849]"
"TS4003","ts_ent","Malakoff","7","rue de norvège","norvège","4.0","4.0","kinshofer","gris fonte","polyester","0","tambour","0","9","Nantes-Loire","440109","Nantes","[ 47.2165536162803 , -1.52459034861418]"
"TS4004","ts_ent","Malakoff","3","rue de norvège","norvège","4.0","4.0","kinshofer","gris fonte","polyester","0","tambour","0","9","Nantes-Loire","440109","Nantes","[ 47.2167530396389 , -1.5241201009123]"
"TS4005","ts_ent","Malakoff","0","rue de hongrie","hongrie","4.0","4.0","kinshofer","gris fonte","polyester","0","tambour_100l","0","9","Nantes-Loire","440109","Nantes","[ 47.2165179431248 , -1.52359124672195]"
"TS4006","ts_ent","Malakoff","0","rue de hongrie","hongrie","4.0","4.0","kinshofer","gris fonte","polyester","0","tambour_100l","0","9","Nantes-Loire","440109","Nantes","[ 47.2164957014695 , -1.5235775265924]"
"TS4014","ts_ent","Gde Grèneraie - Clos toreau","3","rue de saint jean de luz","Luz","4.0","4.0","kinshofer","vert_nantais","tôle larmée","0","tambour","0","2","Loire, Sèvre et Vignoble","440109","Nantes","[ 47.1947332000456 , -1.52725088592005]"
"TS4015","ts_ent","Gde Grèneraie - Clos toreau","3","rue de saint jean de luz","Luz","4.0","4.0","kinshofer","vert_nantais","tôle larmée","0","tambour","0","2","Loire, Sèvre et Vignoble","440109","Nantes","[ 47.1947278339945 , -1.52722627668576]"
"TS4016","ts_ent","Gde Grèneraie - Clos toreau","3","rue de saint jean de luz","Luz","4.0","4.0","kinshofer","vert_nantais","tôle larmée","0","tambour","0","2","Loire, Sèvre et Vignoble","440109","Nantes","[ 47.194749974051 , -1.52724301350402]"
"TS4017","ts_ent","Gde Grèneraie - Clos toreau","5","rue de saint jean de luz","Luz","4.0","4.0","kinshofer","vert_nantais","tôle larmée","0","tambour","0","2","Loire, Sèvre et Vignoble","440109","Nantes","[ 47.1944899768987 , -1.52736503539762]"
"TS4018","ts_ent","Gde Grèneraie - Clos toreau","5","rue de saint jean de luz","Luz","4.0","4.0","kinshofer","vert_nantais","tôle larmée","0","tambour","0","2","Loire, Sèvre et Vignoble","440109","Nantes","[ 47.1944845602289 , -1.52734193646991]"
"TS4020","ts_ent","Gde Grèneraie - Clos toreau","10","rue de saint jean de luz","Luz","4.0","4.0","kinshofer","vert_nantais","tôle larmée","0","tambour","0","2","Loire, Sèvre et Vignoble","440109","Nantes","[ 47.1940469021207 , -1.52737695401529]"
"TS4021","ts_ent","Gde Grèneraie - Clos toreau","12","rue de saint jean de luz","Luz","4.0","4.0","kinshofer","vert_nantais","tôle larmée","0","tambour","0","2","Loire, Sèvre et Vignoble","440109","Nantes","[ 47.1938436750564 , -1.52731384124137]"
"TS4022","ts_ent","Gde Grèneraie - Clos toreau","12","rue de saint jean de luz","Luz","4.0","4.0","kinshofer","vert_nantais","tôle larmée","0","tambour","0","2","Loire, Sèvre et Vignoble","440109","Nantes","[ 47.1938407553679 , -1.52733936582921]"
"TS4023","ts_ent","Gde Grèneraie - Clos toreau","10","rue de saint jean de luz","Luz","4.0","4.0","kinshofer","vert_nantais","tôle larmée","0","tambour","0","2","Loire, Sèvre et Vignoble","440109","Nantes","[ 47.1940429530333 , -1.52740240439056]"
"TS4024","ts_ent","Gde Grèneraie - Clos toreau","12","rue de saint jean de luz","Luz","4.0","4.0","kinshofer","vert_nantais","tôle larmée","0","tambour","0","2","Loire, Sèvre et Vignoble","440109","Nantes","[ 47.1937557225233 , -1.52722877284019]"
"TS4025","ts_ent","Malakoff","0","Rue de Madrid","Madrid","4.0","5.0","kinshofer","gris RAL 9007","bitume","0","trappe 80l","0","9","Nantes-Loire","440109","Nantes","[ 47.2144049738591 , -1.53106245336948]"
"TS4026","ts_ent","Malakoff","0","Rue de Madrid","Madrid","4.0","5.0","kinshofer","gris RAL 9007","bitume","0","trappe 80l","0","9","Nantes-Loire","440109","Nantes","[ 47.2144088730645 , -1.53103850431189]"
"TS5005","ts_ent","Malakoff","0","Rue d'Irlande","Irlande","5.0","5.0","kinshofer","gris RAL 9007","avec réservation","0","tambour","0","9","Nantes-Loire","440109","Nantes","[ 47.2156766593214 , -1.52603396368395]"
"TS5006","ts_ent","Malakoff","0","rue de suisse","suisse","5.0","5.0","kinshofer","gris RAL 9007","avec réservation","0","tambour","0","9","Nantes-Loire","440109","Nantes","[ 47.2171492278501 , -1.52304309895212]"
"TS5007","ts_ent","Malakoff","0","rue de suisse","suisse","5.0","5.0","kinshofer","gris RAL 9007","avec réservation","0","tambour","0","9","Nantes-Loire","440109","Nantes","[ 47.2171957371217 , -1.52248608888127]"
"TS5008","ts_ent","Malakoff","0","rue de suisse","suisse","5.0","5.0","kinshofer","gris RAL 9007","avec réservation","0","tambour","0","9","Nantes-Loire","440109","Nantes","[ 47.2169576395965 , -1.5217692248009]"
"TS5009","ts_ent","Malakoff","0","rue de suisse","suisse","5.0","5.0","kinshofer","gris RAL 9007","avec réservation","0","tambour","0","9","Nantes-Loire","440109","Nantes","[ 47.2170629466651 , -1.52195249838774]"
"TS5012","ts_ent","Malakoff","0","Rue de Madrid","Madrid","5.0","5.0","kinshofer","gris RAL 9007","tôle larmée","0","tambour","0","9","Nantes-Loire","440109","Nantes","[ 47.2141397357895 , -1.53232448534934]"
"TS5013","ts_ent","Malakoff","0","Rue de Madrid","Madrid","5.0","5.0","kinshofer","gris RAL 9007","tôle larmée","0","tambour","0","9","Nantes-Loire","440109","Nantes","[ 47.2139582704102 , -1.53275054797435]"
"TS5014","ts_ent","Malakoff","0","Rue de Madrid","Madrid","5.0","5.0","kinshofer","gris RAL 9007","tôle larmée","0","tambour","0","9","Nantes-Loire","440109","Nantes","[ 47.2139623728214 , -1.53272055623819]"
"TS5015","ts_ent","Malakoff","0","Rue de Madrid","Madrid","5.0","5.0","kinshofer","gris RAL 9007","tôle larmée","0","tambour","0","9","Nantes-Loire","440109","Nantes","[ 47.2140257740692 , -1.53239954006469]"
"TS5016","ts_ent","Malakoff","0","Rue de Madrid","Madrid","5.0","5.0","kinshofer","gris RAL 9007","tôle larmée","0","tambour","0","9","Nantes-Loire","440109","Nantes","[ 47.2140247295042 , -1.53236917619226]"
"TS5017","ts_ent","Malakoff","0","Rue de Madrid","Madrid","5.0","5.0","kinshofer","gris RAL 9007","tôle larmée","0","tambour","0","9","Nantes-Loire","440109","Nantes","[ 47.2140306877348 , -1.53234537622686]"
"TS5018","ts_ent","Malakoff","0","rue de tchéchoslovaquie","tchéchoslovaquie","5.0","5.0","kinshofer","gris RAL 9007","tôle larmée","0","tambour","0","9","Nantes-Loire","440109","Nantes","[ 47.2144918684395 , -1.53262405323798]"
"TS5019","ts_ent","Malakoff","0","rue de tchéchoslovaquie","tchéchoslovaquie","5.0","5.0","kinshofer","gris RAL 9007","tôle larmée","0","tambour","0","9","Nantes-Loire","440109","Nantes","[ 47.2148273135249 , -1.53197589314945]"
"TS5020","ts_ent","Malakoff","0","rue de tchéchoslovaquie","tchéchoslovaquie","5.0","5.0","kinshofer","gris RAL 9007","tôle larmée","0","tambour","0","9","Nantes-Loire","440109","Nantes","[ 47.2149302038532 , -1.53158503203857]"
"TS5021","ts_ent","Malakoff","0","rue de tchéchoslovaquie","tchéchoslovaquie","5.0","5.0","kinshofer","gris RAL 9007","tôle larmée","0","tambour","0","9","Nantes-Loire","440109","Nantes","[ 47.2149970532726 , -1.53106889486681]"
"TS5022","ts_ent","Lauriers","3","rue du rhône","rhône","5.0","5.0","kinshofer","gris RAL 9007","tôle larmée","0","tambour","0","8","Nantes-Ouest","440109","Nantes","[ 47.2031657637927 , -1.60120619998875]"
"TS5023","ts_ent","Lauriers","2","rue du rhône","rhône","5.0","5.0","kinshofer","gris RAL 9007","tôle larmée","0","tambour","0","8","Nantes-Ouest","440109","Nantes","[ 47.2032428777283 , -1.60103319992969]"
"TS5024","ts_ent","Lauriers","7","rue du rhône","rhône","5.0","5.0","kinshofer","gris RAL 9007","tôle larmée","0","tambour","0","8","Nantes-Ouest","440109","Nantes","[ 47.2033019035882 , -1.60214440472955]"
"TS5025","ts_ent","Lauriers","7","rue du rhône","rhône","5.0","5.0","kinshofer","gris RAL 9007","tôle larmée","0","tambour","0","8","Nantes-Ouest","440109","Nantes","[ 47.2033922876904 , -1.60206626095051]"
"TS5026","ts_ent","Dervallières - Chézine","22","rue claude lorrain","Lorrain","5.0","5.0","kinshofer","gris RAL 9007","tôle larmée","0","tambour","0","8","Nantes-Ouest","440109","Nantes","[ 47.2252297516844 , -1.60167259913952]"
"TS5027","ts_ent","Dervallières - Chézine","26","rue claude lorrain","Lorrain","5.0","5.0","kinshofer","gris RAL 9007","tôle larmée","0","tambour","0","8","Nantes-Ouest","440109","Nantes","[ 47.2254605746421 , -1.60119879226935]"
"TS5028","ts_ent","Dervallières - Chézine","40","rue claude lorrain","Lorrain","5.0","5.0","kinshofer","gris RAL 9007","tôle larmée","0","tambour","0","8","Nantes-Ouest","440109","Nantes","[ 47.225643133474 , -1.59999280890347]"
"TS5029","ts_ent","Dervallières - Chézine","40","rue claude lorrain","Lorrain","5.0","5.0","kinshofer","gris RAL 9007","tôle larmée","0","tambour","0","8","Nantes-Ouest","440109","Nantes","[ 47.225640094506 , -1.60002136671843]"
"TS5030","ts_ent","Dervallières - Chézine","44","rue claude lorrain","Lorrain","5.0","5.0","kinshofer","gris RAL 9007","tôle larmée","0","tambour","0","8","Nantes-Ouest","440109","Nantes","[ 47.2259147121007 , -1.59950380999456]"
"TS5031","ts_ent","Breil-Malville","27","rue des plantes","Plantes","5.0","5.0","kinshofer","gris RAL 9007","tôle larmée","0","tambour","0","8","Nantes-Ouest","440109","Nantes","[ 47.2340276688111 , -1.58529875240597]"
"TS5032","ts_ent","Breil-Malville","0","rue georges méliès/rue pl","Méliès","5.0","5.0","kinshofer","gris RAL 9007","tôle larmée","0","tambour","0","8","Nantes-Ouest","440109","Nantes","[ 47.2332922307535 , -1.5857750951562]"
"TS5033","ts_ent","Breil-Malville","37","rue des plantes","Plantes","5.0","5.0","kinshofer","gris RAL 9007","tôle larmée","0","tambour","0","8","Nantes-Ouest","440109","Nantes","[ 47.233278591217 , -1.58575137000253]"
"TS5034","ts_ent","Breil-Malville","37","rue des plantes","Plantes","5.0","5.0","kinshofer","gris RAL 9007","tôle larmée","0","tambour","0","8","Nantes-Ouest","440109","Nantes","[ 47.232826073252 , -1.58516067484054]"
"TS5035","ts_ent","Breil-Malville","37","rue des plantes","Plantes","5.0","5.0","kinshofer","gris RAL 9007","tôle larmée","0","tambour","0","8","Nantes-Ouest","440109","Nantes","[ 47.232809913612 , -1.58518070028167]"
"TS5036","ts_ent","Breil-Malville","41","rue des plantes","Plantes","5.0","5.0","kinshofer","gris RAL 9007","tôle larmée","0","tambour","0","8","Nantes-Ouest","440109","Nantes","[ 47.2329550468363 , -1.58649575657377]"
"TS5037","ts_ent","Breil-Malville","41","rue des plantes","Plantes","5.0","5.0","kinshofer","gris RAL 9007","tôle larmée","0","tambour","0","8","Nantes-Ouest","440109","Nantes","[ 47.2329424367803 , -1.58647210686373]"
"TS5038","ts_ent","Breil-Malville","1","place emile cohl","Cohl","5.0","5.0","kinshofer","gris RAL 9007","tôle larmée","0","tambour","0","8","Nantes-Ouest","440109","Nantes","[ 47.232078732636 , -1.58528920626799]"
"TS5039","ts_ent","Breil-Malville","1","place emile cohl","Cohl","5.0","5.0","kinshofer","gris RAL 9007","tôle larmée","0","tambour","0","8","Nantes-Ouest","440109","Nantes","[ 47.2320934016086 , -1.58531300622841]"
"TS5040","ts_ent","Breil-Malville","1","place emile cohl","Cohl","5.0","5.0","kinshofer","gris RAL 9007","tôle larmée","0","tambour","0","8","Nantes-Ouest","440109","Nantes","[ 47.2321081219798 , -1.58533529499128]"
"TS5041","ts_ent","Breil-Malville","21","rue de la maison blanche","Blanche","5.0","5.0","kinshofer","gris RAL 9007","tôle larmée","0","tambour","0","8","Nantes-Ouest","440109","Nantes","[ 47.2316270049753 , -1.58516065054801]"
"TS5042","ts_ent","Breil-Malville","21","rue de la maison blanche","Blanche","5.0","5.0","kinshofer","gris RAL 9007","tôle larmée","0","tambour","0","8","Nantes-Ouest","440109","Nantes","[ 47.2316421866828 , -1.585139038894]"
"TS5043","ts_ent","Breil-Malville","19","rue jules raimu","Raimu","5.0","5.0","kinshofer","gris RAL 9007","tôle larmée","0","tambour","0","8","Nantes-Ouest","440109","Nantes","[ 47.2321460631746 , -1.58443211861803]"
"TS5044","ts_ent","Breil-Malville","19","rue jules raimu","Raimu","5.0","5.0","kinshofer","gris RAL 9007","tôle larmée","0","tambour","0","8","Nantes-Ouest","440109","Nantes","[ 47.2321602154089 , -1.58441043111206]"
"TS5045","ts_ent","Breil-Malville","11","rue jules raimu","Raimu","5.0","5.0","kinshofer","gris RAL 9007","tôle larmée","0","tambour","0","8","Nantes-Ouest","440109","Nantes","[ 47.2317590510654 , -1.58376595427906]"
"TS5046","ts_ent","Breil-Malville","11","rue jules raimu","Raimu","5.0","5.0","kinshofer","gris RAL 9007","tôle larmée","0","tambour","0","8","Nantes-Ouest","440109","Nantes","[ 47.2317752104652 , -1.58374592880408]"
"TS5047","ts_ent","Breil-Malville","3","rue jules raimu","Raimu","5.0","5.0","kinshofer","gris RAL 9007","tôle larmée","0","tambour","0","8","Nantes-Ouest","440109","Nantes","[ 47.2313645195905 , -1.58307803957081]"
"TS5048","ts_ent","Breil-Malville","3","rue jacques feyder","Feyder","5.0","5.0","kinshofer","gris RAL 9007","tôle larmée","0","tambour","0","8","Nantes-Ouest","440109","Nantes","[ 47.2309895287902 , -1.58387924257706]"
"TS5049","ts_ent","Breil-Malville","3","rue jacques feyder","Feyder","5.0","5.0","kinshofer","gris RAL 9007","tôle larmée","0","tambour","0","8","Nantes-Ouest","440109","Nantes","[ 47.2310056882128 , -1.58385921742316]"
"TS5050","ts_ent","Malakoff","1","rue de corse","Corse","5.0","5.0","kinshofer","gris RAL 9007","avec réservation","0","tambour","0","9","Nantes-Loire","440109","Nantes","[ 47.216307447795 , -1.52192680237593]"
"TS5051","ts_ent","Malakoff","1","rue de corse","Corse","5.0","5.0","kinshofer","gris RAL 9007","avec réservation","0","tambour","0","9","Nantes-Loire","440109","Nantes","[ 47.2163125262051 , -1.52189839354493]"
"TS5052","ts_ent","Malakoff","0","rue de tchéchoslovaquie","tchéchoslovaquie","5.0","5.0","","","","0","","0","9","Nantes-Loire","440109","Nantes","[ 47.2145056204474 , -1.5326447350673]"
"TS5054","ts_ent","Malakoff","0","rue de suisse/tour Suisse","suisse","5.0","5.0","kinshofer","gris RAL 9007","avec réservation","0","tambour","0","9","Nantes-Loire","440109","Nantes","[ 47.2166685241343 , -1.52146668689776]"
"TS5055","ts_ent","Malakoff","0","rue de suisse/tour Suisse","suisse","5.0","5.0","kinshofer","gris RAL 9007","avec réservation","0","tambour","0","9","Nantes-Loire","440109","Nantes","[ 47.2166512774446 , -1.52145787116239]"
"TS5056","ts_ent","Malakoff","0","Rue d'Irlande","Irlande","5.0","5.0","kinshofer","gris RAL 9007","avec réservation","0","tambour","0","9","Nantes-Loire","440109","Nantes","[ 47.2156646779877 , -1.52605278689195]"
"TS5057","ts_ent","Malakoff","0","rue de tchéchoslovaquie","tchéchoslovaquie","5.0","5.0","kinshofer","gris RAL 9007","tôle larmée","0","tambour","0","9","Nantes-Loire","440109","Nantes","[ 47.2149949593531 , -1.53110054687015]"
"TS5058","ts_ent","Vieux Malakoff","0","Rue du Cher","Cher","5.0","5.0","kinshofer","gris RAL 9007","tôle larmée","0","tambour_80l","0","9","Nantes-Loire","440109","Nantes","[ 47.214271547335 , -1.53442240731614]"
"TS5059","ts_ent","Bout des Pavés-Chêne des Angla","1","Rue de Québec","Québec","5.0","5.0","kinshofer","gris RAL 9007","tôle larmée","0","tambour80l","0","6","Erdre et Cens","440109","Nantes","[ 47.2610695683648 , -1.57761134135108]"
"TS5060","ts_ent","Bout des Pavés-Chêne des Angla","1","Rue de Québec","Québec","5.0","5.0","kinshofer","gris RAL 9007","tôle larmée","0","tambour80l","0","6","Erdre et Cens","440109","Nantes","[ 47.2610556227228 , -1.57762699419982]"
"TS5061","ts_ent","Bout des Pavés-Chêne des Angla","1","Rue de Québec","Québec","5.0","5.0","kinshofer","gris RAL 9007","tôle larmée","0","tambour80l","0","6","Erdre et Cens","440109","Nantes","[ 47.2611244372077 , -1.57766689464806]"
"TS5062","ts_ent","Bout des Pavés-Chêne des Angla","1","Rue de Québec","Québec","5.0","5.0","kinshofer","gris RAL 9007","tôle larmée","0","tambour80l","0","6","Erdre et Cens","440109","Nantes","[ 47.2611184696792 , -1.57769071046222]"
"TS5063","ts_ent","Bout des Pavés-Chêne des Angla","3","Rue de Québec","Québec","5.0","5.0","kinshofer","gris RAL 9007","tôle larmée","0","tambour80l","0","6","Erdre et Cens","440109","Nantes","[ 47.2614663345298 , -1.57875146687182]"
"TS5064","ts_ent","Bout des Pavés-Chêne des Angla","3","Rue de Québec","Québec","5.0","5.0","kinshofer","gris RAL 9007","tôle larmée","0","tambour80l","0","6","Erdre et Cens","440109","Nantes","[ 47.2614535690667 , -1.57873234254716]"
"TS5065","ts_ent","Bout des Pavés-Chêne des Angla","3","Rue de Québec","Québec","5.0","5.0","kinshofer","gris RAL 9007","tôle larmée","0","tambour80l","0","6","Erdre et Cens","440109","Nantes","[ 47.2614500221617 , -1.57877604105837]"
"TS5066","ts_ent","Bout des Pavés-Chêne des Angla","3","Rue de Québec","Québec","5.0","5.0","kinshofer","gris RAL 9007","tôle larmée","0","tambour80l","0","6","Erdre et Cens","440109","Nantes","[ 47.2614372567026 , -1.57875691673367]"
"TS5067","ts_ent","Bout des Pavés-Chêne des Angla","5","Rue de Québec","Québec","5.0","5.0","kinshofer","gris RAL 9007","tôle larmée","0","tambour80l","0","6","Erdre et Cens","440109","Nantes","[ 47.2610905614676 , -1.57909077351272]"
"TS5068","ts_ent","Bout des Pavés-Chêne des Angla","5","Rue de Québec","Québec","5.0","5.0","kinshofer","gris RAL 9007","tôle larmée","0","tambour80l","0","6","Erdre et Cens","440109","Nantes","[ 47.2611079574249 , -1.57909507896673]"
"TS5069","ts_ent","Bout des Pavés-Chêne des Angla","5","Rue de Québec","Québec","5.0","5.0","kinshofer","gris RAL 9007","tôle larmée","0","tambour80l","0","6","Erdre et Cens","440109","Nantes","[ 47.261125353382 , -1.57909938442354]"
"TS5070","ts_ent","Bout des Pavés-Chêne des Angla","5","Rue de Québec","Québec","5.0","5.0","kinshofer","gris RAL 9007","tôle larmée","0","tambour80l","0","6","Erdre et Cens","440109","Nantes","[ 47.2611416686858 , -1.57910512654114]"
"TS5071","ts_ent","Lauriers","12","rue du Rhone","rhone","5.0","5.0","kinshofer","gris RAL 9007","tôle larmée","0","tambour","0","8","Nantes-Ouest","440109","Nantes","[ 47.20373058919 , -1.6029466691991]"
"TS5072","ts_ent","Lauriers","13","rue du Rhone","rhone","5.0","5.0","kinshofer","gris RAL 9007","tôle larmée","0","tambour","0","8","Nantes-Ouest","440109","Nantes","[ 47.2035912624741 , -1.60252455717672]"
"TS5073","ts_ent","Lauriers","11","rue du Rhone","rhone","5.0","5.0","kinshofer","gris RAL 9007","tôle larmée","0","tambour","0","8","Nantes-Ouest","440109","Nantes","[ 47.2034797300158 , -1.60255723296951]"
"TS5074","ts_ent","Bout des Pavés-Chêne des Angla","2","rue Samuel de Champlain","champlain","5.0","5.0","kinshofer","gris RAL 9007","tôle larmée","0","tambour","0","6","Erdre et Cens","440109","Nantes","[ 47.2599017967234 , -1.57382893782074]"
"TS5075","ts_ent","Bout des Pavés-Chêne des Angla","2","rue Samuel de Champlain","champlain","5.0","5.0","kinshofer","gris RAL 9007","tôle larmée","0","tambour","0","6","Erdre et Cens","440109","Nantes","[ 47.259880180716 , -1.57382735708543]"
"TS5076","ts_ent","Bout des Pavés-Chêne des Angla","2","rue Samuel de Champlain","champlain","5.0","5.0","kinshofer","gris RAL 9007","tôle larmée","0","tambour","0","6","Erdre et Cens","440109","Nantes","[ 47.2598801764628 , -1.57379704174116]"
"TS5077","ts_ent","Bout des Pavés-Chêne des Angla","4","rue Samuel de Champlain","champlain","5.0","5.0","kinshofer","gris RAL 9007","tôle larmée","0","tambour","0","6","Erdre et Cens","440109","Nantes","[ 47.260328883206 , -1.5743497620348]"
"TS5078","ts_ent","Bout des Pavés-Chêne des Angla","4","rue Samuel de Champlain","champlain","5.0","5.0","kinshofer","gris RAL 9007","tôle larmée","0","tambour","0","6","Erdre et Cens","440109","Nantes","[ 47.2603081940201 , -1.57435128039106]"
"TS5079","ts_ent","Bout des Pavés-Chêne des Angla","4","rue Samuel de Champlain","champlain","5.0","5.0","kinshofer","gris RAL 9007","tôle larmée","0","tambour","0","6","Erdre et Cens","440109","Nantes","[ 47.2602863729786 , -1.57435574749143]"
"TS5080","ts_ent","Bout des Pavés-Chêne des Angla","6","rue Samuel de Champlain","champlain","5.0","5.0","kinshofer","gris RAL 9007","tôle larmée","0","tambour","0","6","Erdre et Cens","440109","Nantes","[ 47.2607992802097 , -1.57432353527315]"
"TS5081","ts_ent","Bout des Pavés-Chêne des Angla","6","rue Samuel de Champlain","champlain","5.0","5.0","kinshofer","gris RAL 9007","tôle larmée","0","tambour","0","6","Erdre et Cens","440109","Nantes","[ 47.2607981442342 , -1.57429616818433]"
"TS5082","ts_ent","Bout des Pavés-Chêne des Angla","6","rue Samuel de Champlain","champlain","5.0","5.0","kinshofer","gris RAL 9007","tôle larmée","0","tambour","0","6","Erdre et Cens","440109","Nantes","[ 47.2607785397664 , -1.57432656568123]"
"TS5083","ts_ent","Bout des Pavés-Chêne des Angla","6","rue Samuel de Champlain","champlain","5.0","5.0","kinshofer","gris RAL 9007","tôle larmée","0","tambour","0","6","Erdre et Cens","440109","Nantes","[ 47.2607775063124 , -1.57429617454612]"
"TS5084","ts_ent","Bout des Pavés-Chêne des Angla","8","rue Samuel de Champlain","champlain","5.0","5.0","kinshofer","gris RAL 9007","tôle larmée","0","tambour","0","6","Erdre et Cens","440109","Nantes","[ 47.2610996333488 , -1.57356032550376]"
"TS5085","ts_ent","Bout des Pavés-Chêne des Angla","8","rue Samuel de Champlain","champlain","5.0","5.0","kinshofer","gris RAL 9007","tôle larmée","0","tambour","0","6","Erdre et Cens","440109","Nantes","[ 47.2610815709199 , -1.57357567833411]"
"TS5086","ts_ent","Bout des Pavés-Chêne des Angla","8","rue Samuel de Champlain","champlain","5.0","5.0","kinshofer","gris RAL 9007","tôle larmée","0","tambour","0","6","Erdre et Cens","440109","Nantes","[ 47.2611090554171 , -1.57358678285399]"
"TS5087","ts_ent","Bout des Pavés-Chêne des Angla","8","rue Samuel de Champlain","champlain","5.0","5.0","kinshofer","gris RAL 9007","tôle larmée","0","tambour","0","6","Erdre et Cens","440109","Nantes","[ 47.2610900149027 , -1.57360054836982]"
"TS5088","ts_ent","Bout des Pavés-Chêne des Angla","10","rue Samuel de Champlain","champlain","5.0","5.0","kinshofer","gris RAL 9007","tôle larmée","0","tambour","0","6","Erdre et Cens","440109","Nantes","[ 47.2611085397316 , -1.57287129424641]"
"TS5089","ts_ent","Bout des Pavés-Chêne des Angla","10","rue Samuel de Champlain","champlain","5.0","5.0","kinshofer","gris RAL 9007","tôle larmée","0","tambour","0","6","Erdre et Cens","440109","Nantes","[ 47.2611053447442 , -1.57284377651875]"
"TS5090","ts_ent","Bout des Pavés-Chêne des Angla","10","rue Samuel de Champlain","champlain","5.0","5.0","kinshofer","gris RAL 9007","tôle larmée","0","tambour","0","6","Erdre et Cens","440109","Nantes","[ 47.2611032303253 , -1.57281482201079]"
"TS5091","ts_ent","Vieux Malakoff","0","allée Jacques Berque","Berque","5.0","5.0","kinshofer","gris RAL 9007","tôle larmée","0","tambour_100l","0","9","Nantes-Loire","440109","Nantes","[ 47.2124333803267 , -1.53732123999433]"
"TS5092","ts_ent","Vieux Malakoff","0","allée Jacques Berque","Berque","5.0","5.0","kinshofer","gris RAL 9007","tôle larmée","0","tambour_100l","0","9","Nantes-Loire","440109","Nantes","[ 47.2124507273643 , -1.53732703872401]"
"TS5093","ts_ent","Vieux Malakoff","0","allée Jacques Berque","Berque","5.0","5.0","kinshofer","gris RAL 9007","tôle larmée","0","tambour_100l","0","9","Nantes-Loire","440109","Nantes","[ 47.2124701331498 , -1.53733298647206]"
"TS5094","ts_ent","Vieux Malakoff","0","allée Jacques Berque","Berque","5.0","5.0","kinshofer","gris RAL 9007","tôle larmée","0","tambour_100l","0","9","Nantes-Loire","440109","Nantes","[ 47.2124864508125 , -1.53733871070205]"
"TS5095","ts_ent","Vieux Malakoff","0","allée Jacques Berque","Berque","5.0","5.0","kinshofer","gris RAL 9007","tôle larmée","0","tambour_100l","0","9","Nantes-Loire","440109","Nantes","[ 47.2125059073715 , -1.53734314775353]"
"TS5096","ts_ent","Vieux Malakoff","0","allée Jacques Berque","Berque","5.0","5.0","kinshofer","gris RAL 9007","tôle larmée","0","tambour_100l","0","9","Nantes-Loire","440109","Nantes","[ 47.2125222250335 , -1.53734887199042]"
"TS5097","ts_ent","Vieux Malakoff","9","rue du Cher","Cher","5.0","5.0","kinshofer","gris RAL 9007","tôle larmée","0","tambour_80l","0","9","Nantes-Loire","440109","Nantes","[ 47.2146376699397 , -1.53418234797039]"
"TS5098","ts_ent","Vieux Malakoff","9","rue du Cher","Cher","5.0","5.0","kinshofer","gris RAL 9007","tôle larmée","0","tambour_80l","0","9","Nantes-Loire","440109","Nantes","[ 47.2146543936139 , -1.53417598532909]"
"TS5099","ts_ent","Vieux Malakoff","11","Rue du Cher","Cher","5.0","5.0","kinshofer","gris RAL 9007","tôle larmée","0","tambour_80l","0","9","Nantes-Loire","440109","Nantes","[ 47.2151423256253 , -1.53433394601078]"
"TS5100","ts_ent","Vieux Malakoff","11","Rue du Cher","Cher","5.0","5.0","kinshofer","gris RAL 9007","tôle larmée","0","tambour_80l","0","9","Nantes-Loire","440109","Nantes","[ 47.2151573096388 , -1.53434865985372]"
"TS5101","ts_ent","Vieux Malakoff","13","Rue du Cher","Cher","5.0","5.0","kinshofer","gris RAL 9007","tôle larmée","0","tambour_80l","0","9","Nantes-Loire","440109","Nantes","[ 47.2155804060097 , -1.53474727703304]"
"TS5102","ts_ent","Vieux Malakoff","13","Rue du Cher","Cher","5.0","5.0","kinshofer","gris RAL 9007","tôle larmée","0","tambour_80l","0","9","Nantes-Loire","440109","Nantes","[ 47.2155964700835 , -1.53476055477957]"
"TS5103","ts_ent","Vieux Malakoff","13","Rue du Cher","Cher","5.0","5.0","kinshofer","gris RAL 9007","tôle larmée","0","tambour_80l","0","9","Nantes-Loire","440109","Nantes","[ 47.2156182969322 , -1.53466369344574]"
"TS5104","ts_ent","Vieux Malakoff","13","Rue du Cher","Cher","5.0","5.0","kinshofer","gris RAL 9007","tôle larmée","0","tambour_80l","0","9","Nantes-Loire","440109","Nantes","[ 47.2156333316406 , -1.53467689671584]"
"TS5105","ts_ent","Lauriers","3","rue de la drome","drome","5.0","5.0","kinshofer","gris RAL 9007","tôle larmée","0","tambour","0","8","Nantes-Ouest","440109","Nantes","[ 47.2047893005316 , -1.60213270968481]"
"TS5106","ts_ent","Lauriers","3","rue de la drome","drome","5.0","5.0","kinshofer","gris RAL 9007","tôle larmée","0","tambour","0","8","Nantes-Ouest","440109","Nantes","[ 47.204807367023 , -1.60211738259801]"
"TS5107","ts_ent","Lauriers","12","rue de la Saone","saone","5.0","5.0","kinshofer","gris RAL 9007","tôle larmée","0","tambour","0","8","Nantes-Ouest","440109","Nantes","[ 47.2046750189 , -1.60284961038401]"
"TS5108","ts_ent","Lauriers","8","rue de la Saone","saone","5.0","5.0","kinshofer","gris RAL 9007","tôle larmée","0","tambour","0","8","Nantes-Ouest","440109","Nantes","[ 47.2044420568353 , -1.60305354076017]"
"TS5109","ts_ent","Lauriers","4","rue de la Saone","saone","5.0","5.0","kinshofer","gris RAL 9007","tôle larmée","0","tambour","0","8","Nantes-Ouest","440109","Nantes","[ 47.2041411069162 , -1.60325397971054]"
"TS5110","ts_ent","Lauriers","8","rue de l'Isère","isere","5.0","5.0","kinshofer","gris RAL 9007","tôle larmée","0","tambour","0","8","Nantes-Ouest","440109","Nantes","[ 47.2029236904828 , -1.60339756210349]"
"TS5111","ts_ent","Lauriers","8","rue de l'Isère","isere","5.0","5.0","kinshofer","gris RAL 9007","tôle larmée","0","tambour","0","8","Nantes-Ouest","440109","Nantes","[ 47.2029076824754 , -1.60341303974279]"
"TS5112","ts_ent","Lauriers","8","rue de l'Isère","isere","5.0","5.0","kinshofer","gris RAL 9007","tôle larmée","0","tambour","0","8","Nantes-Ouest","440109","Nantes","[ 47.2028982154002 , -1.60338811628723]"
"TS5113","ts_ent","Lauriers","3","rue de l'Isère","isere","5.0","5.0","kinshofer","gris RAL 9007","tôle larmée","0","tambour","0","8","Nantes-Ouest","440109","Nantes","[ 47.2025950112327 , -1.60256783922237]"
"TS5114","ts_ent","Lauriers","3","rue de l'Isère","isere","5.0","5.0","kinshofer","gris RAL 9007","tôle larmée","0","tambour","0","8","Nantes-Ouest","440109","Nantes","[ 47.2025778191154 , -1.60258777234454]"
"TS5115","ts_ent","Lauriers","17","rue du Rhone","rhone","5.0","5.0","kinshofer","gris RAL 9007","tôle larmée","0","tambour","0","8","Nantes-Ouest","440109","Nantes","[ 47.2034721174207 , -1.60344398383291]"
"TS5116","ts_ent","Lauriers","29","rue Lucien Aubert","Aubert","5.0","5.0","kinshofer","gris RAL 9007","tôle larmée","0","tambour","0","8","Nantes-Ouest","440109","Nantes","[ 47.209091489477 , -1.60547948694116]"
"TS5117","ts_ent","Lauriers","27","rue Lucien Aubert","Aubert","5.0","5.0","kinshofer","gris RAL 9007","tôle larmée","0","tambour","0","8","Nantes-Ouest","440109","Nantes","[ 47.2087712246348 , -1.60576179575438]"
"TS5118","ts_ent","Lauriers","21","rue Lucien Aubert","Aubert","5.0","5.0","kinshofer","gris RAL 9007","tôle larmée","0","tambour","0","8","Nantes-Ouest","440109","Nantes","[ 47.2084427244557 , -1.60604349466162]"
"TS5119","ts_ent","Lauriers","17","rue Lucien Aubert","Aubert","5.0","5.0","kinshofer","gris RAL 9007","tôle larmée","0","tambour","0","8","Nantes-Ouest","440109","Nantes","[ 47.2080620294369 , -1.60637283209848]"
"TS5120","ts_ent","Lauriers","13","rue Lucien Aubert","Aubert","5.0","5.0","kinshofer","gris RAL 9007","tôle larmée","0","tambour","0","8","Nantes-Ouest","440109","Nantes","[ 47.2077660524214 , -1.60630711468371]"
"TS5121","ts_ent","Lauriers","3","rue Lucien Aubert","Aubert","5.0","5.0","kinshofer","gris RAL 9007","tôle larmée","0","tambour","0","8","Nantes-Ouest","440109","Nantes","[ 47.2071534690363 , -1.60683893570763]"
"TS5122","ts_ent","Lauriers","9","rue Lucien Aubert","Aubert","5.0","5.0","kinshofer","gris RAL 9007","tôle larmée","0","tambour","0","8","Nantes-Ouest","440109","Nantes","[ 47.207462362357 , -1.60655731820476]"
"TS5123","ts_ent","Vieux Malakoff","10","rue de l'Indre","Indre","5.0","5.0","kinshofer","gris RAL 9007","tôle larmée","0","tambour_80l","0","9","Nantes-Loire","440109","Nantes","[ 47.2140090252547 , -1.53661598771824]"
"TS5124","ts_ent","Vieux Malakoff","10","rue de l'Indre","Indre","5.0","5.0","kinshofer","gris RAL 9007","tôle larmée","0","tambour_80l","0","9","Nantes-Loire","440109","Nantes","[ 47.2140088588803 , -1.53659023051164]"
"TS5126","ts_ent","Vieux Malakoff","6","rue de l'Indre","Indre","5.0","5.0","kinshofer","gris RAL 9007","tôle larmée","0","tambour_80l","0","9","Nantes-Loire","440109","Nantes","[ 47.2139953440133 , -1.53619398857976]"
"TS5127","ts_ent","Vieux Malakoff","6","rue de l'Indre","Indre","5.0","5.0","kinshofer","gris RAL 9007","tôle larmée","0","tambour_80l","0","9","Nantes-Loire","440109","Nantes","[ 47.2139951775447 , -1.53616823138103]"
"TS5128","ts_ent","Bout des Pavés-Chêne des Angla","1","rue Jacques Cartier","Cartier","5.0","5.0","kinshofer","gris RAL 9007","tôle larmée","0","tambour_80l","0","6","Erdre et Cens","440109","Nantes","[ 47.2587603922968 , -1.57428961452404]"
"TS5129","ts_ent","Bout des Pavés-Chêne des Angla","7","rue Jacques Cartier","Cartier","5.0","5.0","kinshofer","gris RAL 9007","tôle larmée","0","tambour_80l","0","6","Erdre et Cens","440109","Nantes","[ 47.2587491135434 , -1.5738613566213]"
"TS5130","ts_ent","Bout des Pavés-Chêne des Angla","9","rue Jacques Cartier","Cartier","5.0","5.0","kinshofer","gris RAL 9007","tôle larmée","0","tambour_80l","0","6","Erdre et Cens","440109","Nantes","[ 47.2585273260003 , -1.57300694869096]"
"TS5131","ts_ent","Bout des Pavés-Chêne des Angla","15","rue Jacques Cartier","Cartier","5.0","5.0","kinshofer","gris RAL 9007","tôle larmée","0","tambour_80l","0","6","Erdre et Cens","440109","Nantes","[ 47.2586452873082 , -1.5723274380297]"
"TS5132","ts_ent","Bout des Pavés-Chêne des Angla","17","rue Jacques Cartier","Cartier","5.0","5.0","kinshofer","gris RAL 9007","tôle larmée","0","tambour_80l","0","6","Erdre et Cens","440109","Nantes","[ 47.2589602405518 , -1.57219888827186]"
"TS5133","ts_ent","Bout des Pavés-Chêne des Angla","25","rue Jacques Cartier","Cartier","5.0","5.0","kinshofer","gris RAL 9007","tôle larmée","0","tambour_80l","0","6","Erdre et Cens","440109","Nantes","[ 47.2595272923312 , -1.57218273995751]"
"TS5134","ts_ent","Bout des Pavés-Chêne des Angla","31","rue Jacques Cartier","Cartier","5.0","5.0","kinshofer","gris RAL 9007","tôle larmée","0","tambour_80l","0","6","Erdre et Cens","440109","Nantes","[ 47.2599107125529 , -1.57216529440395]"
"TS5135","ts_ent","Bout des Pavés-Chêne des Angla","35","rue Jacques Cartier","Cartier","5.0","5.0","kinshofer","gris RAL 9007","tôle larmée","0","tambour_80l","0","6","Erdre et Cens","440109","Nantes","[ 47.2602178918965 , -1.572022530617]"
"TS5136","ts_ent","Bout des Pavés-Chêne des Angla","41","rue Jacques Cartier","Cartier","5.0","5.0","kinshofer","gris RAL 9007","tôle larmée","0","tambour_80l","0","6","Erdre et Cens","440109","Nantes","[ 47.260522364141 , -1.57168554905675]"
"TS5137","ts_ent","Bout des Pavés-Chêne des Angla","43","rue Jacques Cartier","Cartier","5.0","5.0","kinshofer","gris RAL 9007","tôle larmée","0","tambour_80l","0","6","Erdre et Cens","440109","Nantes","[ 47.2608994689879 , -1.57112347370631]"
"TS5138","ts_ent","St Jacques - Pirmil","6","Avenue Laurent Bonnevay","Bonnevay","0.0","0.0","","","","0","","0","2","Loire, Sèvre et Vignoble","440109","Nantes","[ 47.1944093567651 , -1.54131403496931]"
"TS5139","ts_ent","St Jacques - Pirmil","6","Avenue Laurent Bonnevay","Bonnevay","0.0","0.0","","","","0","","0","2","Loire, Sèvre et Vignoble","440109","Nantes","[ 47.1944310244735 , -1.54131409083751]"
"TS5140","ts_ent","St Jacques - Pirmil","2","Avenue Laurent Bonnevay","Bonnevay","0.0","0.0","","","","0","","0","2","Loire, Sèvre et Vignoble","440109","Nantes","[ 47.1948318025214 , -1.54071940543657]"
"TS5141","ts_ent","St Jacques - Pirmil","2","Avenue Laurent Bonnevay","Bonnevay","0.0","0.0","","","","0","","0","2","Loire, Sèvre et Vignoble","440109","Nantes","[ 47.1948524916698 , -1.54071787629716]"
"TS5142","ts_ent","St Jacques - Pirmil","10","Rue Gabriel Goudy","Goudy","0.0","0.0","","","","0","","0","2","Loire, Sèvre et Vignoble","440109","Nantes","[ 47.1954305693618 , -1.5408339312886]"
"TS5143","ts_ent","St Jacques - Pirmil","10","Rue Gabriel Goudy","Goudy","0.0","0.0","","","","0","","0","2","Loire, Sèvre et Vignoble","440109","Nantes","[ 47.1954483866479 , -1.54085641657249]"
"TS5144","ts_ent","St Jacques - Pirmil","6","Rue Gabriel Goudy","Goudy","0.0","0.0","","","","0","","0","2","Loire, Sèvre et Vignoble","440109","Nantes","[ 47.1958452328237 , -1.54129846224335]"
"TS5145","ts_ent","St Jacques - Pirmil","6","Rue Gabriel Goudy","Goudy","0.0","0.0","","","","0","","0","2","Loire, Sèvre et Vignoble","440109","Nantes","[ 47.1958590341678 , -1.54131762908727]"
"TS5146","ts_ent","St Jacques - Pirmil","6","Rue Gabriel Goudy","Goudy","0.0","0.0","","","","0","","0","2","Loire, Sèvre et Vignoble","440109","Nantes","[ 47.1958728863344 , -1.541335285709]"
"TS5147","ts_ent","St Jacques - Pirmil","3","Rue Henri Sellier","Sellier","0.0","0.0","","","","0","","0","2","Loire, Sèvre et Vignoble","440109","Nantes","[ 47.1955408436578 , -1.54237096364146]"
"TS5148","ts_ent","St Jacques - Pirmil","3","Rue Henri Sellier","Sellier","0.0","0.0","","","","0","","0","2","Loire, Sèvre et Vignoble","440109","Nantes","[ 47.1955257589178 , -1.54235927315056]"
"TS5149","ts_ent","St Jacques - Pirmil","1","Rue Paul Théry","Théry","0.0","0.0","","","","0","","0","2","Loire, Sèvre et Vignoble","440109","Nantes","[ 47.1950218303199 , -1.53829126810331]"
"TS5150","ts_ent","St Jacques - Pirmil","21","Rue Gabriel Goudy","Goudy","0.0","0.0","","","","0","","0","2","Loire, Sèvre et Vignoble","440109","Nantes","[ 47.1943467187568 , -1.53894331831843]"
"TS5151","ts_ent","St Jacques - Pirmil","21","Rue Gabriel Goudy","Goudy","0.0","0.0","","","","0","","0","2","Loire, Sèvre et Vignoble","440109","Nantes","[ 47.1943361575232 , -1.53891984564027]"
"TS5152","ts_ent","St Jacques - Pirmil","21","Rue Gabriel Goudy","Goudy","0.0","0.0","","","","0","","0","2","Loire, Sèvre et Vignoble","440109","Nantes","[ 47.1943245161139 , -1.53889780863444]"
"TS5153","ts_ent","Gde Grèneraie - Clos toreau","2","Rue d'Ascain","Ascain","5.0","5.0","kinshofer","vert_nantais","tôle larmée","0","tambour","0","2","Loire, Sèvre et Vignoble","440109","Nantes","[ 47.1952602174766 , -1.52639725079771]"
"TS5154","ts_ent","Gde Grèneraie - Clos toreau","2","Rue d'Ascain","Ascain","5.0","5.0","kinshofer","vert_nantais","tôle larmée","0","tambour","0","2","Loire, Sèvre et Vignoble","440109","Nantes","[ 47.1952600488008 , -1.52637150261746]"
"TS5162","ts_ent","Malakoff","9","rue de Chypre","Chypre","5.0","5.0","kinshofer","gris RAL 9007","tôle larmée","0","tambour_80l","0","9","Nantes-Loire","440109","Nantes","[ 47.2154524036054 , -1.525181800775]"
"TS5163","ts_ent","Malakoff","9","rue de Chypre","Chypre","5.0","5.0","kinshofer","gris RAL 9007","tôle larmée","0","tambour_80l","0","9","Nantes-Loire","440109","Nantes","[ 47.2154636084909 , -1.52515534917176]"
"TS5164","ts_ent","Gde Grèneraie - Clos toreau","1","rue d'Hendaye","hendaye","5.0","5.0","kinshofer","vert_nantais","tôle larmée","0","tambour","0","2","Loire, Sèvre et Vignoble","440109","Nantes","[ 47.1956296046171 , -1.52762896832941]"
"TS5165","ts_ent","Gde Grèneraie - Clos toreau","1","rue d'Hendaye","hendaye","5.0","5.0","kinshofer","vert_nantais","tôle larmée","0","tambour","0","2","Loire, Sèvre et Vignoble","440109","Nantes","[ 47.1955031599837 , -1.52755322894755]"
"TS5166","ts_ent","Gde Grèneraie - Clos toreau","1","rue d'Hendaye","hendaye","5.0","5.0","kinshofer","vert_nantais","tôle larmée","0","tambour","0","2","Loire, Sèvre et Vignoble","440109","Nantes","[ 47.1956355618768 , -1.52760517607883]"
"TS5167","ts_ent","Gde Grèneraie - Clos toreau","1","rue d'Hendaye","hendaye","5.0","5.0","kinshofer","vert_nantais","tôle larmée","0","tambour","0","2","Loire, Sèvre et Vignoble","440109","Nantes","[ 47.195509066583 , -1.52753094697966]"
"TS5168","ts_ent","Gde Grèneraie - Clos toreau","3","rue d'Hendaye","hendaye","5.0","5.0","kinshofer","vert_nantais","tôle larmée","0","tambour","0","2","Loire, Sèvre et Vignoble","440109","Nantes","[ 47.1957935792904 , -1.52772407036962]"
"TS5169","ts_ent","Gde Grèneraie - Clos toreau","3","rue d'Hendaye","hendaye","5.0","5.0","kinshofer","vert_nantais","tôle larmée","0","tambour","0","2","Loire, Sèvre et Vignoble","440109","Nantes","[ 47.1958005659539 , -1.52770035237097]"
"TS5170","ts_ent","Gde Grèneraie - Clos toreau","4","rue d'Hendaye","hendaye","5.0","5.0","kinshofer","vert_nantais","tôle larmée","0","tambour","0","2","Loire, Sèvre et Vignoble","440109","Nantes","[ 47.1959116010664 , -1.52792788421059]"
"TS5171","ts_ent","Gde Grèneraie - Clos toreau","4","rue d'Hendaye","hendaye","5.0","5.0","kinshofer","vert_nantais","tôle larmée","0","tambour","0","2","Loire, Sèvre et Vignoble","440109","Nantes","[ 47.1959056943909 , -1.5279501663023]"
"TS5172","ts_ent","Gde Grèneraie - Clos toreau","4","rue d'Hendaye","hendaye","5.0","5.0","kinshofer","vert_nantais","tôle larmée","0","tambour","0","2","Loire, Sèvre et Vignoble","440109","Nantes","[ 47.1959331674811 , -1.52793095515217]"
"TS5173","ts_ent","Gde Grèneraie - Clos toreau","1","rue de Biarritz","biarritz","5.0","5.0","kinshofer","vert_nantais","tôle larmée","0","tambour","0","2","Loire, Sèvre et Vignoble","440109","Nantes","[ 47.1963283127635 , -1.52953244178169]"
"TS5174","ts_ent","Gde Grèneraie - Clos toreau","1","rue de Biarritz","biarritz","5.0","5.0","kinshofer","vert_nantais","tôle larmée","0","tambour","0","2","Loire, Sèvre et Vignoble","440109","Nantes","[ 47.1963482257354 , -1.52952328263993]"
"TS5175","ts_ent","Gde Grèneraie - Clos toreau","3","rue de Biarritz","biarritz","5.0","5.0","kinshofer","vert_nantais","tôle larmée","0","tambour","0","2","Loire, Sèvre et Vignoble","440109","Nantes","[ 47.1960515391618 , -1.52966232800322]"
"TS5176","ts_ent","Gde Grèneraie - Clos toreau","3","rue de Biarritz","biarritz","5.0","5.0","kinshofer","vert_nantais","tôle larmée","0","tambour","0","2","Loire, Sèvre et Vignoble","440109","Nantes","[ 47.1960558753065 , -1.52968686373784]"
"TS5177","ts_ent","Gde Grèneraie - Clos toreau","5","rue de Biarritz","biarritz","5.0","5.0","kinshofer","vert_nantais","tôle larmée","0","tambour","0","2","Loire, Sèvre et Vignoble","440109","Nantes","[ 47.1958388752799 , -1.52975748221524]"
"TS5178","ts_ent","Gde Grèneraie - Clos toreau","5","rue de Biarritz","biarritz","5.0","5.0","kinshofer","vert_nantais","tôle larmée","0","tambour","0","2","Loire, Sèvre et Vignoble","440109","Nantes","[ 47.1958442407876 , -1.52978209221442]"
"TS5179","ts_ent","Gde Grèneraie - Clos toreau","7","rue de Biarritz","biarritz","5.0","5.0","kinshofer","vert_nantais","tôle larmée","0","tambour","0","2","Loire, Sèvre et Vignoble","440109","Nantes","[ 47.1954364110642 , -1.52948164762991]"
"TS5180","ts_ent","Gde Grèneraie - Clos toreau","7","rue de Biarritz","biarritz","5.0","5.0","kinshofer","vert_nantais","tôle larmée","0","tambour","0","2","Loire, Sèvre et Vignoble","440109","Nantes","[ 47.1954423180358 , -1.52945936590272]"
"TS5181","ts_ent","Gde Grèneraie - Clos toreau","9","rue de Biarritz","biarritz","5.0","5.0","kinshofer","vert_nantais","tôle larmée","0","tambour","0","2","Loire, Sèvre et Vignoble","440109","Nantes","[ 47.1950620248978 , -1.5292608308418]"
"TS5182","ts_ent","Gde Grèneraie - Clos toreau","9","rue de Biarritz","biarritz","5.0","5.0","kinshofer","vert_nantais","tôle larmée","0","tambour","0","2","Loire, Sèvre et Vignoble","440109","Nantes","[ 47.195067779825 , -1.52924307990858]"
"TS5185","ts_ent","Dervallières - Chézine","25","Rue Louis le Nain","Nain","0.0","0.0","","","","0","","0","8","Nantes-Ouest","440109","Nantes","[ 47.2259886601609 , -1.59896997392753]"
"TS5186","ts_ent","Dervallières - Chézine","8","Rue Louis le Nain","Nain","0.0","0.0","","","","0","","0","8","Nantes-Ouest","440109","Nantes","[ 47.2271175497606 , -1.59869853090687]"
"TS5187","ts_ent","Dervallières - Chézine","5","Rue Louis le Nain","Nain","0.0","0.0","","","","0","","0","8","Nantes-Ouest","440109","Nantes","[ 47.2273815327728 , -1.59855282661124]"
"TS5188","ts_ent","Dervallières - Chézine","31","Rue Louis le Nain","Nain","0.0","0.0","","","","0","","0","8","Nantes-Ouest","440109","Nantes","[ 47.2255967499735 , -1.59814738973523]"
"TS5197","ts_ent","Dervallières - Chézine","15","Rue Jean Marc Nattier","Nattier","5.0","5.0","kinshofer","gris RAL 9007","tôle","0","tambour_80l","0","8","Nantes-Ouest","440109","Nantes","[ 47.225418127506 , -1.590311835444]"
"TS5198","ts_ent","Dervallières - Chézine","7","Rue Jean Marc Nattier","Nattier","5.0","5.0","kinshofer","gris RAL 9007","tôle","0","tambour_80l","0","8","Nantes-Ouest","440109","Nantes","[ 47.2250793211712 , -1.58962501031564]"
"TS5199","ts_ent","Dervallières - Chézine","3","Rue Jean Marc Nattier","Nattier","5.0","5.0","kinshofer","gris RAL 9007","tôle","0","tambour_80l","0","8","Nantes-Ouest","440109","Nantes","[ 47.2248913108918 , -1.58923706475083]"
"TS5200","ts_ent","Dervallières - Chézine","20","Rue Ernest Meissonnier","Meissonnier","5.0","5.0","kinshofer","gris RAL 9007","tôle","0","tambour_80l","0","8","Nantes-Ouest","440109","Nantes","[ 47.2243121059919 , -1.58939754874893]"
"TS5201","ts_ent","Dervallières - Chézine","20","Rue Ernest Meissonnier","Meissonnier","5.0","5.0","kinshofer","gris RAL 9007","tôle","0","tambour_80l","0","8","Nantes-Ouest","440109","Nantes","[ 47.2243216274855 , -1.58942096877908]"
"TS5202","ts_ent","Dervallières - Chézine","14","Rue Ernest Meissonnier","Meissonnier","5.0","5.0","kinshofer","gris RAL 9007","tôle","0","tambour_80l","0","8","Nantes-Ouest","440109","Nantes","[ 47.2240085057641 , -1.58973730017062]"
"TS5209","ts_ent","Dervallières - Chézine","0","Rue Auguste Lepère","Lepère","5.0","5.0","","","","0","","0","8","Nantes-Ouest","440109","Nantes","[ 47.2276088032832 , -1.59863619523978]"
"TS5203","ts_ent","Dervallières - Chézine","8","Rue Ernest Meissonnier","Meissonnier","5.0","5.0","kinshofer","gris RAL 9007","tôle","0","tambour_80l","0","8","Nantes-Ouest","440109","Nantes","[ 47.2240467463485 , -1.59012939829511]"
"TS5204","ts_ent","Dervallières - Chézine","6","Rue Ernest Meissonnier","Meissonnier","5.0","5.0","kinshofer","gris RAL 9007","tôle","0","tambour_80l","0","8","Nantes-Ouest","440109","Nantes","[ 47.223963368527 , -1.59082006658036]"
"TS5205","ts_ent","Dervallières - Chézine","6","Rue Ernest Meissonnier","Meissonnier","5.0","5.0","kinshofer","gris RAL 9007","tôle","0","tambour_80l","0","8","Nantes-Ouest","440109","Nantes","[ 47.2239739705414 , -1.5908420512831]"
"TS5206","ts_ent","Dervallières - Chézine","8","Rue Nicolas Lancret","Lancret","5.0","5.0","kinshofer","gris RAL 9007","tôle","0","tambour_80l","0","8","Nantes-Ouest","440109","Nantes","[ 47.2231755655689 , -1.59113638508996]"
"TS5207","ts_ent","Dervallières - Chézine","3","Rue Nicolas Lancret","Lancret","5.0","5.0","kinshofer","gris RAL 9007","tôle","0","tambour_80l","0","8","Nantes-Ouest","440109","Nantes","[ 47.2227025793583 , -1.59178329172087]"
"TS5208","ts_ent","Dervallières - Chézine","3","Rue Nicolas Lancret","Lancret","5.0","5.0","kinshofer","gris RAL 9007","tôle","0","tambour_80l","0","8","Nantes-Ouest","440109","Nantes","[ 47.2227141590391 , -1.59180686260324]"
"TS5210","ts_ent","Dervallières - Chézine","7","Rue Louis le Nain","Nain","5.0","5.0","","","","0","","0","8","Nantes-Ouest","440109","Nantes","[ 47.2267610539747 , -1.59919644686488]"
"TS5211","ts_ent","Dervallières - Chézine","12","Rue Louis le Nain","Nain","5.0","5.0","","","","0","","0","8","Nantes-Ouest","440109","Nantes","[ 47.226687460659 , -1.5991455884886]"
"TS5212","ts_ent","Dervallières - Chézine","10","Rue Louis le Nain","Nain","5.0","5.0","","","","0","","0","8","Nantes-Ouest","440109","Nantes","[ 47.2270189832495 , -1.59880489525567]"
"TS5214","ts_ent","Gde Grèneraie - Clos toreau","10","Rue Emilienne Leroux","Leroux","5.0","5.0","","","","0","","0","2","Loire, Sèvre et Vignoble","440109","Nantes","[ 47.1962102489588 , -1.53142084796605]"
"TS5215","ts_ent","Gde Grèneraie - Clos toreau","10","Rue Emilienne Leroux","Leroux","5.0","5.0","","","","0","","0","2","Loire, Sèvre et Vignoble","440109","Nantes","[ 47.1962001226906 , -1.5314458527506]"
"TS5216","ts_ent","Gde Grèneraie - Clos toreau","8","Rue Emilienne Leroux","Leroux","5.0","5.0","","","","0","","0","2","Loire, Sèvre et Vignoble","440109","Nantes","[ 47.1967597444686 , -1.5322962462785]"
"TS5217","ts_ent","Gde Grèneraie - Clos toreau","8","Rue Emilienne Leroux","Leroux","5.0","5.0","","","","0","","0","2","Loire, Sèvre et Vignoble","440109","Nantes","[ 47.1967578225921 , -1.53226128695717]"
"TS5218","ts_ent","Gde Grèneraie - Clos toreau","8","Rue Emilienne Leroux","Leroux","5.0","5.0","","","","0","","0","2","Loire, Sèvre et Vignoble","440109","Nantes","[ 47.1967556978787 , -1.53223236870086]"
"TS5221","ts_ent","Gde Grèneraie - Clos toreau","4","Rue Emilienne Leroux","Leroux","0.0","0.0","","","","0","","0","2","Loire, Sèvre et Vignoble","440109","Nantes","[ 47.1968757643933 , -1.53283602322277]"
"TS5222","ts_ent","Decré - Cathédrale","0","Allée de la Tremperie","Tremperie","5.0","5.0","kinshofer","","","0","","0","9","Nantes-Loire","440109","Nantes","[ 47.2144100983114 , -1.55372336489783]"
"TS5223","ts_ent","Decré - Cathédrale","0","Allée de la Tremperie","Tremperie","5.0","5.0","kinshofer","","","0","","0","9","Nantes-Loire","440109","Nantes","[ 47.2144150825686 , -1.55369798156453]"
"TS5224","ts_ent","Decré - Cathédrale","0","Allée de la Tremperie","Tremperie","5.0","5.0","kinshofer","","","0","","0","9","Nantes-Loire","440109","Nantes","[ 47.2144210961825 , -1.55367267304966]"
"TS5225","ts_ent","Decré - Cathédrale","0","Allée du Port Maillard","Maillard","5.0","5.0","kinshofer","","","0","","0","9","Nantes-Loire","440109","Nantes","[ 47.2148163830644 , -1.55183559185543]"
"TS5226","ts_ent","Decré - Cathédrale","0","Allée du Port Maillard","Maillard","5.0","5.0","kinshofer","","","0","","0","9","Nantes-Loire","440109","Nantes","[ 47.2148213669064 , -1.55181020815499]"
"TS5227","ts_ent","Decré - Cathédrale","0","Allée du Port Maillard","Maillard","5.0","5.0","kinshofer","","","0","","0","9","Nantes-Loire","440109","Nantes","[ 47.2148263507429 , -1.55178482444983]"
"TS5228","ts_ent","Decré - Cathédrale","0","Allée du Port Maillard","Maillard","5.0","5.0","kinshofer","","","0","","0","9","Nantes-Loire","440109","Nantes","[ 47.2148322620107 , -1.55176253704007]"
"TS5229","ts_ent","Gde Grèneraie - Clos toreau","119","Rue Bonne Garde","Garde","5.0","5.0","","","","0","","0","2","Loire, Sèvre et Vignoble","440109","Nantes","[ 47.1968187649531 , -1.53382655699749]"
"TS5230","ts_ent","Dervallières - Chézine","44","Rue Georges de la Tour","Tour","5.0","5.0","kinshofer","gris RAL 9007","tôle","0","Trappe","0","8","Nantes-Ouest","440109","Nantes","[ 47.2253448212357 , -1.59951187754468]"
"TS5231","ts_ent","Dervallières - Chézine","44","Rue Georges de la Tour","Tour","5.0","5.0","kinshofer","gris RAL 9007","tôle","0","Trappe","0","8","Nantes-Ouest","440109","Nantes","[ 47.2253398269124 , -1.59953726178776]"
"TS5232","ts_ent","Dervallières - Chézine","30","Rue Georges de la Tour","Tour","5.0","5.0","kinshofer","gris RAL 9007","tôle","0","Trappe","0","8","Nantes-Ouest","440109","Nantes","[ 47.2252136251716 , -1.60078525806129]"
"TS5233","ts_ent","Dervallières - Chézine","30","Rue Georges de la Tour","Tour","5.0","5.0","kinshofer","gris RAL 9007","tôle","0","Trappe","0","8","Nantes-Ouest","440109","Nantes","[ 47.2251997278677 , -1.60079938338338]"
"TS5234","ts_ent","Dervallières - Chézine","4","Rue Claude Lorrain","Lorrain","5.0","5.0","kinshofer","gris RAL 9007","tôle","0","Trappe","0","8","Nantes-Ouest","440109","Nantes","[ 47.2243951962788 , -1.60287298177548]"
"TS5235","ts_ent","Dervallières - Chézine","4","Rue Claude Lorrain","Lorrain","5.0","5.0","kinshofer","gris RAL 9007","tôle","0","Trappe","0","8","Nantes-Ouest","440109","Nantes","[ 47.2243812987173 , -1.60288710634277]"
"TS5236","ts_ent","Dervallières - Chézine","4","Rue Claude Lorrain","Lorrain","5.0","5.0","kinshofer","gris RAL 9007","tôle","0","Trappe","0","8","Nantes-Ouest","440109","Nantes","[ 47.2243908690894 , -1.60290901772968]"
"TS5237","ts_ent","Dervallières - Chézine","4","Rue Claude Lorrain","Lorrain","5.0","5.0","kinshofer","gris RAL 9007","tôle","0","Trappe","0","8","Nantes-Ouest","440109","Nantes","[ 47.2244057959785 , -1.60289496894564]"
"TS5238","ts_ent","Dervallières - Chézine","6","Rue Amédée de la Patellière","Patellière","5.0","5.0","kinshofer","gris RAL 9007","tôle","0","Trappe","0","8","Nantes-Ouest","440109","Nantes","[ 47.223594962682 , -1.60116602240615]"
"TS5239","ts_ent","Dervallières - Chézine","6","Rue Amédée de la Patellière","Patellière","5.0","5.0","kinshofer","gris RAL 9007","tôle","0","Trappe","0","8","Nantes-Ouest","440109","Nantes","[ 47.2235810137141 , -1.60118165815388]"
"TS5240","ts_ent","Dervallières - Chézine","3","Rue Amédée de la Patellière","Patellière","5.0","5.0","kinshofer","gris RAL 9007","tôle","0","Trappe","0","8","Nantes-Ouest","440109","Nantes","[ 47.223425063495 , -1.60124591926301]"
"TS5241","ts_ent","Dervallières - Chézine","3","Rue Amédée de la Patellière","Patellière","5.0","5.0","kinshofer","gris RAL 9007","tôle","0","Trappe","0","8","Nantes-Ouest","440109","Nantes","[ 47.2234119890042 , -1.60126616352179]"
"TS5242","ts_ent","Dervallières - Chézine","6","Rue Charles Perron","Perron","5.0","5.0","kinshofer","gris RAL 9007","tôle","0","Trappe","0","8","Nantes-Ouest","440109","Nantes","[ 47.2244110931801 , -1.60035357281434]"
"TS5243","ts_ent","Dervallières - Chézine","6","Rue Charles Perron","Perron","5.0","5.0","kinshofer","gris RAL 9007","tôle","0","Trappe","0","8","Nantes-Ouest","440109","Nantes","[ 47.2243961149983 , -1.60036913327857]"
"TS5244","ts_ent","Dervallières - Chézine","5","Rue Charles Perron","Perron","5.0","5.0","kinshofer","gris RAL 9007","tôle","0","Trappe","0","8","Nantes-Ouest","440109","Nantes","[ 47.2242797386636 , -1.60048326709402]"
"TS5245","ts_ent","Dervallières - Chézine","5","Rue Charles Perron","Perron","5.0","5.0","kinshofer","gris RAL 9007","tôle","0","Trappe","0","8","Nantes-Ouest","440109","Nantes","[ 47.2242681607785 , -1.60045969374824]"
"TS5246","ts_ent","Dervallières - Chézine","3","Rue Henry Ottmann","Ottmann","5.0","5.0","kinshofer","gris RAL 9007","tôle","0","Trappe","0","8","Nantes-Ouest","440109","Nantes","[ 47.2227346809114 , -1.60185099076107]"
"TS5247","ts_ent","Dervallières - Chézine","3","Rue Henry Ottmann","Ottmann","5.0","5.0","kinshofer","gris RAL 9007","tôle","0","Trappe","0","8","Nantes-Ouest","440109","Nantes","[ 47.2227248522317 , -1.60183663486122]"
"TS5248","ts_ent","Mendes France","8","Rue Jean Olivesi","Olivesi","5.0","5.0","kinshofer","gris RAL 9007","tôle","0","Trappe","0","8","Nantes-Ouest","440109","Nantes","[ 47.2100341463026 , -1.6070329962626]"
"TS5249","ts_ent","Mendes France","6","Rue Jean Olivesi","Olivesi","5.0","5.0","kinshofer","gris RAL 9007","tôle","0","Trappe","0","8","Nantes-Ouest","440109","Nantes","[ 47.2098804156953 , -1.60667033656599]"
"TS5250","ts_ent","Mendes France","2","Rue Jean Olivesi","Olivesi","5.0","5.0","kinshofer","gris RAL 9007","tôle","0","Trappe","0","8","Nantes-Ouest","440109","Nantes","[ 47.2096635068405 , -1.6061334167097]"
"TS5251","ts_ent","Mendes France","4","rue Lucien Aubert","Aubert","5.0","5.0","kinshofer","gris RAL 9007","tôle","0","Trappe","0","8","Nantes-Ouest","440109","Nantes","[ 47.2064329751142 , -1.60793064544827]"
"TS5252","ts_ent","Mendes France","8","rue Lucien Aubert","Aubert","5.0","5.0","kinshofer","gris RAL 9007","tôle","0","Trappe","0","8","Nantes-Ouest","440109","Nantes","[ 47.206695542244 , -1.60770619535504]"
"TS5253","ts_ent","Mendes France","12","rue Lucien Aubert","Aubert","5.0","5.0","kinshofer","gris RAL 9007","tôle","0","Trappe","0","8","Nantes-Ouest","440109","Nantes","[ 47.2070167896371 , -1.60742549533992]"
"TS5254","ts_ent","Lauriers","7","Rue de l'Aveyron","Aveyron","5.0","5.0","kinshofer","gris RAL 9007","tôle","0","Trappe","0","8","Nantes-Ouest","440109","Nantes","[ 47.2068821949213 , -1.60713695018851]"
"TS5255","ts_ent","Lauriers","3","Rue de l'Aveyron","Aveyron","5.0","5.0","kinshofer","gris RAL 9007","tôle","0","Trappe","0","8","Nantes-Ouest","440109","Nantes","[ 47.2066319110401 , -1.60748496513486]"
"TS5256","ts_ent","Lauriers","1","Rue de l'Ariège","Ariège","5.0","5.0","kinshofer","gris RAL 9007","tôle","0","Trappe","0","8","Nantes-Ouest","440109","Nantes","[ 47.2062171392802 , -1.60748317517014]"
"TS5257","ts_ent","Lauriers","1","Rue de l'Ariège","Ariège","5.0","5.0","kinshofer","gris RAL 9007","tôle","0","Trappe","0","8","Nantes-Ouest","440109","Nantes","[ 47.206018752994 , -1.60700822326334]"
"TS5258","ts_ent","Mendes France","19","Rue Romain Rolland","Rolland","5.0","5.0","kinshofer","gris RAL 9007","tôle","0","Trappe","0","8","Nantes-Ouest","440109","Nantes","[ 47.2063924384252 , -1.6094161860968]"
"TS5259","ts_ent","Mendes France","19","Rue Romain Rolland","Rolland","5.0","5.0","kinshofer","gris RAL 9007","tôle","0","Trappe","0","8","Nantes-Ouest","440109","Nantes","[ 47.2063840019883 , -1.6093913358483]"
"TS5260","ts_ent","Mendes France","19","Rue Romain Rolland","Rolland","5.0","5.0","kinshofer","gris RAL 9007","tôle","0","Trappe","0","8","Nantes-Ouest","440109","Nantes","[ 47.2063691259577 , -1.60940386766281]"
"TS5261","ts_ent","Mendes France","19","Rue Romain Rolland","Rolland","5.0","5.0","kinshofer","gris RAL 9007","tôle","0","Trappe","0","8","Nantes-Ouest","440109","Nantes","[ 47.2063765847849 , -1.60942713156856]"
"TS5262","ts_ent","Mendes France","4","Rue Etienne Coutan","Coutan","5.0","5.0","kinshofer","gris RAL 9007","tôle","0","Trappe","0","8","Nantes-Ouest","440109","Nantes","[ 47.2053516224758 , -1.60813866780521]"
"TS5263","ts_ent","St Joseph de Porterie","1","Rue de la Planche au Gué","Gué","5.0","5.0","Kinshofer","","stabilité avec réser","0","Trappe","0","4","Erdre et Loire","440109","Nantes","[ 47.2688032824979 , -1.5217421112589]"
"TS5264","ts_ent","St Joseph de Porterie","1","Rue de la Planche au Gué","Gué","5.0","5.0","Kinshofer","","stabilité avec réser","0","Trappe","0","4","Erdre et Loire","440109","Nantes","[ 47.2687852596227 , -1.52172565106401]"
"TS5265","ts_ent","Mendes France","2","Rue du Lot","Lot","5.0","5.0","kinshofer","gris RAL 9007","tôle","0","Trappe","0","8","Nantes-Ouest","440109","Nantes","[ 47.2097700931418 , -1.60416351105103]"
"TS5266","ts_ent","Mendes France","2","Rue du Lot","Lot","5.0","5.0","kinshofer","gris RAL 9007","tôle","0","Trappe","0","8","Nantes-Ouest","440109","Nantes","[ 47.2097806926531 , -1.60418549249518]"
"TS5267","ts_ent","Mendes France","2","Rue du Lot","Lot","5.0","5.0","kinshofer","gris RAL 9007","tôle","0","Trappe","0","8","Nantes-Ouest","440109","Nantes","[ 47.2097637068915 , -1.60419938553094]"
"TS5268","ts_ent","Mendes France","2","Rue du Lot","Lot","5.0","5.0","kinshofer","gris RAL 9007","tôle","0","Trappe","0","8","Nantes-Ouest","440109","Nantes","[ 47.2097541367114 , -1.60417747987501]"
"TS5269","ts_ent","Mendes France","2","Rue du Lot","Lot","5.0","5.0","kinshofer","gris RAL 9007","tôle","0","Trappe","0","8","Nantes-Ouest","440109","Nantes","[ 47.2097466694775 , -1.60421478911569]"
"TS5270","ts_ent","Mendes France","36","Rue de l'Adour","Adour","5.0","5.0","kinshofer","gris RAL 9007","tôle","0","Trappe","0","8","Nantes-Ouest","440109","Nantes","[ 47.2071633575895 , -1.60974559005256]"
"TS5271","ts_ent","Mendes France","28","Rue de l'Adour","Adour","5.0","5.0","kinshofer","gris RAL 9007","tôle","0","Trappe","0","8","Nantes-Ouest","440109","Nantes","[ 47.2069200206344 , -1.60913707860112]"
"TS5272","ts_ent","Bout des Pavés-Chêne des Angla","7","Rue d'Ottawa","Ottawa","5.0","5.0","kinshofer","gris RAL 9007","tôle","0","Trappe","0","6","Erdre et Cens","440109","Nantes","[ 47.2578855169713 , -1.57586713084477]"
"TS5273","ts_ent","Bout des Pavés-Chêne des Angla","7","Rue d'Ottawa","Ottawa","5.0","5.0","kinshofer","gris RAL 9007","tôle","0","Trappe","0","6","Erdre et Cens","440109","Nantes","[ 47.2578983342087 , -1.5758847412708]"
"TS5274","ts_ent","Bout des Pavés-Chêne des Angla","11","Rue d'Ottawa","Ottawa","5.0","5.0","kinshofer","gris RAL 9007","tôle","0","Trappe","0","6","Erdre et Cens","440109","Nantes","[ 47.258208705628 , -1.57613480529625]"
"TS5275","ts_ent","Bout des Pavés-Chêne des Angla","11","Rue de Montréal","Montréal","5.0","5.0","kinshofer","gris RAL 9007","tôle","0","Trappe","0","6","Erdre et Cens","440109","Nantes","[ 47.257503406895 , -1.57742761483641]"
"TS5276","ts_ent","Bout des Pavés-Chêne des Angla","11","Rue de Montréal","Montréal","5.0","5.0","kinshofer","gris RAL 9007","tôle","0","Trappe","0","6","Erdre et Cens","440109","Nantes","[ 47.257521008141 , -1.57742587172896]"
"TS5277","ts_ent","Bout des Pavés-Chêne des Angla","11","Rue de Montréal","Montréal","5.0","5.0","kinshofer","gris RAL 9007","tôle","0","Trappe","0","6","Erdre et Cens","440109","Nantes","[ 47.2575210048298 , -1.57739555771693]"
"TS5282","ts_ent","Haluchère-Perray","8","Rue René Dumont","Dumont","5.0","5.0","Kinshofer","","acier galvanisé stri","0","simple tambour","0","4","Erdre et Loire","440109","Nantes","[ 47.2401981301988 , -1.51544707695876]"
"TS5283","ts_ent","Haluchère-Perray","8","Rue René Dumont","Dumont","5.0","5.0","Kinshofer","","acier galvanisé stri","0","simple tambour","0","4","Erdre et Loire","440109","Nantes","[ 47.2401854046081 , -1.51542646376362]"
"TS5284","ts_ent","Breil-Malville","51","Rue du Breil","Breil","5.0","5.0","kinshofer","gris RAL 9007","tôle","0","Trappe","0","8","Nantes-Ouest","440109","Nantes","[ 47.2295263928951 , -1.58645493116292]"
"TS5285","ts_ent","Breil-Malville","57","Rue du Breil","Breil","5.0","5.0","kinshofer","gris RAL 9007","tôle","0","Trappe","0","8","Nantes-Ouest","440109","Nantes","[ 47.2299271326751 , -1.58717208733928]"
"TS5286","ts_ent","Haluchère-Perray","8","Rue René Dumont","Dumont","5.0","5.0","Kinshofer","","acier galvanisé stri","0","simple tambour","0","4","Erdre et Loire","440109","Nantes","[ 47.2402119356551 , -1.51546625278533]"
"TS5287","ts_ent","Gde Grèneraie - Clos toreau","31","Boulevard Emile Gabory","Gabory","5.0","5.0","kinshofer","","","0","","0","2","Loire, Sèvre et Vignoble","440109","Nantes","[ 47.19459576979 , -1.52904095206893]"
"TS5288","ts_ent","Gde Grèneraie - Clos toreau","31","Boulevard Emile Gabory","Gabory","5.0","5.0","kinshofer","","","0","","0","2","Loire, Sèvre et Vignoble","440109","Nantes","[ 47.194579704968 , -1.52902768099756]"
"TS5289","ts_ent","Gde Grèneraie - Clos toreau","31","Boulevard Emile Gabory","Gabory","5.0","5.0","kinshofer","","","0","","0","2","Loire, Sèvre et Vignoble","440109","Nantes","[ 47.1939364359773 , -1.52848619902338]"
"TS5290","ts_ent","Gde Grèneraie - Clos toreau","31","Boulevard Emile Gabory","Gabory","5.0","5.0","kinshofer","","","0","","0","2","Loire, Sèvre et Vignoble","440109","Nantes","[ 47.1939203204304 , -1.52847443847126]"
"TS5291","ts_ent","Breil-Malville","7","Rue Charles Dullin","Dullin","0.0","0.0","","0","0","0","","0","8","Nantes-Ouest","440109","Nantes","[ 47.2324526384109 , -1.58676494461316]"
"TS5292","ts_ent","Breil-Malville","7","Rue Charles Dullin","Dullin","0.0","0.0","","0","0","0","","0","8","Nantes-Ouest","440109","Nantes","[ 47.2324386914271 , -1.58678058674278]"
"TS5293","ts_ent","Breil-Malville","0","Rue Maurice Tourneur","Tourneur","0.0","0.0","","0","0","0","","0","8","Nantes-Ouest","440109","Nantes","[ 47.2321473068516 , -1.58751973982156]"
"TS5294","ts_ent","Breil-Malville","0","Rue Maurice Tourneur","Tourneur","0.0","0.0","","0","0","0","","0","8","Nantes-Ouest","440109","Nantes","[ 47.2321343376654 , -1.58753696837234]"
"TS5295","ts_ent","Breil-Malville","0","Allée Jacques Becker","Becker","0.0","0.0","","0","0","0","","0","8","Nantes-Ouest","440109","Nantes","[ 47.2317613170092 , -1.58797622030196]"
"TS5296","ts_ent","Breil-Malville","0","Allée Jacques Becker","Becker","0.0","0.0","","0","0","0","","0","8","Nantes-Ouest","440109","Nantes","[ 47.2317483991923 , -1.58799193742074]"
"TS5297","ts_ent","Breil-Malville","65","Rue des Plantes","Plantes","0.0","0.0","","0","0","0","","0","8","Nantes-Ouest","440109","Nantes","[ 47.2313326553477 , -1.58817050580116]"
"TS5298","ts_ent","Breil-Malville","65","Rue des Plantes","Plantes","0.0","0.0","","0","0","0","","0","8","Nantes-Ouest","440109","Nantes","[ 47.2313475289751 , -1.58815796223536]"
"TS5299","ts_ent","Breil-Malville","2","Allée Henri Chrétien","Chrétien","0.0","0.0","","0","0","0","","0","8","Nantes-Ouest","440109","Nantes","[ 47.2312005876806 , -1.58792751466323]"
"TS5300","ts_ent","Breil-Malville","2","Allée Henri Chrétien","Chrétien","0.0","0.0","","0","0","0","","0","8","Nantes-Ouest","440109","Nantes","[ 47.2312145348239 , -1.58791187319215]"
"TS5301","ts_ent","Breil-Malville","14","Allée Henri Chrétien","Chrétien","0.0","0.0","","0","0","0","","0","8","Nantes-Ouest","440109","Nantes","[ 47.2309527665356 , -1.5874775764112]"
"TS5302","ts_ent","Breil-Malville","14","Allée Henri Chrétien","Chrétien","0.0","0.0","","0","0","0","","0","8","Nantes-Ouest","440109","Nantes","[ 47.2309645013569 , -1.5874966164575]"
"TS5303","ts_ent","Breil-Malville","13","rue Louis Jouvet","Jouvet","0.0","0.0","","0","0","0","","0","8","Nantes-Ouest","440109","Nantes","[ 47.2312935118856 , -1.58689506982806]"
"TS5304","ts_ent","Breil-Malville","13","rue Louis Jouvet","Jouvet","0.0","0.0","","0","0","0","","0","8","Nantes-Ouest","440109","Nantes","[ 47.2312828063001 , -1.58687610527967]"
"TS5305","ts_ent","Breil-Malville","7","rue Louis Jouvet","Jouvet","0.0","0.0","","0","0","0","","0","8","Nantes-Ouest","440109","Nantes","[ 47.2316730120274 , -1.58641690046442]"
"TS5306","ts_ent","Breil-Malville","7","rue Louis Jouvet","Jouvet","0.0","0.0","","0","0","0","","0","8","Nantes-Ouest","440109","Nantes","[ 47.2316623577822 , -1.58639642468034]"
"TS5307","ts_ent","Gde Grèneraie - Clos toreau","8","rue de saint jean de luz","Luz","5.0","5.0","kinshofer","Vert RAL 6012","aluminium","0","tambour","0","2","Loire, Sèvre et Vignoble","440109","Nantes","[ 47.1942563725965 , -1.52746928121103]"
"TS5308","ts_ent","Gde Grèneraie - Clos toreau","8","rue de saint jean de luz","Luz","5.0","5.0","kinshofer","Vert RAL 6012","aluminium","0","tambour","0","2","Loire, Sèvre et Vignoble","440109","Nantes","[ 47.1942592923138 , -1.52744375643201]"
"TS5312","ts_ent","Bout des Landes","1","Rue de Pont Aven","Aven","5.0","5.0","Kinshofer","Gris RAL 9007","tôle larmée","0","Trappe","0","6","Erdre et Cens","440109","Nantes","[ 47.2656724385377 , -1.57500590550138]"
"TS5313","ts_ent","Bout des Landes","1","Rue de Pont Aven","Aven","5.0","5.0","Kinshofer","Gris RAL 9007","tôle larmée","0","Trappe","0","6","Erdre et Cens","440109","Nantes","[ 47.2655773685349 , -1.57452295353633]"
"TS5314","ts_ent","Bout des Landes","2","Rue de Concarneau","Concarneau","5.0","5.0","Kinshofer","Gris RAL 9007","tôle larmée","0","Trappe","0","6","Erdre et Cens","440109","Nantes","[ 47.2643391480194 , -1.57850706714485]"
"TS5315","ts_ent","Bout des Landes","6","Rue de Douarnenez","Douarnenez","5.0","5.0","Kinshofer","Gris RAL 9007","tôle larmée","0","Trappe","0","6","Erdre et Cens","440109","Nantes","[ 47.2648745801656 , -1.57598592426578]"
"TS5316","ts_ent","Bout des Landes","6","Rue de Douarnenez","Douarnenez","5.0","5.0","Kinshofer","Gris RAL 9007","tôle larmée","0","Trappe","0","6","Erdre et Cens","440109","Nantes","[ 47.2648850309924 , -1.57601245922499]"
"TS5317","ts_ent","Bout des Landes","7","Rue de Concarneau","Concarneau","4.0","0.0","","","","0","","0","6","Erdre et Cens","440109","Nantes","[ 47.265484660645 , -1.578838039294]"
"TS5318","ts_ent","Bout des Landes","7","Rue de Douarnenez","Douarnenez","5.0","5.0","Kinshofer","Gris RAL 9007","tôle larmée","0","Trappe","0","6","Erdre et Cens","440109","Nantes","[ 47.2649241305513 , -1.5763200155451]"
"TS5319","ts_ent","Bout des Landes","7","Rue de Concarneau","Concarneau","5.0","5.0","Kinshofer","Gris RAL 9007","tôle larmée","0","Trappe","0","6","Erdre et Cens","440109","Nantes","[ 47.2654621180609 , -1.57883335668746]"
"TS5320","ts_ent","Bout des Landes","13","Rue de Douarnenez","Douarnenez","5.0","5.0","Kinshofer","Gris RAL 9007","tôle larmée","0","Trappe","0","6","Erdre et Cens","440109","Nantes","[ 47.2655243682649 , -1.57712038340412]"
"TS5321","ts_ent","Bout des Landes","10","Rue de Concarneau","Concarneau","5.0","5.0","Kinshofer","Gris RAL 9007","tôle larmée","0","Trappe","0","6","Erdre et Cens","440109","Nantes","[ 47.2656458437517 , -1.57773715823046]"
"TS5322","ts_ent","Bout des Landes","5","Rue de Pont Aven","Aven","5.0","5.0","Kinshofer","Gris RAL 9007","tôle larmée","0","Trappe","0","6","Erdre et Cens","440109","Nantes","[ 47.2658404802185 , -1.57586256746999]"
"TS5324","ts_ent","Bout des Landes","2","Rue de Douarnenez","Douarnenez","5.0","5.0","Kinshofer","Gris RAL 9007","tôle larmée","0","Trappe","0","6","Erdre et Cens","440109","Nantes","[ 47.2646067687382 , -1.57530236872672]"
"TS5325","ts_ent","Dervallières - Chézine","10","rue Jacques Callot","Callot","5.0","5.0","Kinshofer","gris RAL 9007","tôle larmée","0","Trappe 80l","0","8","Nantes-Ouest","440109","Nantes","[ 47.2245415020348 , -1.5985287717422]"
"TS5326","ts_ent","Dervallières - Chézine","10","rue Jacques Callot","Callot","5.0","5.0","Kinshofer","gris RAL 9007","tôle larmée","0","Trappe 80l","0","8","Nantes-Ouest","440109","Nantes","[ 47.2245554506331 , -1.59851313496376]"
"TS5327","ts_ent","Dervallières - Chézine","10","rue Jacques Callot","Callot","5.0","5.0","Kinshofer","gris RAL 9007","tôle larmée","0","Trappe 80l","0","8","Nantes-Ouest","440109","Nantes","[ 47.2245704285572 , -1.59849757387359]"
"TS5328","ts_ent","Dervallières - Chézine","34","Rue Antoine Watteau","Watteau","5.0","5.0","Kinshofer","gris RAL 9007","tôle larmée","0","Trappe","0","8","Nantes-Ouest","440109","Nantes","[ 47.2246319810801 , -1.59920344393247]"
"TS5329","ts_ent","Dervallières - Chézine","34","Rue Antoine Watteau","Watteau","5.0","5.0","Kinshofer","gris RAL 9007","tôle larmée","0","Trappe","0","8","Nantes-Ouest","440109","Nantes","[ 47.2246468043423 , -1.59919241597466]"
"TS5330","ts_ent","Dervallières - Chézine","34","Rue Antoine Watteau","Watteau","5.0","5.0","Kinshofer","gris RAL 9007","tôle larmée","0","Trappe","0","8","Nantes-Ouest","440109","Nantes","[ 47.2246393434922 , -1.59916914548924]"
"TS5331","ts_ent","Dervallières - Chézine","12","Rue Edmond Bertreux","Bertreux","5.0","5.0","Kinshofer","gris RAL 9007","tôle larmée","0","Trappe 80l","0","8","Nantes-Ouest","440109","Nantes","[ 47.2238083220646 , -1.59902774075761]"
"TS5332","ts_ent","Dervallières - Chézine","12","Rue Edmond Bertreux","Bertreux","5.0","5.0","Kinshofer","gris RAL 9007","tôle larmée","0","Trappe 80l","0","8","Nantes-Ouest","440109","Nantes","[ 47.2238114593033 , -1.59905675189534]"
"TS5333","ts_ent","Dervallières - Chézine","12","Rue Edmond Bertreux","Bertreux","5.0","5.0","Kinshofer","gris RAL 9007","tôle larmée","0","Trappe 80l","0","8","Nantes-Ouest","440109","Nantes","[ 47.2238253048099 , -1.5990441373953]"
"TS5334","ts_ent","Dervallières - Chézine","2","rue Jacques Callot","Callot","5.0","5.0","Kinshofer","gris RAL 9007","tôle larmée","0","Trappe 80l","0","8","Nantes-Ouest","440109","Nantes","[ 47.2242119013936 , -1.59790619951588]"
"TS5335","ts_ent","Dervallières - Chézine","2","rue Jacques Callot","Callot","5.0","5.0","Kinshofer","gris RAL 9007","tôle larmée","0","Trappe 80l","0","8","Nantes-Ouest","440109","Nantes","[ 47.2242268792375 , -1.59789063835598]"
"TS5336","ts_ent","Dervallières - Chézine","10","Rue Honoré Daumier","Daumier","5.0","5.0","Kinshofer","gris RAL 9007","tôle larmée","0","Trappe 80l","0","8","Nantes-Ouest","440109","Nantes","[ 47.2235742830012 , -1.59705649991384]"
"TS5337","ts_ent","Dervallières - Chézine","10","Rue Honoré Daumier","Daumier","5.0","5.0","Kinshofer","gris RAL 9007","tôle larmée","0","Trappe 80l","0","8","Nantes-Ouest","440109","Nantes","[ 47.2235871505186 , -1.59704229832708]"
"TS5338","ts_ent","Dervallières - Chézine","2","Rue Honoré Daumier","Daumier","5.0","5.0","Kinshofer","gris RAL 9007","tôle larmée","0","Trappe 80l","0","8","Nantes-Ouest","440109","Nantes","[ 47.2233077178342 , -1.59649159753616]"
"TS5339","ts_ent","Dervallières - Chézine","2","Rue Honoré Daumier","Daumier","5.0","5.0","Kinshofer","gris RAL 9007","tôle larmée","0","Trappe 80l","0","8","Nantes-Ouest","440109","Nantes","[ 47.2233183703177 , -1.59651207213754]"
"TS5340","ts_ent","Dervallières - Chézine","5","Rue Jean Honoré Fragonard","Fragonard","5.0","5.0","Kinshofer","gris RAL 9007","tôle larmée","0","Trappe 80l","0","8","Nantes-Ouest","440109","Nantes","[ 47.222025950841 , -1.60266069627535]"
"TS5341","ts_ent","Dervallières - Chézine","8","Rue Jean Honoré Fragonard","Fragonard","5.0","5.0","Kinshofer","gris RAL 9007","tôle larmée","0","Trappe 80l","0","8","Nantes-Ouest","440109","Nantes","[ 47.2224074630798 , -1.60227677828587]"
"TS5342","ts_ent","Dervallières - Chézine","8","Rue Jean Honoré Fragonard","Fragonard","5.0","5.0","Kinshofer","gris RAL 9007","tôle larmée","0","Trappe 80l","0","8","Nantes-Ouest","440109","Nantes","[ 47.2223968116286 , -1.60225630297004]"
"TS5344","ts_ent","Lauriers","4","Rue du Jamet","Jamet","5.0","5.0","kinshofer","gris RAL 9007","Tôle","0","Trappe 80l","0","8","Nantes-Ouest","440109","Nantes","[ 47.2058161052186 , -1.60644664872487]"
"TS5345","ts_ent","Lauriers","16","Rue du Jamet","Jamet","5.0","5.0","kinshofer","gris RAL 9007","Tôle","0","Trappe 80l","0","8","Nantes-Ouest","440109","Nantes","[ 47.2063083916965 , -1.60566066546312]"
"TS5346","ts_ent","Lauriers","16","Rue du Jamet","Jamet","5.0","5.0","kinshofer","gris RAL 9007","Tôle","0","Trappe 80l","0","8","Nantes-Ouest","440109","Nantes","[ 47.2063169839481 , -1.60568098371136]"
"TS5347","ts_ent","Lauriers","20","Rue du Jamet","Jamet","5.0","5.0","kinshofer","gris RAL 9007","Tôle","0","Trappe 80l","0","8","Nantes-Ouest","440109","Nantes","[ 47.2066669282918 , -1.60552655781973]"
"TS5348","ts_ent","Lauriers","28","Rue du Jamet","Jamet","5.0","5.0","kinshofer","gris RAL 9007","Tôle","0","Trappe 80l","0","8","Nantes-Ouest","440109","Nantes","[ 47.2073803838393 , -1.60497186908831]"
"TS5349","ts_ent","Lauriers","28","Rue du Jamet","Jamet","5.0","5.0","kinshofer","gris RAL 9007","Tôle","0","Trappe 80l","0","8","Nantes-Ouest","440109","Nantes","[ 47.2073899538768 , -1.60499377391861]"
"TS5350","ts_ent","St Joseph de Porterie","46","Rue de la Planche au Gué","Gué","5.0","5.0","Kinshofer","RAL 7032","avec réservation","0","Clapet","0","4","Erdre et Loire","440109","Nantes","[ 47.2731869935103 , -1.51956909878594]"
"TS5351","ts_ent","St Joseph de Porterie","46","Rue de la Planche au Gué","Gué","5.0","5.0","Kinshofer","RAL 7032","avec réservation","0","Clapet","0","4","Erdre et Loire","440109","Nantes","[ 47.2732018089982 , -1.5195580388548]"
"TS5352","ts_ent","Beaujoire - Halvèque","14","Rue Claude et Simone Millot","Millot","0.0","0.0","","","","0","","0","4","Erdre et Loire","440109","Nantes","[ 47.2610589092307 , -1.51471112893372]"
"TS5353","ts_ent","Beaujoire - Halvèque","20","Avenue de Josselin","Josselin","0.0","0.0","","","","0","","0","4","Erdre et Loire","440109","Nantes","[ 47.2601100637559 , -1.51414109214192]"
"TS5354","ts_ent","Beaujoire - Halvèque","20","Avenue de Josselin","Josselin","0.0","0.0","","","","0","","0","4","Erdre et Loire","440109","Nantes","[ 47.2601180264669 , -1.51411893004026]"
"TS5355","ts_ent","Beaujoire - Halvèque","6","Rue Claude et Simone Millot","Millot","0.0","0.0","","","","0","","0","4","Erdre et Loire","440109","Nantes","[ 47.2606194551605 , -1.51387311660712]"
"TS5356","ts_ent","Beaujoire - Halvèque","6","Rue Claude et Simone Millot","Millot","0.0","0.0","","","","0","","0","4","Erdre et Loire","440109","Nantes","[ 47.2606098175105 , -1.51385271831311]"
"TS5357","ts_ent","Beaujoire - Halvèque","3","Rue Louis et Louise Le Paih","Paih","0.0","0.0","","","","0","","0","4","Erdre et Loire","440109","Nantes","[ 47.2607301455211 , -1.51299893936]"
"TS5358","ts_ent","St Joseph de Porterie","0","Rue Barbara","Barbara","5.0","5.0","Kinshofer","RAL 7032","avec réservation","0","Clapet","0","4","Erdre et Loire","440109","Nantes","[ 47.27169295694 , -1.52219019589521]"
"TS5359","ts_ent","St Joseph de Porterie","16","Rue de la Planche au Gué","Gué","5.0","5.0","Kinshofer","RAL 7032","avec réservation","0","Clapet","0","4","Erdre et Loire","440109","Nantes","[ 47.269768803938 , -1.52159652211754]"
"TS5360","ts_ent","St Joseph de Porterie","16","Rue de la Planche au Gué","Gué","5.0","5.0","Kinshofer","RAL 7032","avec réservation","0","Clapet","0","4","Erdre et Loire","440109","Nantes","[ 47.2697855266546 , -1.52159014901701]"
"TS5361","ts_ent","St Joseph de Porterie","0","Rue Barbara","Barbara","5.0","5.0","Kinshofer","RAL 7032","avec réservation","0","Clapet","0","4","Erdre et Loire","440109","Nantes","[ 47.2715207165696 , -1.52169414980947]"
"TS5362","ts_ent","St Joseph de Porterie","13","Rue de la Planche au Gué","Gué","5.0","5.0","Kinshofer","RAL 7032","avec réservation","0","Clapet","0","4","Erdre et Loire","440109","Nantes","[ 47.2702416517578 , -1.52155787810415]"
"TS5363","ts_ent","St Joseph de Porterie","13","Rue de la Planche au Gué","Gué","5.0","5.0","Kinshofer","RAL 7032","avec réservation","0","Clapet","0","4","Erdre et Loire","440109","Nantes","[ 47.2702594038362 , -1.52155157922026]"
"TS5364","ts_ent","St Joseph de Porterie","6","Rue du Bois Hue","Hue","5.0","5.0","Kinshofer","RAL 7032","avec réservation","0","Clapet","0","4","Erdre et Loire","440109","Nantes","[ 47.2722713525659 , -1.52152546432113]"
"TS5365","ts_ent","St Joseph de Porterie","6","Rue du Bois Hue","Hue","5.0","5.0","Kinshofer","RAL 7032","avec réservation","0","Clapet","0","4","Erdre et Loire","440109","Nantes","[ 47.2722862188137 , -1.52151289271613]"
"TS5366","ts_ent","St Joseph de Porterie","38","Rue de la Planche au Gué","Gué","5.0","5.0","Kinshofer","RAL 7032","avec réservation","0","Clapet","0","4","Erdre et Loire","440109","Nantes","[ 47.2724091788237 , -1.52014973659374]"
"TS5367","ts_ent","St Joseph de Porterie","38","Rue de la Planche au Gué","Gué","5.0","5.0","Kinshofer","RAL 7032","avec réservation","0","Clapet","0","4","Erdre et Loire","440109","Nantes","[ 47.2724260531034 , -1.5201388255047]"
"TS5368","ts_ent","St Joseph de Porterie","46","Rue de la Planche au Gué","Gué","5.0","5.0","Kinshofer","RAL 7032","avec réservation","0","Clapet","0","4","Erdre et Loire","440109","Nantes","[ 47.2731711486545 , -1.51958008445993]"
"TS5369","ts_ent","La Bottière","94","Rue Félix Ménétrier","Ménétrier","5.0","5.0","Kinshofer","gris RAL 9007","tôle","0","80L","0","4","Erdre et Loire","440109","Nantes","[ 47.2402093318642 , -1.5210387622694]"
"TS5370","ts_ent","La Bottière","94","Rue Félix Ménétrier","Ménétrier","5.0","5.0","Kinshofer","gris RAL 9007","tôle","0","80L","0","4","Erdre et Loire","440109","Nantes","[ 47.2402296160206 , -1.52104931593945]"
"TS5371","ts_ent","La Bottière","3","Rue Urbain le Verrier","Verrier","5.0","5.0","Kinshofer","gris RAL 9007","tôle","0","80L","0","4","Erdre et Loire","440109","Nantes","[ 47.240626920684 , -1.51848705020074]"
"TS5372","ts_ent","La Bottière","7","Rue Urbain le Verrier","Verrier","5.0","5.0","Kinshofer","gris RAL 9007","tôle","0","80L","0","4","Erdre et Loire","440109","Nantes","[ 47.2409655825835 , -1.51900540081542]"
"TS5373","ts_ent","Bout des pavés-Chêne des","61","Avenue du Bout des Landes","Landes","5.0","5.0","kinshofer","gris RAL 9007","tôle","0","trappe 80l","0","6","Erdre et Cens","440109","Nantes","[ 47.2600565836499 , -1.5788483251105]"
"TS5374","ts_ent","Bout des pavés-Chêne des","61","Avenue du Bout des Landes","Landes","5.0","5.0","kinshofer","gris RAL 9007","tôle","0","trappe 80l","0","6","Erdre et Cens","440109","Nantes","[ 47.2600780456228 , -1.57885444388625]"
"TS5375","ts_ent","Bout des pavés-Chêne des","61","Avenue du Bout des Landes","Landes","5.0","5.0","kinshofer","gris RAL 9007","tôle","0","trappe 80l","0","6","Erdre et Cens","440109","Nantes","[ 47.260098426945 , -1.57886199930189]"
"TS5376","ts_ent","Boissière","1","Rue Paul Claudel","Claudel","5.0","5.0","kinshofer","gris RAL 9007","tôle","0","trappe 80l","0","6","Erdre et Cens","440109","Nantes","[ 47.2521034277797 , -1.56713903784582]"
"TS5377","ts_ent","Boissière","1","Rue Paul Claudel","Claudel","5.0","5.0","kinshofer","gris RAL 9007","tôle","0","trappe 80l","0","6","Erdre et Cens","440109","Nantes","[ 47.2521063562856 , -1.56711348766726]"
"TS5378","ts_ent","Boissière","1","Rue Paul Claudel","Claudel","5.0","5.0","kinshofer","gris RAL 9007","tôle","0","trappe 80l","0","6","Erdre et Cens","440109","Nantes","[ 47.2521208754081 , -1.56714182691416]"
"TS5379","ts_ent","Boissière","1","Rue Paul Claudel","Claudel","5.0","5.0","kinshofer","gris RAL 9007","tôle","0","trappe 80l","0","6","Erdre et Cens","440109","Nantes","[ 47.2521237015826 , -1.5671193003104]"
"TS5380","ts_ent","Boissière","1","Rue Prosper Mérimée","Mérimée","5.0","5.0","kinshofer","gris RAL 9007","tôle","0","trappe 80l","0","6","Erdre et Cens","440109","Nantes","[ 47.2548682380874 , -1.5676151824212]"
"TS5381","ts_ent","Boissière","1","Rue Prosper Mérimée","Mérimée","5.0","5.0","kinshofer","gris RAL 9007","tôle","0","trappe 80l","0","6","Erdre et Cens","440109","Nantes","[ 47.2548701373594 , -1.56758955580609]"
"TS5382","ts_ent","Boissière","1","Rue Prosper Mérimée","Mérimée","5.0","5.0","kinshofer","gris RAL 9007","tôle","0","trappe 80l","0","6","Erdre et Cens","440109","Nantes","[ 47.2548906218077 , -1.56759408247313]"
"TS5383","ts_ent","Bout des pavés-Chêne des","14","Rue de Toronto","Toronto","5.0","5.0","kinshofer","gris RAL 9007","tôle","0","trappe 80l","0","6","Erdre et Cens","440109","Nantes","[ 47.2582660748865 , -1.57781992434506]"
"TS5384","ts_ent","Bout des pavés-Chêne des","14","Rue de Toronto","Toronto","5.0","5.0","kinshofer","gris RAL 9007","tôle","0","trappe 80l","0","6","Erdre et Cens","440109","Nantes","[ 47.2582667995753 , -1.5778593858515]"
"TS5385","ts_ent","Bout des pavés-Chêne des","14","Rue de Toronto","Toronto","5.0","5.0","kinshofer","gris RAL 9007","tôle","0","trappe 80l","0","6","Erdre et Cens","440109","Nantes","[ 47.2582797159278 , -1.57784365852861]"
"TS5386","ts_ent","Bout des pavés-Chêne des","9","Rue de Vancouver","Vancouver","5.0","5.0","kinshofer","gris RAL 9007","tôle","0","trappe 80l","0","6","Erdre et Cens","440109","Nantes","[ 47.2592593021368 , -1.57813817983412]"
"TS5387","ts_ent","Bout des pavés-Chêne des","9","Rue de Vancouver","Vancouver","5.0","5.0","kinshofer","gris RAL 9007","tôle","0","trappe 80l","0","6","Erdre et Cens","440109","Nantes","[ 47.2592766981407 , -1.57814248483246]"
"TS5388","ts_ent","Bout des pavés-Chêne des","7","Rue de Hamilton","Hamilton","5.0","5.0","kinshofer","gris RAL 9007","tôle","0","trappe 80l","0","6","Erdre et Cens","440109","Nantes","[ 47.2594912382954 , -1.57653331325201]"
"TS5389","ts_ent","Richebourg - St Clément","37","Rue Maréchal Joffre","Joffre","5.0","5.0","Kinshofer","RAL9007","acier galvanisé stri","0","","0","9","Nantes-Loire","440109","Nantes","[ 47.2218585715759 , -1.54710357341477]"
"TS5390","ts_ent","Dervallières - Chézine","0","rue Auguste Lepère","Lepère","0.0","0.0","","","","0","","0","8","Nantes-Ouest","440109","Nantes","[ 47.2272232175926 , -1.59787010342564]"
"TS5391","ts_ent","Dervallières - Chézine","0","rue Auguste Lepère","Lepère","0.0","0.0","","","","0","","0","8","Nantes-Ouest","440109","Nantes","[ 47.2271643992534 , -1.59774913487845]"
"TS5392","ts_ent","Dervallières - Chézine","4","Rue Antoine Watteau","Watteau","5.0","5.0","Kinshofer","gris RAL 9007","tôle","0","80L","0","8","Nantes-Ouest","440109","Nantes","[ 47.2225461500439 , -1.60141905270174]"
"TS5393","ts_ent","Dervallières - Chézine","2","Rue Jean Baptiste Chardin","Chardin","5.0","5.0","Kinshofer","gris RAL 9007","tôle","0","80L","0","8","Nantes-Ouest","440109","Nantes","[ 47.2231173714154 , -1.59980094082668]"
"TS5394","ts_ent","Dervallières - Chézine","2","Rue Jean Baptiste Chardin","Chardin","5.0","5.0","Kinshofer","gris RAL 9007","tôle","0","80L","0","8","Nantes-Ouest","440109","Nantes","[ 47.223128023311 , -1.59982141601188]"
"TS5395","ts_ent","Dervallières - Chézine","18","Rue Antoine Watteau","Watteau","5.0","5.0","Kinshofer","gris RAL 9007","tôle","0","80L","0","8","Nantes-Ouest","440109","Nantes","[ 47.2231259307961 , -1.60078917771818]"
"TS5396","ts_ent","Dervallières - Chézine","18","Rue Antoine Watteau","Watteau","5.0","5.0","Kinshofer","gris RAL 9007","tôle","0","80L","0","8","Nantes-Ouest","440109","Nantes","[ 47.2231365825054 , -1.60080965302103]"
"TS5397","ts_ent","Dervallières - Chézine","6","Rue Jean Baptiste Greuze","Greuze","5.0","5.0","Kinshofer","gris RAL 9007","tôle","0","80L","0","8","Nantes-Ouest","440109","Nantes","[ 47.2232766509268 , -1.59861146665742]"
"TS5398","ts_ent","Dervallières - Chézine","12","Rue Georges de la Tour","Tour","5.0","5.0","Kinshofer","gris RAL 9007","tôle","0","80L","0","8","Nantes-Ouest","440109","Nantes","[ 47.2240351590193 , -1.60217543640086]"
"TS5399","ts_ent","Dervallières - Chézine","12","Rue Georges de la Tour","Tour","5.0","5.0","Kinshofer","gris RAL 9007","tôle","0","80L","0","8","Nantes-Ouest","440109","Nantes","[ 47.2240501374453 , -1.60215987654443]"
"TS5400","ts_ent","Dervallières - Chézine","12","Rue Georges de la Tour","Tour","5.0","5.0","Kinshofer","gris RAL 9007","tôle","0","80L","0","8","Nantes-Ouest","440109","Nantes","[ 47.2240394859797 , -1.60213940062606]"
"TS5401","ts_ent","Bout des Landes","2","Rue de Brest","Brest","0.0","0.0","","","","0","","0","6","Erdre et Cens","440109","Nantes","[ 47.265157402936 , -1.58075746668201]"
"TS5402","ts_ent","Bout des Landes","6","Rue de Brest","Brest","0.0","0.0","","","","0","","0","6","Erdre et Cens","440109","Nantes","[ 47.2659646895419 , -1.5812941313534]"
"TS5403","ts_ent","Bout des Landes","6","Rue de Brest","Brest","0.0","0.0","","","","0","","0","6","Erdre et Cens","440109","Nantes","[ 47.2659788410685 , -1.5812724293527]"
"TS5404","ts_ent","Bout des Landes","8","Rue de Brest","Brest","0.0","0.0","","","","0","","0","6","Erdre et Cens","440109","Nantes","[ 47.2662028302222 , -1.58139192609571]"
"TS5405","ts_ent","Bout des Landes","8","Rue de Brest","Brest","0.0","0.0","","","","0","","0","6","Erdre et Cens","440109","Nantes","[ 47.2661976344876 , -1.58142338004844]"
"TS5406","ts_ent","Bout des Landes","2","Rue de Brest","Brest","0.0","0.0","","","","0","","0","6","Erdre et Cens","440109","Nantes","[ 47.2653664734024 , -1.58095166202448]"
"TS5407","ts_ent","Graslin - Commerce","0","Allée de la Bourse","Bourse","5.0","5.0","Kinshofer","","remplissage asphalte","0","80L","0","9","Nantes-Loire","440109","Nantes","[ 47.2124144188788 , -1.55861215433755]"
"TS5408","ts_ent","Graslin - Commerce","0","Allée de la Bourse","Bourse","5.0","5.0","Kinshofer","","remplissage asphalte","0","80L","0","9","Nantes-Loire","440109","Nantes","[ 47.2124274859298 , -1.55859190376437]"
"TS5409","ts_ent","Malakoff","25","Rue d'Angleterre","Angleterre","5.0","5.0","Kinshofer","gris RAL 9007","tôle","0","80L","0","9","Nantes-Loire","440109","Nantes","[ 47.2142288515112 , -1.52908400646401]"
"TS5410","ts_ent","Malakoff","25","Rue d'Angleterre","Angleterre","5.0","5.0","Kinshofer","gris RAL 9007","tôle","0","80L","0","9","Nantes-Loire","440109","Nantes","[ 47.2142348090647 , -1.52906020604379]"
"TS5411","ts_ent","Malakoff","25","Rue d'Angleterre","Angleterre","5.0","5.0","Kinshofer","gris RAL 9007","tôle","0","80L","0","9","Nantes-Loire","440109","Nantes","[ 47.2142407666132 , -1.52903640561829]"
"TS5412","ts_ent","Malakoff","25","Rue d'Angleterre","Angleterre","5.0","5.0","Kinshofer","gris RAL 9007","tôle","0","80L","0","9","Nantes-Loire","440109","Nantes","[ 47.2143592626159 , -1.52907222409258]"
"TS5413","ts_ent","Malakoff","25","Rue d'Angleterre","Angleterre","5.0","5.0","Kinshofer","gris RAL 9007","tôle","0","80L","0","9","Nantes-Loire","440109","Nantes","[ 47.2143509929695 , -1.52910342968457]"
"TS5414","ts_ent","Malakoff","17","Rue d'Angleterre","Angleterre","5.0","5.0","Kinshofer","gris RAL 9007","tôle","0","80L","0","9","Nantes-Loire","440109","Nantes","[ 47.2144301898327 , -1.52831104763312]"
"TS5415","ts_ent","Malakoff","17","Rue d'Angleterre","Angleterre","5.0","5.0","Kinshofer","gris RAL 9007","tôle","0","80L","0","9","Nantes-Loire","440109","Nantes","[ 47.2144384592649 , -1.52827984187314]"
"TS5416","ts_ent","Malakoff","17","Rue d'Angleterre","Angleterre","5.0","5.0","Kinshofer","gris RAL 9007","tôle","0","80L","0","9","Nantes-Loire","440109","Nantes","[ 47.214446627378 , -1.52825165763937]"
"TS5417","ts_ent","Malakoff","14","Rue d'Angleterre","Angleterre","5.0","5.0","Kinshofer","gris RAL 9007","tôle","0","80L","0","9","Nantes-Loire","440109","Nantes","[ 47.2147330276834 , -1.5274651468301]"
"TS5418","ts_ent","Malakoff","14","Rue d'Angleterre","Angleterre","5.0","5.0","Kinshofer","gris RAL 9007","tôle","0","80L","0","9","Nantes-Loire","440109","Nantes","[ 47.2147423769115 , -1.52743250430774]"
"TS5419","ts_ent","Malakoff","1","Rue d'Angleterre","Angleterre","5.0","5.0","Kinshofer","gris RAL 9007","tôle","0","80L","0","9","Nantes-Loire","440109","Nantes","[ 47.2149827031751 , -1.52654270633582]"
"TS5420","ts_ent","Malakoff","1","Rue d'Angleterre","Angleterre","5.0","5.0","Kinshofer","gris RAL 9007","tôle","0","80L","0","9","Nantes-Loire","440109","Nantes","[ 47.2149967939846 , -1.52652252129843]"
"TS5421","ts_ent","Dervallières - Chézine","5","Rue Claude Lorrain","Lorrain","5.0","5.0","Kinshofer","gris RAL 9007","tôle","0","80L","0","8","Nantes-Ouest","440109","Nantes","[ 47.225245862599 , -1.60165409256327]"
"TS5422","ts_ent","Dervallières - Chézine","2","Rue Jean Baptiste Chardin","Chardin","5.0","5.0","","","","0","","0","8","Nantes-Ouest","440109","Nantes","[ 47.2231152611678 , -1.59980230033166]"
"TS5423","ts_ent","La Bottière","98","Rue Félix Ménétrier","Ménétrier","5.0","5.0","Kinshofer","gris RAL 9007","tôle","0","80L","0","4","Erdre et Loire","440109","Nantes","[ 47.2407535912278 , -1.52009921798605]"
"TS5424","ts_ent","La Bottière","67","Rue de la Bottière","Bottière","5.0","5.0","Kinshofer","gris RAL 9007","tôle","0","80L","0","4","Erdre et Loire","440109","Nantes","[ 47.2400552679629 , -1.51854888232384]"
"TS5426","ts_ent","La Bottière","98","Rue Félix Ménétrier","Ménétrier","5.0","5.0","Kinshofer","gris RAL 9007","tôle","0","80L","0","4","Erdre et Loire","440109","Nantes","[ 47.2407398876456 , -1.52007701774379]"
"TS5427","ts_ent","Lauriers","0","Rue de la Save","Save","5.0","5.0","Kinshofer","gris RAL 9007","tôle","0","80L","0","8","Nantes-Ouest","440109","Nantes","[ 47.2057769187483 , -1.60466603264104]"
"TS5428","ts_ent","Lauriers","14","Rue du Doubs","Doubs","5.0","5.0","Kinshofer","gris RAL 9007","tôle","0","80L","0","8","Nantes-Ouest","440109","Nantes","[ 47.2049629849477 , -1.60610670390085]"
"TS5429","ts_ent","Lauriers","14","Rue du Doubs","Doubs","5.0","5.0","Kinshofer","gris RAL 9007","tôle","0","80L","0","8","Nantes-Ouest","440109","Nantes","[ 47.2049480575911 , -1.60612074671396]"
"TS5430","ts_ent","Lauriers","12","Rue du Doubs","Doubs","5.0","5.0","Kinshofer","gris RAL 9007","tôle","0","80L","0","8","Nantes-Ouest","440109","Nantes","[ 47.2046398411983 , -1.6063524341356]"
"TS5431","ts_ent","Lauriers","6","Rue du Doubs","Doubs","5.0","5.0","Kinshofer","gris RAL 9007","tôle","0","80L","0","8","Nantes-Ouest","440109","Nantes","[ 47.2041396065498 , -1.60580227283121]"
"TS5432","ts_ent","Lauriers","6","Rue du Drac","Drac","5.0","5.0","Kinshofer","gris RAL 9007","tôle","0","80L","0","8","Nantes-Ouest","440109","Nantes","[ 47.2037527973134 , -1.6048925254037]"
"TS5433","ts_ent","Lauriers","6","Rue du Drac","Drac","5.0","5.0","Kinshofer","gris RAL 9007","tôle","0","80L","0","8","Nantes-Ouest","440109","Nantes","[ 47.2037443082325 , -1.60486918747325]"
"TS5434","ts_ent","Lauriers","2","Rue du Gers","Gers","5.0","5.0","Kinshofer","gris RAL 9007","tôle","0","80L","0","8","Nantes-Ouest","440109","Nantes","[ 47.2047063276755 , -1.6040466323769]"
"TS5435","ts_ent","Lauriers","3","Rue du Gers","Gers","5.0","5.0","Kinshofer","gris RAL 9007","tôle","0","80L","0","8","Nantes-Ouest","440109","Nantes","[ 47.2050233020598 , -1.60455451949756]"
"TS5436","ts_ent","Lauriers","3","Rue du Gers","Gers","5.0","5.0","Kinshofer","gris RAL 9007","tôle","0","80L","0","8","Nantes-Ouest","440109","Nantes","[ 47.2050381775714 , -1.60454198665521]"
"TS5437","ts_ent","Lauriers","9","Rue du Gers","Gers","5.0","5.0","Kinshofer","gris RAL 9007","tôle","0","80L","0","8","Nantes-Ouest","440109","Nantes","[ 47.2052241188299 , -1.60501903213803]"
"TS5438","ts_ent","Lauriers","0","Rue de la Save","Save","5.0","5.0","Kinshofer","gris RAL 9007","tôle","0","80L","0","8","Nantes-Ouest","440109","Nantes","[ 47.2057679092627 , -1.60468808302238]"
"TS5439","ts_ent","Dervallières - Chézine","2","Rue Jean Baptiste Chardin","Chardin","5.0","5.0","","","","0","","0","8","Nantes-Ouest","440109","Nantes","[ 47.2231258614702 , -1.59982428646025]"
"TS5440","ts_ent","Dervallières - Chézine","5","Rue Claude Lorrain","Lorrain","5.0","5.0","Kinshofer","gris RAL 9007","tôle","0","80L","0","8","Nantes-Ouest","440109","Nantes","[ 47.2252308326279 , -1.60167116390207]"
"TS5441","ts_ent","St Joseph de Porterie","15","Rue de la Planche au Gué","Gué","0.0","0.0","","","","0","","0","4","Erdre et Loire","440109","Nantes","[ 47.2710710793516 , -1.52147068150685]"
"TS5442","ts_ent","St Joseph de Porterie","15","Rue de la Planche au Gué","Gué","0.0","0.0","","","","0","","0","4","Erdre et Loire","440109","Nantes","[ 47.2710552343063 , -1.52148166618612]"
"TS5443","ts_ent","Gloriette - Feydeau","0","Cours Commandant D'Estienne D'Orves","","5.0","5.0","","","","0","","0","9","Nantes-Loire","440109","Nantes","[ 47.2134335221364 , -1.55278764463762]"
"TS5444","ts_ent","Gloriette - Feydeau","0","Cours Commandant D'Estienne D'Orves","","5.0","5.0","","","","1","","0","9","Nantes-Loire","440109","Nantes","[ 47.2134034568646 , -1.55276122904896]"
"TS5445","ts_ent","Gloriette - Feydeau","0","Cours Commandant D'Estienne D'Orves","","5.0","5.0","","","","0","","0","9","Nantes-Loire","440109","Nantes","[ 47.2134184895013 , -1.55277443683959]"
"TS5446","ts_ent","Malakoff","0","Rue de Madrid","Madrid","5.0","5.0","Kinshofer","","enrobé","1","","0","9","Nantes-Loire","440109","Nantes","[ 47.2137508154407 , -1.53318230070315]"
"TS5447","ts_ent","Malakoff","0","Rue de Madrid","Madrid","5.0","5.0","Kinshofer","","acier","0","80L","0","9","Nantes-Loire","440109","Nantes","[ 47.2141327481862 , -1.53234821095128]"
"TS5448","ts_ent","","0","Rue de Madrid","Madrid","5.0","5.0","Kinshofer","","enrobé","0","80L","0","9","Nantes-Loire","440109","Nantes","[ 47.2139491732511 , -1.53277563534636]"
"TS5449","ts_ent","Bout des Landes","15","Rue de Pont Aven","Pont","5.0","0.0","","","","0","","0","6","Erdre et Cens","440109","Nantes","[ 47.2666865475825 , -1.58057843981244]"
"TS5450","ts_ent","Bout des Landes","13","Rue de Pont Aven","Pont","5.0","0.0","","","","0","","0","6","Erdre et Cens","440109","Nantes","[ 47.266650492118 , -1.57963439394997]"
"TS5451","ts_ent","Bout des Landes","13","Rue de Pont Aven","Pont","5.0","0.0","","","","0","","0","6","Erdre et Cens","440109","Nantes","[ 47.2666505920584 , -1.57960105040298]"
"TS5452","ts_ent","Bout des Landes","0","Boulevard René Cassin","Cassin","5.0","0.0","","","","0","","0","6","Erdre et Cens","440109","Nantes","[ 47.2640983960662 , -1.5775738505603]"
"TS5453","ts_ent","Rte de Ste Luce","55","Rue de la Basse Chénaie","Basse","5.0","0.0","Kinshofer","","","0","","0","4","Erdre et Loire","440109","Nantes","[ 47.2408615170513 , -1.50864785911055]"
"TS5454","ts_ent","Bout des Landes","0","Rue de Douarnenez","Douarnenez","5.0","0.0","","","","0","","0","6","Erdre et Cens","440109","Nantes","[ 47.2645556726412 , -1.57537897234976]"
"TS5455","ts_ent","Bout des Landes","15","Rue de Pont Aven","Pont","5.0","0.0","","","","0","","0","6","Erdre et Cens","440109","Nantes","[ 47.2667067233734 , -1.58059204557111]"
"TS5456","ts_ent","","0","Rue des Halquinières","Halquinières","5.0","0.0","","","","0","","0","4","Erdre et Loire","440109","Nantes","[ 47.2395450523545 , -1.50901382326646]"
"TS5457","ts_ent","","0","Mail Haroun Tazieff","Tazieff","5.0","0.0","","","","0","","0","4","Erdre et Loire","440109","Nantes","[ 47.2396332969042 , -1.51128678570426]"
"TS5458","ts_ent","","0","Mail Haroun Tazieff","Tazieff","5.0","0.0","","","","0","","0","4","Erdre et Loire","440109","Nantes","[ 47.2398710819594 , -1.51182963935756]"
"TS5459","ts_ent","","0","Rue des Halquinières","Halquinières","5.0","0.0","","","","0","","0","4","Erdre et Loire","440109","Nantes","[ 47.2399249795109 , -1.50835781429867]"
"V4001","verre_ent","Santos Dumont","0","rue de la petite sensive","sensive","4.0","4.0","kinshofer","gris RAL 9007","tôle larmée","0","opercule","0","6","Erdre et Cens","440109","Nantes","[ 47.2604370973811 , -1.56157980477749]"
"V4002","verre_ent","Boissière","0","rue blaise pascal","pascal","4.0","4.0","kinshofer","gris RAL 9007","tôle larmée","0","opercule","0","6","Erdre et Cens","440109","Nantes","[ 47.2562035151009 , -1.56676084387101]"
"V4003","verre_ent","Waldeck - Sully","0","place waldeck rousseau","rousseau","4.0","4.0","kinshofer","gris RAL 9007","avec réservation","0","opercule","0","9","Nantes-Loire","440109","Nantes","[ 47.2277916703846 , -1.55164090879824]"
"V4004","verre_ent","Trentemoult","0","Place Levoyer","levoyer","4.0","5.0","kinshofer","gris RAL 7022","avec réservation","0","opercule","0","2","Loire, Sèvre et Vignoble","440143","Rezé","[ 47.1942407251756 , -1.58134716266798]"
"V4005","verre_ent","Trentemoult","0","Place des filets","filets","4.0","4.0","kinshofer","non_definie","avec réservation","0","opercule","0","2","Loire, Sèvre et Vignoble","440143","Rezé","[ 47.194553752791 , -1.58370302032834]"
"V4006","verre_ent","Sorinières","0","Rue de la paix","paix","4.0","4.0","kinshofer","gris RAL 9007","tôle larmée","1","opercule","0","2","Loire, Sèvre et Vignoble","440198","Les Sorinières","[ 47.1505604647505 , -1.53274746188161]"
"V4007","verre_ent","Sorinières","0","Rue de la paix","paix","4.0","4.0","kinshofer","gris RAL 9007","tôle larmée","0","opercule","1","2","Loire, Sèvre et Vignoble","440198","Les Sorinières","[ 47.1505443645828 , -1.53276596315822]"
"V4008","verre_ent","Indre","0","Place Louis Le Loir","Loir","4.0","5.0","kinshofer","gris RAL 9007","tôle larmée","0","opercule","0","7","Loire-Chézine","440074","Indre","[ 47.199254100927 , -1.67603742253743]"
"V4009","verre_ent","Indre","0","Place Louis Le Loir","Loir","4.0","5.0","kinshofer","gris RAL 9007","tôle larmée","0","opercule","0","7","Loire-Chézine","440074","Indre","[ 47.1992712005167 , -1.67602053496318]"
"V4010","verre_ent","Indre","0","Place Jean Ligondais","Ligondais","4.0","5.0","kinshofer","gris RAL 9007","tôle larmée","0","opercule","0","7","Loire-Chézine","440074","Indre","[ 47.1972066247199 , -1.6714431362771]"
"V4011","verre_ent","Indre","0","Place Jean Ligondais","Ligondais","4.0","5.0","kinshofer","gris RAL 9007","tôle larmée","0","tambour","0","7","Loire-Chézine","440074","Indre","[ 47.1972191649337 , -1.67146830054037]"
"V4012","verre_ent","Breil-Malville","0","Rue Jules Noël","Noël","4.0","5.0","kinshofer","gris RAL 9007","tôle larmée","0","opercule","0","8","Nantes-Ouest","440109","Nantes","[ 47.2289417574108 , -1.58571370086022]"
"V4013","verre_ent","Mairie de Chantenay","0","rue de la marseillaise  (mairie chantenay)","marseillaise","4.0","4.0","kinshofer","gris fonte","polyester","0","opercule","0","8","Nantes-Ouest","440109","Nantes","[ 47.2067670458424 , -1.58801984671188]"
"V4014","verre_ent","Rd pt de Vannes","0","rue chanoine larose","larose","4.0","4.0","kinshofer","gris moyen RAL 083820","avec réservation","0","opercule","0","8","Nantes-Ouest","440109","Nantes","[ 47.2322525248871 , -1.57811033932897]"
"V4015","verre_ent","Gde Grèneraie - Clos toreau","0","Rue Louis Loucheur","Loucheur","4.0","4.0","kinshofer","gris fonte","polyester","0","opercule","0","2","Loire, Sèvre et Vignoble","440109","Nantes","[ 47.1934055970981 , -1.52714597492607]"
"V4016","verre_ent","Toutes Aides","0","place victor basch","basch","4.0","4.0","kinshofer","gris moyen RAL 083820","avec réservation","0","capot","0","9","Nantes-Loire","440109","Nantes","[ 47.2254075363318 , -1.52318891278405]"
"V4017","verre_ent","Malakoff","11","rue de norvège","norvege","4.0","4.0","kinshofer","gris fonte","polyester","0","opercule","0","9","Nantes-Loire","440109","Nantes","[ 47.2162812876986 , -1.52474183609295]"
"V4018","verre_ent","Malakoff","0","rue de hongrie","hongrie","4.0","4.0","kinshofer","gris fonte","polyester","0","opercule","0","9","Nantes-Loire","440109","Nantes","[ 47.2166268902281 , -1.52366574237227]"
"V4019","verre_ent","Malakoff","0","rue de suisse","suisse","4.0","5.0","kinshofer","gris RAL 9007","avec réservation","0","opercule","0","9","Nantes-Loire","440109","Nantes","[ 47.2169418268782 , -1.52174839638238]"
"V4020","verre_ent","Lauriers","0","Rue du Rhône","Rhône","4.0","5.0","kinshofer","gris RAL 9007","avec réservation","0","opercule","0","8","Nantes-Ouest","440109","Nantes","[ 47.2030716971136 , -1.60048610670101]"
"V4021","verre_ent","Breil-Malville","0","rue jules raimu","Raimu","4.0","5.0","kinshofer","gris RAL 9007","tôle larmée","0","tambour","0","8","Nantes-Ouest","440109","Nantes","[ 47.2313498501517 , -1.58305424054398]"
"V4022","verre_ent","Breil-Malville","0","Rue Georges Méliès","Méliès","4.0","5.0","kinshofer","gris RAL 9007","tôle larmée","0","tambour","0","8","Nantes-Ouest","440109","Nantes","[ 47.2332659810097 , -1.5857277203248]"
"V4023","verre_ent","Talensac - Pont Morand","7","rue basse porte","porte","4.0","4.0","kinshofer","vert_nantais","polyester","0","opercule","0","8","Nantes-Ouest","440109","Nantes","[ 47.2209161071743 , -1.55797232777598]"
"V4024","verre_ent","Ste Anne-Zone Portuaire","0","quai wilson/quai antilles","antilles","4.0","5.0","kinshofer","RAL 6029","tôle larmée","1","opercule","0","9","Nantes-Loire","440109","Nantes","[ 47.1997496837873 , -1.5733383287034]"
"V4025","verre_ent","Ste Anne-Zone Portuaire","0","Quai des Antilles","antilles","4.0","5.0","kinshofer","RAL 6029","tôle larmée","1","opercule","0","9","Nantes-Loire","440109","Nantes","[ 47.1997455619246 , -1.57330774649704]"
"V4026","verre_ent","Breil-Malville","0","Rue Pierre de Coubertin","coubertin","4.0","5.0","kinshofer","gris RAL 9007","tôle larmée","0","opercule","0","8","Nantes-Ouest","440109","Nantes","[ 47.2290206141093 , -1.58779337004191]"
"V4027","verre_ent","St-Jean-de-Boiseau","0","Avenue du Onze Novembre","Novembre","0.0","0.0","","","","0","","0","1","Sud-Ouest","440166","St-Jean-de-Boiseau","[ 47.1946943348593 , -1.72476780293544]"
"V4028","verre_ent","St-Jean-de-Boiseau","0","Avenue du Onze Novembre","Novembre","0.0","0.0","","","","0","","0","1","Sud-Ouest","440166","St-Jean-de-Boiseau","[ 47.1947150795336 , -1.72476483493597]"
"V4029","verre_ent","Haluchère-Perray","0","rue de la sècherie","sècherie","4.0","4.0","","gris moyen RAL 083820","pavés","0","opercule","0","4","Erdre et Loire","440109","Nantes","[ 47.2426574494057 , -1.5143226171815]"
"V4031","verre_ent","Malakoff","9","rue de Chypre","Chypre","4.0","5.0","kinshofer","gris RAL 9007","tôle larmée","0","tambour_80l","0","9","Nantes-Loire","440109","Nantes","[ 47.21544624439 , -1.52521164536041]"
"V4032","verre_ent","Dervallières - Chézine","0","Rue Louis le Nain","Nain","0.0","0.0","","","","0","","0","8","Nantes-Ouest","440109","Nantes","[ 47.2262814717069 , -1.59940051393083]"
"V4033","verre_ent","Vieux Malakoff","6","rue de l'Indre","Indre","4.0","5.0","kinshofer","gris RAL 9007","tôle larmée","0","","0","9","Nantes-Loire","440109","Nantes","[ 47.2139965398505 , -1.53621982026675]"
"V4034","verre_ent","Cremetterie","0","Avenue de la Branchoire","Branchoise","4.0","0.0","kinshofer","","tôle larmée","0","opercule","1","7","Loire-Chézine","440162","St-Herblain","[ 47.218365683216 , -1.60712895069911]"
"V4035","verre_ent","Cremetterie","0","Avenue de la Branchoire","Branchoise","4.0","0.0","kinshofer","","tôle larmée","0","opercule","1","7","Loire-Chézine","440162","St-Herblain","[ 47.2183845211802 , -1.60712125126156]"
"V4036","verre_ent","Malakoff","0","rue de suisse","suisse","4.0","5.0","kinshofer","gris RAL 9007","avec réservation","0","tambour","0","9","Nantes-Loire","440109","Nantes","[ 47.2170200382295 , -1.52329578911802]"
"V4037","verre_ent","Ile Beaulieu","2","Rue Thomas Narcejac","Narcejac","0.0","0.0","","","","0","","0","9","Nantes-Loire","440109","Nantes","[ 47.2101726122261 , -1.52972840381147]"
"V4038","verre_ent","Ile Beaulieu","3","Rue Jean Gorin","Gorin","0.0","0.0","","","","0","","0","9","Nantes-Loire","440109","Nantes","[ 47.2093011560588 , -1.52882199926803]"
"V4039","verre_ent","Ile Beaulieu","0","Rue du Pen Duick II","Pen Duick","4.0","5.0","","","","0","","0","9","Nantes-Loire","440109","Nantes","[ 47.2108640831296 , -1.53184692481347]"
"V4040","verre_ent","Decré - Cathédrale","0","Allée du Port Maillard","Maillard","4.0","5.0","kinshofer","","","0","","0","9","Nantes-Loire","440109","Nantes","[ 47.2148393045635 , -1.55173730289862]"
"V4041","verre_ent","Decré - Cathédrale","0","Allée de la Tremperie","Tremperie","4.0","5.0","kinshofer","","","0","","0","9","Nantes-Loire","440109","Nantes","[ 47.2144271097909 , -1.55364736452914]"
"V4042","verre_ent","St Joseph de Porterie","1","Rue de la Planche au Gué","Gué","4.0","0.0","Kinshofer","","stabilité avec réser","0","","0","4","Erdre et Loire","440109","Nantes","[ 47.2688212547979 , -1.52176008376974]"
"V4043","verre_ent","Beautour","308","308 Route de Clisson","Clisson","4.0","5.0","","","","0","","0","2","Loire, Sèvre et Vignoble","440215","Vertou","[ 47.1880059815132 , -1.49984330919332]"
"V4044","verre_ent","","0","Rue Jean-Jacques Audubon","Audubon","4.0","5.0","Kinshofer","RAL 9006","Acier Galvanisé stri","0","opercule","0","1","Sud-Ouest","440018","Bouaye","[ 47.1577841379452 , -1.67784471975078]"
"V4045","verre_ent","Dobree-Bon Port","11","Rue de Gigant","Gigant","4.0","5.0","","","","0","","0","9","Nantes-Loire","440109","Nantes","[ 47.2142532122748 , -1.56998626746342]"
"V4046","verre_ent","Dervallières - Chézine","6","Rue Jean Honoré Fragonard","Fragonard","4.0","5.0","Kinshofer","vert RAL 6012","","0","Opercule","0","8","Nantes-Ouest","440109","Nantes","[ 47.2223342196638 , -1.60233651974911]"
"V4047","verre_ent","Bout des Landes","2","Rue de Concarneau","Concarneau","4.0","0.0","","","","0","","0","6","Erdre et Cens","440109","Nantes","[ 47.2643603534014 , -1.57852074689898]"
"V4048","verre_ent","Bout des Landes","7","Rue de Douarnenez","Douarnenez","5.0","5.0","Kinshofer","Gris RAL 9007","tôle larmée","0","Trappe","0","6","Erdre et Cens","440109","Nantes","[ 47.2649127530386 , -1.57629038089322]"
"V4049","verre_ent","Bout des Landes","1","Rue de Pont Aven","Aven","4.0","0.0","","","","0","","0","6","Erdre et Cens","440109","Nantes","[ 47.2656786184519 , -1.57503667594428]"
"V4050","verre_ent","St Joseph de Porterie","18","Rue de la Planche au Gué","Gué","4.0","5.0","Kinshofer","RAL 7032","avec réservation","0","Clapet","0","4","Erdre et Loire","440109","Nantes","[ 47.2700559253137 , -1.5214959634183]"
"V4051","verre_ent","St Joseph de Porterie","38","Rue de la Planche au Gué","Gué","4.0","5.0","Kinshofer","RAL 7032","avec réservation","0","Clapet","0","4","Erdre et Loire","440109","Nantes","[ 47.2724408686489 , -1.5201277658877]"
"V4052","verre_ent","ZAC de la Minais","76","Route de Thouaré","Thouaré","4.0","5.0","Kinshofer","RAL 7016","Alu strie arasante","0","","1","4","Erdre et Loire","440172","Ste-Luce-sur-Loire","[ 47.2567028503288 , -1.46749329722873]"
"V4053","verre_ent","La Roussellerie","0","Rue de la Frégate","Frégate","0.0","0.0","","","","0","","0","4","Erdre et Loire","440204","Thouaré-sur-Loire","[ 47.2694830402414 , -1.45243859804404]"
"V4054","verre_ent","Beaujoire - Halvèque","6","Rue Claude et Simone Millot","Millot","0.0","0.0","","","","0","","0","4","Erdre et Loire","440109","Nantes","[ 47.2605072428116 , -1.51392718053257]"
"V4055","verre_ent","Richebourg - St Clément","37","Rue Maréchal Joffre","Joffre","5.0","5.0","Kinshofer","RAL9007","acier galvanisé stri","0","","0","9","Nantes-Loire","440109","Nantes","[ 47.2218457101765 , -1.54711778650591]"
"V4056","verre_ent","St Joseph de Porterie","0","Rue Barbara","Barbara","4.0","5.0","Kinshofer","RAL 7032","avec réservation","0","Clapet","0","4","Erdre et Loire","440109","Nantes","[ 47.271700382603 , -1.52221498845787]"
"V4057","verre_ent","Bout des Landes","2","Rue de Brest","Brest","0.0","0.0","","","","0","","0","6","Erdre et Cens","440109","Nantes","[ 47.2651472147749 , -1.5807840065775]"
"V4058","verre_ent","Graslin - Commerce","0","Allée de la Bourse","Bourse","5.0","4.0","Kinshofer","","remplissage asphalte","0","","0","9","Nantes-Loire","440109","Nantes","[ 47.212440501925 , -1.55857316386412]"
"V4059","verre_ent","Malakoff","25","Rue d'Angleterre","Angleterre","4.0","0.0","Kinshofer","gris RAL 9007","tôle","0","","0","9","Nantes-Loire","440109","Nantes","[ 47.2143427739815 , -1.52913312450278]"
"V4060","verre_ent","Malakoff","14","Rue d'Angleterre","Angleterre","4.0","0.0","Kinshofer","gris RAL 9007","tôle","0","","0","9","Nantes-Loire","440109","Nantes","[ 47.2147516754861 , -1.52740137255131]"
"V4062","verre_ent","La Bottière","98","Rue Félix Ménétrier","Ménétrier","0.0","0.0","","","","0","","0","4","Erdre et Loire","440109","Nantes","[ 47.2407683747326 , -1.52011998094001]"
"V4064","verre_ent","ZAC de la Minais","0","Rue de la Gare","Gare","5.0","5.0","Kinshofer","RAL 7016","Alu strie arasante","0","","0","4","Erdre et Loire","440172","Ste-Luce-sur-Loire","[ 47.2536952750838 , -1.47130293852717]"
"V4065","verre_ent","","0","Rue de la Vallée","Vallée","4.0","5.0","Kinshofer","","","0","","0","6","Erdre et Cens","440194","Sautron","[ 47.2680865875305 , -1.6708149529626]"
"V4066","verre_ent","Bout des Landes","13","Rue de Pont Aven","Pont","4.0","0.0","","","","0","","0","6","Erdre et Cens","440109","Nantes","[ 47.2667144265572 , -1.5797876400277]"
"V4066","verre_ent","Malakoff","0","Rue de Madrid","Madrid","4.0","5.0","Kinshofer","","enrobé","0","opercule","0","9","Nantes-Loire","440109","Nantes","[ 47.213733417479 , -1.53317801391481]"
"V4067","verre_ent","Bout des Landes","0","Rue de Pont Aven","Pont","4.0","0.0","","","","0","","0","6","Erdre et Cens","440109","Nantes","[ 47.2662402634926 , -1.5776139227402]"
"V4068","verre_ent","Bout des Landes","6","Rue de Douarnenez","Douarnenez","4.0","0.0","","","","0","","0","6","Erdre et Cens","440109","Nantes","[ 47.2645962151999 , -1.57527885831349]"
"V4069","verre_ent","Madeleine-Champ de Mars","0","Cours Commandant D'Estienne D'Orves","","4.0","0.0","","","","0","","0","9","Nantes-Loire","440109","Nantes","[ 47.213387343887 , -1.55274945717667]"
"V4070","verre_ent","Mendes France","0","Rue de l'Adour","Adour","4.0","0.0","","","","0","","0","8","Nantes-Ouest","440109","Nantes","[ 47.2071870006049 , -1.61023039293384]"
"V4071","verre_ent","Ile Beaulieu","0","Rue Konrad Adenauer","Adenauer","4.0","0.0","","","","0","","0","9","Nantes-Loire","440109","Nantes","[ 47.2079523304127 , -1.53875194287645]"
"V4072","verre_ent","Ile Beaulieu","0","Rue Konrad Adenauer","Adenauer","4.0","0.0","","","","0","","0","9","Nantes-Loire","440109","Nantes","[ 47.2084010864222 , -1.53832561136713]"
"V4073","verre_ent","Rte de Ste Luce","55","Rue de la Basse Chénaie","Basse","4.0","0.0","Kinshofer","","","0","","0","4","Erdre et Loire","440109","Nantes","[ 47.24083628643 , -1.50863089390347]"
"V4074","verre_ent","","0","Place Aristide Briand","Briand","4.0","0.0","","","tôle","0","","0","4","Erdre et Loire","440026","Carquefou","[ 47.2973621654466 , -1.49496173371096]"
"V4075","verre_ent","","0","Rue Bourvil","Bourvil","4.0","0.0","Kinshofer","","","0","","0","6","Erdre et Cens","440035","La Chapelle-sur-Erdre","[ 47.3102584360753 , -1.55066554564527]"
"V4076","verre_ent","","0","Rue André Franquin","Franquin","4.0","0.0","Kinshofer","","","0","","0","6","Erdre et Cens","440035","La Chapelle-sur-Erdre","[ 47.3099245634433 , -1.54684991324768]"
"V4077","verre_ent","","0","Rue Philéas Fogg","Fogg","4.0","0.0","Kinshofer","","","0","","0","6","Erdre et Cens","440035","La Chapelle-sur-Erdre","[ 47.3086629862926 , -1.55459256789447]"
"V4078","verre_ent","","0","Rue Jean-Louis Foulquier","Foulquier","4.0","0.0","Kinshofer","","","0","","0","6","Erdre et Cens","440035","La Chapelle-sur-Erdre","[ 47.3091735785485 , -1.54684387560154]"
"V4079","verre_ent","","0","Avenue Olympe de Gouges","Gouges","4.0","0.0","Kinshofer","","","0","","0","6","Erdre et Cens","440035","La Chapelle-sur-Erdre","[ 47.3081205186742 , -1.54422166030923]"
"V4080","verre_ent","","0","Avenue des Perrières","Perrières","4.0","0.0","Kinshofer","","","0","","0","6","Erdre et Cens","440035","La Chapelle-sur-Erdre","[ 47.3096120296984 , -1.55221150849431]"
"V4081","verre_ent","","0","Avenue des Perrières","Perrières","4.0","0.0","Kinshofer","","","0","","0","6","Erdre et Cens","440035","La Chapelle-sur-Erdre","[ 47.3079031546789 , -1.55215388183945]"
"V4082","verre_ent","","0","Rue des Halquinières","Halquinières","4.0","0.0","","","","0","","0","4","Erdre et Loire","440109","Nantes","[ 47.2395625810053 , -1.50898326595055]"
"V4083","verre_ent","","0","Rue de la Mayenne","Mayenne","4.0","5.0","kinshofer","vert","inox","0","orifice","1","7","Loire-Chézine","440162","St-Herblain","[ 47.21237134097 , -1.61035220848655]"
"V4084","verre_ent","","0","Rue de la Chicotière","Chicotière","4.0","5.0","kinshofer","vert","inox","0","orifice","1","7","Loire-Chézine","440162","St-Herblain","[ 47.2140179355404 , -1.60807166344094]"
"V4085","verre_ent","","0","Rue de la Chicotière","Chicotière","4.0","5.0","kinhofer","vert","inox","0","orifice","1","7","Loire-Chézine","440162","St-Herblain","[ 47.2148798078458 , -1.61020552237155]"
"V4086","verre_ent","","0","Rue d'Arras","Arras","4.0","5.0","kinshofer","vert","inox","0","orifice","1","7","Loire-Chézine","440162","St-Herblain","[ 47.2127142096016 , -1.6094703376248]"
"V4087","verre_ent","","0","Boulevard Winston Churchill","Churchill","4.0","5.0","kinshofer","vert","inox","0","orifice","1","7","Loire-Chézine","440162","St-Herblain","[ 47.2067752077206 , -1.61354508399526]"
"V4088","verre_ent","","0","Rue de Bordeaux","Bordeaux","4.0","5.0","kinshofer","vert","inox","0","orifice","1","7","Loire-Chézine","440162","St-Herblain","[ 47.2106397201481 , -1.61131790793781]"
"V4089","verre_ent","","0","Rue de Bordeaux","Bordeaux","4.0","5.0","kinshofer","vert","inox","0","orifice","1","7","Loire-Chézine","440162","St-Herblain","[ 47.2106482596431 , -1.61133973930298]"
"V4090","verre_ent","","0","Rue de Flore","Flore","4.0","5.0","Kinshofer","","","0","","0","6","Erdre et Cens","440194","Sautron","[ 47.2605954564 , -1.66597734008713]"
"v4030","verre_ent","Vieux Malakoff","9","rue du Cher","Cher","4.0","0.0","kinshofer","gris RAL 9007","tôle larmée","0","tambour_80l","0","9","Nantes-Loire","440109","Nantes","[ 47.2146199168895 , -1.5341886361577]"
